{"type":"FeatureCollection","features":[
{"type":"Feature","geometry":{"type":"Point","coordinates":[128.5683361,35.8690122]},"properties":{"power":"transformer","source":"kepco"}},
{"type":"Feature","geometry":{"type":"Point","coordinates":[128.5683254,35.869082]},"properties":{"power":"transformer","source":"kepco"}},
{"type":"Feature","geometry":{"type":"Point","coordinates":[128.5683146,35.8692342]},"properties":{"power":"transformer","source":"kepco"}},
{"type":"Feature","geometry":{"type":"Point","coordinates":[128.5683205,35.8691646]},"properties":{"power":"transformer","source":"kepco"}},
{"type":"Feature","geometry":{"type":"Point","coordinates":[126.9763662,36.0614385]},"properties":{"power":"transformer"}},
{"type":"Feature","geometry":{"type":"Point","coordinates":[126.9761767,36.061051]},"properties":{"power":"transformer"}},
{"type":"Feature","geometry":{"type":"Point","coordinates":[128.5239159,35.2873169]},"properties":{"power":"transformer"}},
{"type":"Feature","geometry":{"type":"Point","coordinates":[128.5247264,35.287332]},"properties":{"power":"transformer"}},
{"type":"Feature","geometry":{"type":"Point","coordinates":[127.5030753,37.6164595]},"properties":{"power":"transformer"}},
{"type":"Feature","geometry":{"type":"Point","coordinates":[127.5039701,37.6162004]},"properties":{"power":"transformer"}},
{"type":"Feature","geometry":{"type":"Point","coordinates":[127.5033272,37.616393]},"properties":{"power":"transformer"}},
{"type":"Feature","geometry":{"type":"Point","coordinates":[127.5037537,37.6162695]},"properties":{"power":"transformer"}},
{"type":"Feature","geometry":{"type":"Point","coordinates":[128.4076144,35.9694884]},"properties":{"power":"transformer"}},
{"type":"Feature","geometry":{"type":"Point","coordinates":[128.4061482,35.9695854]},"properties":{"power":"transformer"}},
{"type":"Feature","geometry":{"type":"Point","coordinates":[128.4050487,35.9696683]},"properties":{"power":"transformer"}},
{"type":"Feature","geometry":{"type":"Point","coordinates":[126.987785,37.5508877]},"properties":{"location":"outdoor","power":"transformer"}},
{"type":"Feature","geometry":{"type":"Point","coordinates":[126.9877554,37.5508882]},"properties":{"location":"outdoor","power":"transformer"}},
{"type":"Feature","geometry":{"type":"Point","coordinates":[126.9877258,37.5508886]},"properties":{"location":"outdoor","power":"transformer"}},
{"type":"Feature","geometry":{"type":"Point","coordinates":[129.3178604,35.5805844]},"properties":{"power":"transformer"}},
{"type":"Feature","geometry":{"type":"Point","coordinates":[127.0851812,37.7473185]},"properties":{"power":"transformer"}},
{"type":"Feature","geometry":{"type":"Point","coordinates":[129.135706,35.8134563]},"properties":{"power":"transformer"}},
{"type":"Feature","geometry":{"type":"Point","coordinates":[127.9447667,37.3565699]},"properties":{"power":"transformer"}},
{"type":"Feature","geometry":{"type":"Point","coordinates":[127.9009954,37.3521714]},"properties":{"power":"transformer"}},
{"type":"Feature","geometry":{"type":"Point","coordinates":[127.5043899,37.6160692]},"properties":{"power":"transformer"}},
{"type":"Feature","geometry":{"type":"Point","coordinates":[127.5041592,37.616133]},"properties":{"power":"transformer"}},
{"type":"Feature","geometry":{"type":"Point","coordinates":[128.2980528,35.931219]},"properties":{"power":"transformer"}},
{"type":"Feature","geometry":{"type":"Point","coordinates":[128.2979523,35.9311625]},"properties":{"power":"transformer"}},
{"type":"Feature","geometry":{"type":"Point","coordinates":[128.2978436,35.9310984]},"properties":{"power":"transformer"}},
{"type":"Feature","geometry":{"type":"Point","coordinates":[128.2977404,35.9310441]},"properties":{"power":"transformer"}},
{"type":"Feature","geometry":{"type":"Point","coordinates":[128.4305593,36.1780162]},"properties":{"frequency":"60","location":"outdoor","power":"transformer","transformer":"main","voltage:primary":"345000","voltage:secondary":"154000"}},
{"type":"Feature","geometry":{"type":"Point","coordinates":[128.4302884,36.1767637]},"properties":{"frequency":"60","location":"outdoor","power":"transformer","transformer":"main","voltage:primary":"345000","voltage:secondary":"154000"}},
{"type":"Feature","geometry":{"type":"Point","coordinates":[128.4303366,36.1769775]},"properties":{"frequency":"60","location":"outdoor","power":"transformer","transformer":"main","voltage:primary":"345000","voltage:secondary":"154000"}},
{"type":"Feature","geometry":{"type":"Point","coordinates":[128.430448,36.1775573]},"properties":{"frequency":"60","location":"outdoor","power":"transformer","transformer":"main","voltage:primary":"345000","voltage:secondary":"154000"}},
{"type":"Feature","geometry":{"type":"Point","coordinates":[127.9313524,37.3472094]},"properties":{"power":"transformer"}},
{"type":"Feature","geometry":{"type":"Point","coordinates":[126.4733702,33.4543441]},"properties":{"power":"transformer"}},
{"type":"Feature","geometry":{"type":"Point","coordinates":[126.4733393,33.4549965]},"properties":{"power":"transformer"}},
{"type":"Feature","geometry":{"type":"Point","coordinates":[126.474203,33.4538249]},"properties":{"power":"transformer"}},
{"type":"Feature","geometry":{"type":"Point","coordinates":[126.4742017,33.4538798]},"properties":{"power":"transformer"}},
{"type":"Feature","geometry":{"type":"Point","coordinates":[126.4741963,33.4539592]},"properties":{"power":"transformer"}},
{"type":"Feature","geometry":{"type":"Point","coordinates":[126.4741856,33.4540622]},"properties":{"power":"transformer"}},
{"type":"Feature","geometry":{"type":"Point","coordinates":[129.3083153,35.3407193]},"properties":{"power":"transformer"}},
{"type":"Feature","geometry":{"type":"Point","coordinates":[129.3083538,35.3408042]},"properties":{"power":"transformer"}},
{"type":"Feature","geometry":{"type":"Point","coordinates":[129.3083915,35.3408873]},"properties":{"power":"transformer"}},
{"type":"Feature","geometry":{"type":"Point","coordinates":[129.3084295,35.340971]},"properties":{"power":"transformer"}},
{"type":"Feature","geometry":{"type":"Point","coordinates":[129.3084674,35.3410545]},"properties":{"power":"transformer"}},
{"type":"Feature","geometry":{"type":"Point","coordinates":[129.3085053,35.3411379]},"properties":{"power":"transformer"}},
{"type":"Feature","geometry":{"type":"Point","coordinates":[129.30855,35.3412366]},"properties":{"power":"transformer"}},
{"type":"Feature","geometry":{"type":"Point","coordinates":[129.3085778,35.3413033]},"properties":{"power":"transformer"}},
{"type":"Feature","geometry":{"type":"Point","coordinates":[129.3086272,35.3414066]},"properties":{"power":"transformer"}},
{"type":"Feature","geometry":{"type":"Point","coordinates":[129.3086577,35.3414738]},"properties":{"power":"transformer"}},
{"type":"Feature","geometry":{"type":"Point","coordinates":[129.3087039,35.3415756]},"properties":{"power":"transformer"}},
{"type":"Feature","geometry":{"type":"Point","coordinates":[129.3087338,35.3416416]},"properties":{"power":"transformer"}},
{"type":"Feature","geometry":{"type":"Point","coordinates":[129.3089459,35.3419622]},"properties":{"power":"transformer"}},
{"type":"Feature","geometry":{"type":"Point","coordinates":[129.3088708,35.3419874]},"properties":{"power":"transformer"}},
{"type":"Feature","geometry":{"type":"Point","coordinates":[129.3091578,35.341901]},"properties":{"power":"transformer"}},
{"type":"Feature","geometry":{"type":"Point","coordinates":[129.3090827,35.3419261]},"properties":{"power":"transformer"}},
{"type":"Feature","geometry":{"type":"Point","coordinates":[129.3093523,35.3418397]},"properties":{"power":"transformer"}},
{"type":"Feature","geometry":{"type":"Point","coordinates":[129.3092772,35.3418649]},"properties":{"power":"transformer"}},
{"type":"Feature","geometry":{"type":"Point","coordinates":[129.309536,35.3417785]},"properties":{"power":"transformer"}},
{"type":"Feature","geometry":{"type":"Point","coordinates":[129.3095038,35.3417938]},"properties":{"power":"transformer"}},
{"type":"Feature","geometry":{"type":"Point","coordinates":[129.3097479,35.3417194]},"properties":{"power":"transformer"}},
{"type":"Feature","geometry":{"type":"Point","coordinates":[129.3097157,35.3417347]},"properties":{"power":"transformer"}},
{"type":"Feature","geometry":{"type":"Point","coordinates":[129.3099497,35.3416548]},"properties":{"power":"transformer"}},
{"type":"Feature","geometry":{"type":"Point","coordinates":[129.3099175,35.3416702]},"properties":{"power":"transformer"}},
{"type":"Feature","geometry":{"type":"Point","coordinates":[129.296219,35.3239154]},"properties":{"power":"transformer"}},
{"type":"Feature","geometry":{"type":"Point","coordinates":[129.2962173,35.3238027]},"properties":{"power":"transformer"}},
{"type":"Feature","geometry":{"type":"Point","coordinates":[129.296216,35.323713]},"properties":{"power":"transformer"}},
{"type":"Feature","geometry":{"type":"Point","coordinates":[129.2962143,35.3235959]},"properties":{"power":"transformer"}},
{"type":"Feature","geometry":{"type":"Point","coordinates":[129.2962128,35.3234875]},"properties":{"power":"transformer"}},
{"type":"Feature","geometry":{"type":"Point","coordinates":[129.2962112,35.323377]},"properties":{"power":"transformer"}},
{"type":"Feature","geometry":{"type":"Point","coordinates":[129.2962096,35.3232676]},"properties":{"power":"transformer"}},
{"type":"Feature","geometry":{"type":"Point","coordinates":[129.3140451,35.3399757]},"properties":{"power":"transformer"}},
{"type":"Feature","geometry":{"type":"Point","coordinates":[129.3138854,35.3400202]},"properties":{"power":"transformer"}},
{"type":"Feature","geometry":{"type":"Point","coordinates":[129.3146281,35.3412766]},"properties":{"power":"transformer"}},
{"type":"Feature","geometry":{"type":"Point","coordinates":[129.3144684,35.3413211]},"properties":{"power":"transformer"}},
{"type":"Feature","geometry":{"type":"Point","coordinates":[129.3121767,35.3375221]},"properties":{"power":"transformer"}},
{"type":"Feature","geometry":{"type":"Point","coordinates":[129.3123312,35.337477]},"properties":{"power":"transformer"}},
{"type":"Feature","geometry":{"type":"Point","coordinates":[129.3117469,35.3361881]},"properties":{"power":"transformer"}},
{"type":"Feature","geometry":{"type":"Point","coordinates":[129.3115872,35.3362326]},"properties":{"power":"transformer"}},
{"type":"Feature","geometry":{"type":"Point","coordinates":[129.4801183,35.7216993]},"properties":{"power":"transformer"}},
{"type":"Feature","geometry":{"type":"Point","coordinates":[129.4800723,35.7215827]},"properties":{"power":"transformer"}},
{"type":"Feature","geometry":{"type":"Point","coordinates":[129.4797866,35.7216818]},"properties":{"power":"transformer"}},
{"type":"Feature","geometry":{"type":"Point","coordinates":[129.4796581,35.7217138]},"properties":{"power":"transformer"}},
{"type":"Feature","geometry":{"type":"Point","coordinates":[129.4795272,35.7217464]},"properties":{"power":"transformer"}},
{"type":"Feature","geometry":{"type":"Point","coordinates":[129.479157,35.7207208]},"properties":{"power":"transformer"}},
{"type":"Feature","geometry":{"type":"Point","coordinates":[129.4792878,35.7206882]},"properties":{"power":"transformer"}},
{"type":"Feature","geometry":{"type":"Point","coordinates":[129.4794164,35.7206562]},"properties":{"power":"transformer"}},
{"type":"Feature","geometry":{"type":"Point","coordinates":[129.479702,35.720557]},"properties":{"power":"transformer"}},
{"type":"Feature","geometry":{"type":"Point","coordinates":[129.479748,35.7206737]},"properties":{"power":"transformer"}},
{"type":"Feature","geometry":{"type":"Point","coordinates":[129.4745259,35.7130852]},"properties":{"power":"transformer"}},
{"type":"Feature","geometry":{"type":"Point","coordinates":[129.4744571,35.7130058]},"properties":{"power":"transformer"}},
{"type":"Feature","geometry":{"type":"Point","coordinates":[129.4743888,35.7129272]},"properties":{"power":"transformer"}},
{"type":"Feature","geometry":{"type":"Point","coordinates":[127.12088,34.5110723]},"properties":{"name":"수변전실","power":"transformer"}},
{"type":"Feature","geometry":{"type":"Point","coordinates":[129.3147978,35.3415859]},"properties":{"power":"transformer"}},
{"type":"Feature","geometry":{"type":"Point","coordinates":[129.3147308,35.3414437]},"properties":{"power":"transformer"}},
{"type":"Feature","geometry":{"type":"Point","coordinates":[129.3149695,35.3413474]},"properties":{"power":"transformer"}},
{"type":"Feature","geometry":{"type":"Point","coordinates":[129.3150446,35.3414962]},"properties":{"power":"transformer"}},
{"type":"Feature","geometry":{"type":"Point","coordinates":[129.3151197,35.3416647]},"properties":{"power":"transformer"}},
{"type":"Feature","geometry":{"type":"Point","coordinates":[129.3142292,35.3403169]},"properties":{"power":"transformer"}},
{"type":"Feature","geometry":{"type":"Point","coordinates":[129.3141514,35.3401594]},"properties":{"power":"transformer"}},
{"type":"Feature","geometry":{"type":"Point","coordinates":[129.3143901,35.340039]},"properties":{"power":"transformer"}},
{"type":"Feature","geometry":{"type":"Point","coordinates":[129.3144652,35.3401922]},"properties":{"power":"transformer"}},
{"type":"Feature","geometry":{"type":"Point","coordinates":[129.3145363,35.3403541]},"properties":{"power":"transformer"}},
{"type":"Feature","geometry":{"type":"Point","coordinates":[129.3124938,35.3377985]},"properties":{"power":"transformer"}},
{"type":"Feature","geometry":{"type":"Point","coordinates":[129.3124214,35.3376454]},"properties":{"power":"transformer"}},
{"type":"Feature","geometry":{"type":"Point","coordinates":[129.3119198,35.3365142]},"properties":{"power":"transformer"}},
{"type":"Feature","geometry":{"type":"Point","coordinates":[129.3118474,35.3363544]},"properties":{"power":"transformer"}},
{"type":"Feature","geometry":{"type":"Point","coordinates":[129.3120801,35.3362409]},"properties":{"power":"transformer"}},
{"type":"Feature","geometry":{"type":"Point","coordinates":[129.3121552,35.3363919]},"properties":{"power":"transformer"}},
{"type":"Feature","geometry":{"type":"Point","coordinates":[129.3122262,35.3365598]},"properties":{"power":"transformer"}},
{"type":"Feature","geometry":{"type":"Point","coordinates":[129.3126628,35.3375305]},"properties":{"power":"transformer"}},
{"type":"Feature","geometry":{"type":"Point","coordinates":[129.3127379,35.3376815]},"properties":{"power":"transformer"}},
{"type":"Feature","geometry":{"type":"Point","coordinates":[129.312809,35.3378494]},"properties":{"power":"transformer"}},
{"type":"Feature","geometry":{"type":"Point","coordinates":[129.3023537,35.3276411]},"properties":{"power":"transformer"}},
{"type":"Feature","geometry":{"type":"Point","coordinates":[129.3023457,35.3277658]},"properties":{"power":"transformer"}},
{"type":"Feature","geometry":{"type":"Point","coordinates":[129.3020023,35.3279496]},"properties":{"power":"transformer"}},
{"type":"Feature","geometry":{"type":"Point","coordinates":[129.3019889,35.3280897]},"properties":{"power":"transformer"}},
{"type":"Feature","geometry":{"type":"Point","coordinates":[129.3017288,35.3276389]},"properties":{"power":"transformer"}},
{"type":"Feature","geometry":{"type":"Point","coordinates":[129.301895,35.3276476]},"properties":{"power":"transformer"}},
{"type":"Feature","geometry":{"type":"Point","coordinates":[129.3020613,35.3276542]},"properties":{"power":"transformer"}},
{"type":"Feature","geometry":{"type":"Point","coordinates":[129.3021163,35.3265929]},"properties":{"power":"transformer"}},
{"type":"Feature","geometry":{"type":"Point","coordinates":[129.3017837,35.3265775]},"properties":{"power":"transformer"}},
{"type":"Feature","geometry":{"type":"Point","coordinates":[129.30195,35.3265863]},"properties":{"power":"transformer"}},
{"type":"Feature","geometry":{"type":"Point","coordinates":[129.3020573,35.3268883]},"properties":{"power":"transformer"}},
{"type":"Feature","geometry":{"type":"Point","coordinates":[129.3020439,35.3270283]},"properties":{"power":"transformer"}},
{"type":"Feature","geometry":{"type":"Point","coordinates":[129.3024087,35.3265797]},"properties":{"power":"transformer"}},
{"type":"Feature","geometry":{"type":"Point","coordinates":[129.3024006,35.3267045]},"properties":{"power":"transformer"}},
{"type":"Feature","geometry":{"type":"Point","coordinates":[128.5546296,35.6140091]},"properties":{"power":"transformer"}},
{"type":"Feature","geometry":{"type":"Point","coordinates":[128.5544131,35.613963]},"properties":{"power":"transformer"}},
{"type":"Feature","geometry":{"type":"Point","coordinates":[128.5542017,35.613918]},"properties":{"power":"transformer"}},
{"type":"Feature","geometry":{"type":"Point","coordinates":[128.5539928,35.6138736]},"properties":{"power":"transformer"}},
{"type":"Feature","geometry":{"type":"Point","coordinates":[128.5537788,35.6138281]},"properties":{"power":"transformer"}},
{"type":"Feature","geometry":{"type":"Point","coordinates":[128.5535635,35.6137823]},"properties":{"power":"transformer"}},
{"type":"Feature","geometry":{"type":"Point","coordinates":[128.5533419,35.6137351]},"properties":{"power":"transformer"}},
{"type":"Feature","geometry":{"type":"Point","coordinates":[128.553133,35.6136907]},"properties":{"power":"transformer"}},
{"type":"Feature","geometry":{"type":"Point","coordinates":[128.5529077,35.6136427]},"properties":{"power":"transformer"}},
{"type":"Feature","geometry":{"type":"Point","coordinates":[129.024564,35.234933]},"properties":{"power":"transformer"}},
{"type":"Feature","geometry":{"type":"Point","coordinates":[129.0243709,35.2350185]},"properties":{"power":"transformer"}},
{"type":"Feature","geometry":{"type":"Point","coordinates":[129.024218,35.2350842]},"properties":{"power":"transformer"}},
{"type":"Feature","geometry":{"type":"Point","coordinates":[129.0227669,35.2373626]},"properties":{"power":"transformer"}},
{"type":"Feature","geometry":{"type":"Point","coordinates":[129.023121,35.2376036]},"properties":{"power":"transformer"}},
{"type":"Feature","geometry":{"type":"Point","coordinates":[129.0234241,35.2380264]},"properties":{"power":"transformer"}},
{"type":"Feature","geometry":{"type":"Point","coordinates":[129.0232095,35.2378029]},"properties":{"power":"transformer"}},
{"type":"Feature","geometry":{"type":"Point","coordinates":[129.0253794,35.2356407]},"properties":{"power":"transformer"}},
{"type":"Feature","geometry":{"type":"Point","coordinates":[129.0252453,35.2356954]},"properties":{"power":"transformer"}},
{"type":"Feature","geometry":{"type":"Point","coordinates":[129.025138,35.2357458]},"properties":{"power":"transformer"}},
{"type":"Feature","geometry":{"type":"Point","coordinates":[129.0247706,35.2359189]},"properties":{"power":"transformer"}},
{"type":"Feature","geometry":{"type":"Point","coordinates":[129.0246686,35.2359649]},"properties":{"power":"transformer"}},
{"type":"Feature","geometry":{"type":"Point","coordinates":[129.0245613,35.2360197]},"properties":{"power":"transformer"}},
{"type":"Feature","geometry":{"type":"Point","coordinates":[129.0244567,35.2360701]},"properties":{"power":"transformer"}},
{"type":"Feature","geometry":{"type":"Point","coordinates":[129.0237191,35.236425]},"properties":{"power":"transformer"}},
{"type":"Feature","geometry":{"type":"Point","coordinates":[129.0236118,35.236471]},"properties":{"power":"transformer"}},
{"type":"Feature","geometry":{"type":"Point","coordinates":[129.0235019,35.236517]},"properties":{"power":"transformer"}},
{"type":"Feature","geometry":{"type":"Point","coordinates":[129.0231934,35.2366637]},"properties":{"power":"transformer"}},
{"type":"Feature","geometry":{"type":"Point","coordinates":[129.0230754,35.2367207]},"properties":{"power":"transformer"}},
{"type":"Feature","geometry":{"type":"Point","coordinates":[129.0229547,35.2367799]},"properties":{"power":"transformer"}},
{"type":"Feature","geometry":{"type":"Point","coordinates":[128.5661343,36.7746812]},"properties":{"power":"transformer"}},
{"type":"Feature","geometry":{"type":"Point","coordinates":[128.5661007,36.7748079]},"properties":{"power":"transformer"}},
{"type":"Feature","geometry":{"type":"Point","coordinates":[128.5660686,36.7749014]},"properties":{"power":"transformer"}},
{"type":"Feature","geometry":{"type":"Point","coordinates":[128.5660256,36.7750067]},"properties":{"power":"transformer"}},
{"type":"Feature","geometry":{"type":"Point","coordinates":[128.5659143,36.7753633]},"properties":{"power":"transformer"}},
{"type":"Feature","geometry":{"type":"Point","coordinates":[128.5658808,36.7754707]},"properties":{"power":"transformer"}},
{"type":"Feature","geometry":{"type":"Point","coordinates":[128.5658486,36.7755857]},"properties":{"power":"transformer"}},
{"type":"Feature","geometry":{"type":"Point","coordinates":[128.5656542,36.7761937]},"properties":{"power":"transformer"}},
{"type":"Feature","geometry":{"type":"Point","coordinates":[128.5656877,36.7761023]},"properties":{"power":"transformer"}},
{"type":"Feature","geometry":{"type":"Point","coordinates":[128.5657118,36.7760175]},"properties":{"power":"transformer"}},
{"type":"Feature","geometry":{"type":"LineString","coordinates":[[126.8635826,37.4679019],[126.8636486,37.4679032],[126.8636502,37.4678495],[126.8635859,37.4678482],[126.8635826,37.4679019]]},"properties":{"name":"전기실","power":"transformer"}},
{"type":"Feature","geometry":{"type":"LineString","coordinates":[[127.4699764,36.627646],[127.4700202,36.6275174],[127.4701012,36.6275343],[127.4700597,36.627627],[127.4700423,36.6276623],[127.4699764,36.627646]]},"properties":{"power":"transformer"}},
{"type":"Feature","geometry":{"type":"LineString","coordinates":[[126.8396398,35.2149317],[126.8396397,35.2148498],[126.8396396,35.2148241],[126.8398006,35.2148245],[126.8398624,35.2148234],[126.8398634,35.2149303],[126.8396398,35.2149317]]},"properties":{"power":"transformer"}},
{"type":"Feature","geometry":{"type":"LineString","coordinates":[[126.9487797,37.3376223],[126.9493698,37.3376117],[126.9497962,37.3376159],[126.9497694,37.3371382],[126.9493644,37.3371382],[126.9493617,37.3368482],[126.9487663,37.3368248],[126.9487797,37.3376223]]},"properties":{"name":"군포SS","operator":"한국철도공사","power":"transformer","transformer":"traction"}},
{"type":"Feature","geometry":{"type":"LineString","coordinates":[[127.4771282,36.6312898],[127.4771287,36.6312658],[127.477207,36.6312669],[127.4772065,36.6312909],[127.4771282,36.6312898]]},"properties":{"devices":"3","location":"outdoor","power":"transformer","transformer":"converter"}},
{"type":"Feature","geometry":{"type":"LineString","coordinates":[[126.9917522,37.5281973],[126.9917552,37.5281657],[126.9918053,37.5281687],[126.9918023,37.5282002],[126.9917522,37.5281973]]},"properties":{"power":"transformer"}},
{"type":"Feature","geometry":{"type":"LineString","coordinates":[[127.0994571,37.2175973],[127.1001545,37.2175887],[127.1001759,37.2170932],[127.0999716,37.2170956],[127.0994356,37.2171017],[127.0994571,37.2175973]]},"properties":{"power":"transformer"}},
{"type":"Feature","geometry":{"type":"LineString","coordinates":[[127.1176948,37.2173576],[127.1181046,37.2174625],[127.1181698,37.2173009],[127.1177601,37.2171959],[127.1176948,37.2173576]]},"properties":{"power":"transformer"}},
{"type":"Feature","geometry":{"type":"LineString","coordinates":[[126.8782414,37.6182241],[126.8782008,37.6182023],[126.8782202,37.6181797],[126.8782607,37.6182015],[126.8782414,37.6182241]]},"properties":{"power":"transformer"}},
{"type":"Feature","geometry":{"type":"LineString","coordinates":[[126.8864613,37.6164373],[126.8864651,37.6163944],[126.8865702,37.6164002],[126.8865664,37.6164431],[126.8864613,37.6164373]]},"properties":{"power":"transformer"}},
{"type":"Feature","geometry":{"type":"LineString","coordinates":[[127.3249875,36.621355],[127.3254966,36.6210847],[127.3253447,36.6209003],[127.3252588,36.6209459],[127.3252079,36.6208841],[127.3247846,36.6211088],[127.3249875,36.621355]]},"properties":{"power":"transformer","transformer":"traction"}},
{"type":"Feature","geometry":{"type":"LineString","coordinates":[[129.47989,35.7221318],[129.4799551,35.7221154],[129.4799214,35.722027],[129.4798562,35.7220434],[129.47989,35.7221318]]},"properties":{"power":"transformer"}},
{"type":"Feature","geometry":{"type":"LineString","coordinates":[[129.4799085,35.7219963],[129.4798786,35.7219116],[129.4798157,35.7219262],[129.4798456,35.722011],[129.4799085,35.7219963]]},"properties":{"power":"transformer"}},
{"type":"Feature","geometry":{"type":"LineString","coordinates":[[129.4798747,35.7207465],[129.4799399,35.7207289],[129.4799193,35.7206789],[129.4798542,35.7206965],[129.4798747,35.7207465]]},"properties":{"power":"transformer"}},
{"type":"Feature","geometry":{"type":"LineString","coordinates":[[129.4799254,35.7209079],[129.4799462,35.7209606],[129.4800128,35.7209432],[129.479992,35.7208906],[129.4799254,35.7209079]]},"properties":{"power":"transformer"}},
{"type":"Feature","geometry":{"type":"LineString","coordinates":[[129.4799206,35.7208595],[129.4799728,35.7208466],[129.4799502,35.7207864],[129.479898,35.7207993],[129.4799206,35.7208595]]},"properties":{"power":"transformer"}},
{"type":"Feature","geometry":{"type":"LineString","coordinates":[[129.4795383,35.7209707],[129.4795083,35.7208859],[129.4794454,35.7209006],[129.4794753,35.7209853],[129.4795383,35.7209707]]},"properties":{"power":"transformer"}},
{"type":"Feature","geometry":{"type":"LineString","coordinates":[[129.4795197,35.7211062],[129.4795849,35.7210898],[129.4795511,35.7210014],[129.479486,35.7210178],[129.4795197,35.7211062]]},"properties":{"power":"transformer"}},
{"type":"Feature","geometry":{"type":"LineString","coordinates":[[129.4746785,35.7132244],[129.4746346,35.7132499],[129.474663,35.713282],[129.4747069,35.7132565],[129.4746785,35.7132244]]},"properties":{"power":"transformer"}},
{"type":"Feature","geometry":{"type":"LineString","coordinates":[[129.4719813,35.7099155],[129.4719335,35.7098596],[129.4718904,35.709884],[129.4719382,35.7099399],[129.4719813,35.7099155]]},"properties":{"power":"transformer"}},
{"type":"Feature","geometry":{"type":"LineString","coordinates":[[129.4721349,35.7102962],[129.472093,35.71032],[129.4721166,35.7103475],[129.4721585,35.7103237],[129.4721349,35.7102962]]},"properties":{"power":"transformer"}},
{"type":"Feature","geometry":{"type":"LineString","coordinates":[[129.4720604,35.7102124],[129.4720185,35.7102362],[129.4720422,35.7102637],[129.4720841,35.7102399],[129.4720604,35.7102124]]},"properties":{"power":"transformer"}},
{"type":"Feature","geometry":{"type":"LineString","coordinates":[[129.4719964,35.7101367],[129.4719545,35.7101605],[129.4719782,35.710188],[129.4720201,35.7101642],[129.4719964,35.7101367]]},"properties":{"power":"transformer"}},
{"type":"Feature","geometry":{"type":"LineString","coordinates":[[129.4729526,35.7110331],[129.4729048,35.7109773],[129.4728617,35.7110016],[129.4729095,35.7110575],[129.4729526,35.7110331]]},"properties":{"power":"transformer"}},
{"type":"Feature","geometry":{"type":"LineString","coordinates":[[129.4731076,35.7114073],[129.4730656,35.7114311],[129.4730893,35.7114586],[129.4731312,35.7114348],[129.4731076,35.7114073]]},"properties":{"power":"transformer"}},
{"type":"Feature","geometry":{"type":"LineString","coordinates":[[129.4730331,35.7113234],[129.4729912,35.7113472],[129.4730149,35.7113747],[129.4730568,35.7113509],[129.4730331,35.7113234]]},"properties":{"power":"transformer"}},
{"type":"Feature","geometry":{"type":"LineString","coordinates":[[129.4729691,35.7112478],[129.4729272,35.7112716],[129.4729508,35.7112991],[129.4729928,35.7112753],[129.4729691,35.7112478]]},"properties":{"power":"transformer"}},
{"type":"Feature","geometry":{"type":"LineString","coordinates":[[129.4750441,35.7137765],[129.4749822,35.7138127],[129.4750513,35.7138907],[129.4751132,35.7138545],[129.4750441,35.7137765]]},"properties":{"power":"transformer"}},
{"type":"Feature","geometry":{"type":"LineString","coordinates":[[129.3883504,37.0822795],[129.3882894,37.0823328],[129.3884156,37.0824246],[129.3884765,37.0823714],[129.3883504,37.0822795]]},"properties":{"power":"transformer"}},
{"type":"Feature","geometry":{"type":"LineString","coordinates":[[129.388185,37.0821591],[129.3881241,37.0822123],[129.3882453,37.0823006],[129.3883062,37.0822474],[129.388185,37.0821591]]},"properties":{"power":"transformer"}},
{"type":"Feature","geometry":{"type":"LineString","coordinates":[[129.3880168,37.0820366],[129.3879559,37.0820898],[129.3880805,37.0821805],[129.3881414,37.0821273],[129.3880168,37.0820366]]},"properties":{"power":"transformer"}},
{"type":"Feature","geometry":{"type":"LineString","coordinates":[[129.387853,37.0819172],[129.3877921,37.0819704],[129.3879176,37.0820619],[129.3879785,37.0820086],[129.387853,37.0819172]]},"properties":{"power":"transformer"}},
{"type":"Feature","geometry":{"type":"LineString","coordinates":[[129.3876842,37.0817942],[129.3876233,37.0818474],[129.3877485,37.0819386],[129.3878094,37.0818854],[129.3876842,37.0817942]]},"properties":{"power":"transformer"}},
{"type":"Feature","geometry":{"type":"LineString","coordinates":[[129.3875827,37.0818179],[129.3876436,37.0817647],[129.3875145,37.0816706],[129.3874536,37.0817239],[129.3875827,37.0818179]]},"properties":{"power":"transformer"}},
{"type":"Feature","geometry":{"type":"LineString","coordinates":[[129.3731348,37.0926312],[129.3732131,37.0926657],[129.3732426,37.0926231],[129.3731643,37.0925887],[129.3731348,37.0926312]]},"properties":{"power":"transformer"}},
{"type":"Feature","geometry":{"type":"LineString","coordinates":[[129.3730174,37.0925795],[129.37309,37.0926115],[129.3731195,37.0925689],[129.3730469,37.0925369],[129.3730174,37.0925795]]},"properties":{"power":"transformer"}},
{"type":"Feature","geometry":{"type":"LineString","coordinates":[[129.3905109,37.0856069],[129.3905663,37.0855592],[129.3905359,37.0855368],[129.3904806,37.0855845],[129.3905109,37.0856069]]},"properties":{"power":"transformer"}},
{"type":"Feature","geometry":{"type":"LineString","coordinates":[[129.3904257,37.0856803],[129.3903954,37.0856579],[129.3903414,37.0857044],[129.3903717,37.0857268],[129.3904257,37.0856803]]},"properties":{"power":"transformer"}},
{"type":"Feature","geometry":{"type":"LineString","coordinates":[[129.3902802,37.0858057],[129.3902499,37.0857833],[129.3901965,37.0858293],[129.3902269,37.0858517],[129.3902802,37.0858057]]},"properties":{"power":"transformer"}},
{"type":"Feature","geometry":{"type":"LineString","coordinates":[[129.390282,37.085473],[129.3902458,37.0854471],[129.3902143,37.0854752],[129.3902505,37.0855011],[129.390282,37.085473]]},"properties":{"power":"transformer"}},
{"type":"Feature","geometry":{"type":"LineString","coordinates":[[129.3902976,37.0852408],[129.3903479,37.0851965],[129.3902957,37.0851587],[129.3902454,37.085203],[129.3902976,37.0852408]]},"properties":{"power":"transformer"}},
{"type":"Feature","geometry":{"type":"LineString","coordinates":[[129.3904174,37.0853274],[129.3904678,37.0852831],[129.3904187,37.0852476],[129.3903683,37.0852919],[129.3904174,37.0853274]]},"properties":{"power":"transformer"}},
{"type":"Feature","geometry":{"type":"LineString","coordinates":[[129.3914477,37.0847984],[129.3914174,37.084776],[129.391364,37.084822],[129.3913943,37.0848444],[129.3914477,37.0847984]]},"properties":{"power":"transformer"}},
{"type":"Feature","geometry":{"type":"LineString","coordinates":[[129.3915932,37.084673],[129.3915629,37.0846506],[129.3915089,37.0846971],[129.3915392,37.0847195],[129.3915932,37.084673]]},"properties":{"power":"transformer"}},
{"type":"Feature","geometry":{"type":"LineString","coordinates":[[129.3916784,37.0845996],[129.3917337,37.0845519],[129.3917034,37.0845295],[129.391648,37.0845772],[129.3916784,37.0845996]]},"properties":{"power":"transformer"}},
{"type":"Feature","geometry":{"type":"LineString","coordinates":[[129.3914495,37.0844657],[129.3914133,37.0844398],[129.3913817,37.0844679],[129.3914179,37.0844938],[129.3914495,37.0844657]]},"properties":{"power":"transformer"}},
{"type":"Feature","geometry":{"type":"LineString","coordinates":[[129.3914674,37.0842351],[129.3915165,37.0841899],[129.3914632,37.0841531],[129.3914142,37.0841983],[129.3914674,37.0842351]]},"properties":{"power":"transformer"}},
{"type":"Feature","geometry":{"type":"LineString","coordinates":[[129.3915897,37.0843196],[129.3916388,37.0842744],[129.3915887,37.0842398],[129.3915396,37.084285],[129.3915897,37.0843196]]},"properties":{"power":"transformer"}},
{"type":"Feature","geometry":{"type":"LineString","coordinates":[[129.3800956,37.0968463],[129.3801209,37.0968247],[129.3800829,37.0967965],[129.3800577,37.0968181],[129.3800956,37.0968463]]},"properties":{"power":"transformer"}},
{"type":"Feature","geometry":{"type":"LineString","coordinates":[[129.3799428,37.0969771],[129.379968,37.0969555],[129.3799301,37.0969273],[129.3799048,37.096949],[129.3799428,37.0969771]]},"properties":{"power":"transformer"}},
{"type":"Feature","geometry":{"type":"LineString","coordinates":[[129.3800176,37.0969131],[129.3800448,37.0968898],[129.3800069,37.0968616],[129.3799796,37.0968849],[129.3800176,37.0969131]]},"properties":{"power":"transformer"}},
{"type":"Feature","geometry":{"type":"LineString","coordinates":[[129.380618,37.0963865],[129.3806433,37.0963648],[129.3806054,37.0963366],[129.3805801,37.0963583],[129.380618,37.0963865]]},"properties":{"power":"transformer"}},
{"type":"Feature","geometry":{"type":"LineString","coordinates":[[129.3807709,37.0962556],[129.3807962,37.096234],[129.3807582,37.0962058],[129.380733,37.0962274],[129.3807709,37.0962556]]},"properties":{"power":"transformer"}},
{"type":"Feature","geometry":{"type":"LineString","coordinates":[[129.3806929,37.0963224],[129.3807201,37.0962991],[129.3806822,37.0962709],[129.3806549,37.0962942],[129.3806929,37.0963224]]},"properties":{"power":"transformer"}},
{"type":"Feature","geometry":{"type":"LineString","coordinates":[[129.391594,37.0838699],[129.3915612,37.0838987],[129.3916275,37.0839469],[129.3916603,37.0839181],[129.391594,37.0838699]]},"properties":{"power":"transformer"}},
{"type":"Feature","geometry":{"type":"LineString","coordinates":[[129.3914823,37.0837888],[129.3914495,37.0838175],[129.3915042,37.0838573],[129.391537,37.0838285],[129.3914823,37.0837888]]},"properties":{"power":"transformer"}},
{"type":"Feature","geometry":{"type":"LineString","coordinates":[[129.391395,37.0837779],[129.3914278,37.0837491],[129.3913729,37.0837092],[129.39134,37.083738],[129.391395,37.0837779]]},"properties":{"power":"transformer"}},
{"type":"Feature","geometry":{"type":"LineString","coordinates":[[129.3798908,37.0975732],[129.3799184,37.0975496],[129.3798832,37.0975234],[129.3798556,37.0975471],[129.3798908,37.0975732]]},"properties":{"power":"transformer"}},
{"type":"Feature","geometry":{"type":"LineString","coordinates":[[129.3798228,37.0976718],[129.3798441,37.0976535],[129.3798113,37.0976291],[129.3797899,37.0976474],[129.3798228,37.0976718]]},"properties":{"power":"transformer"}},
{"type":"Feature","geometry":{"type":"LineString","coordinates":[[129.3796591,37.097822],[129.3797022,37.0977852],[129.3796549,37.09775],[129.3796118,37.0977869],[129.3796591,37.097822]]},"properties":{"power":"transformer"}},
{"type":"Feature","geometry":{"type":"LineString","coordinates":[[129.3797421,37.0977509],[129.3797802,37.0977183],[129.3797329,37.0976832],[129.3796948,37.0977158],[129.3797421,37.0977509]]},"properties":{"power":"transformer"}},
{"type":"Feature","geometry":{"type":"LineString","coordinates":[[129.3834389,37.0942094],[129.3834742,37.0941782],[129.3834091,37.0941314],[129.3833739,37.0941626],[129.3834389,37.0942094]]},"properties":{"power":"transformer"}},
{"type":"Feature","geometry":{"type":"LineString","coordinates":[[129.3832655,37.0940284],[129.383189,37.0939735],[129.3831538,37.0940046],[129.3832303,37.0940596],[129.3832655,37.0940284]]},"properties":{"power":"transformer"}},
{"type":"Feature","geometry":{"type":"LineString","coordinates":[[129.3833696,37.0941031],[129.3832991,37.0940525],[129.3832639,37.0940837],[129.3833343,37.0941343],[129.3833696,37.0941031]]},"properties":{"power":"transformer"}},
{"type":"Feature","geometry":{"type":"LineString","coordinates":[[129.383002,37.0938511],[129.3829661,37.0938828],[129.3830272,37.0939268],[129.383063,37.093895],[129.3830537,37.0938884],[129.3830389,37.0938777],[129.3830242,37.0938671],[129.383002,37.0938511]]},"properties":{"power":"transformer"}},
{"type":"Feature","geometry":{"type":"LineString","coordinates":[[129.3828548,37.0938027],[129.3829093,37.0938419],[129.3829451,37.0938102],[129.3829378,37.0938049],[129.3829226,37.093794],[129.3829058,37.0937819],[129.3828907,37.093771],[129.3828548,37.0938027]]},"properties":{"power":"transformer"}},
{"type":"Feature","geometry":{"type":"LineString","coordinates":[[129.3834868,37.0939049],[129.3835429,37.0939438],[129.3835805,37.0939094],[129.3835245,37.0938704],[129.3834868,37.0939049]]},"properties":{"power":"transformer"}},
{"type":"Feature","geometry":{"type":"LineString","coordinates":[[129.3829296,37.0941315],[129.3829771,37.0940902],[129.3829216,37.0940495],[129.382874,37.0940908],[129.3829296,37.0941315]]},"properties":{"power":"transformer"}},
{"type":"Feature","geometry":{"type":"LineString","coordinates":[[129.3843512,37.0929089],[129.3843987,37.0928677],[129.3843431,37.092827],[129.3842956,37.0928682],[129.3843512,37.0929089]]},"properties":{"power":"transformer"}},
{"type":"Feature","geometry":{"type":"LineString","coordinates":[[129.3846871,37.0928058],[129.3846106,37.0927509],[129.3845754,37.0927821],[129.3846519,37.092837],[129.3846871,37.0928058]]},"properties":{"power":"transformer"}},
{"type":"Feature","geometry":{"type":"LineString","coordinates":[[129.3847911,37.0928805],[129.3847207,37.0928299],[129.3846855,37.0928611],[129.3847559,37.0929117],[129.3847911,37.0928805]]},"properties":{"power":"transformer"}},
{"type":"Feature","geometry":{"type":"LineString","coordinates":[[129.3848605,37.0929868],[129.3848957,37.0929556],[129.3848306,37.0929089],[129.3847954,37.0929401],[129.3848605,37.0929868]]},"properties":{"power":"transformer"}},
{"type":"Feature","geometry":{"type":"LineString","coordinates":[[129.3842608,37.0926553],[129.3842021,37.092614],[129.3841653,37.0926474],[129.384224,37.0926886],[129.3842608,37.0926553]]},"properties":{"power":"transformer"}},
{"type":"Feature","geometry":{"type":"LineString","coordinates":[[129.3842764,37.0925802],[129.3843308,37.0926194],[129.3843667,37.0925876],[129.3843594,37.0925824],[129.3843442,37.0925715],[129.3843273,37.0925593],[129.3843122,37.0925485],[129.3842764,37.0925802]]},"properties":{"power":"transformer"}},
{"type":"Feature","geometry":{"type":"LineString","coordinates":[[129.3844235,37.0926285],[129.3843877,37.0926603],[129.3844487,37.0927042],[129.3844846,37.0926725],[129.3844753,37.0926658],[129.3844605,37.0926551],[129.3844457,37.0926445],[129.3844235,37.0926285]]},"properties":{"power":"transformer"}},
{"type":"Feature","geometry":{"type":"LineString","coordinates":[[129.3847224,37.09255],[129.3847555,37.0925761],[129.3847731,37.0925619],[129.3847399,37.0925358],[129.3847224,37.09255]]},"properties":{"power":"transformer"}},
{"type":"Feature","geometry":{"type":"LineString","coordinates":[[129.3863792,37.0907595],[129.3864337,37.0907987],[129.3864695,37.090767],[129.3864622,37.0907617],[129.3864471,37.0907508],[129.3864302,37.0907387],[129.3864151,37.0907278],[129.3863792,37.0907595]]},"properties":{"power":"transformer"}},
{"type":"Feature","geometry":{"type":"LineString","coordinates":[[129.3869498,37.0907985],[129.3869738,37.0908157],[129.3869992,37.0907932],[129.3869751,37.090776],[129.3869498,37.0907985]]},"properties":{"power":"transformer"}},
{"type":"Feature","geometry":{"type":"LineString","coordinates":[[129.3870259,37.090874],[129.3870652,37.0909019],[129.3870991,37.0908715],[129.3870597,37.0908436],[129.3870259,37.090874]]},"properties":{"power":"transformer"}},
{"type":"Feature","geometry":{"type":"LineString","coordinates":[[129.3865264,37.0908079],[129.3864905,37.0908396],[129.3865516,37.0908836],[129.3865875,37.0908519],[129.3865782,37.0908452],[129.3865633,37.0908345],[129.3865486,37.0908239],[129.3865264,37.0908079]]},"properties":{"power":"transformer"}},
{"type":"Feature","geometry":{"type":"LineString","coordinates":[[129.3879393,37.089586],[129.3879035,37.0896178],[129.3879645,37.0896617],[129.3880004,37.08963],[129.3879911,37.0896233],[129.3879763,37.0896126],[129.3879615,37.089602],[129.3879393,37.089586]]},"properties":{"power":"transformer"}},
{"type":"Feature","geometry":{"type":"LineString","coordinates":[[129.3877922,37.0895377],[129.3878466,37.0895769],[129.3878825,37.0895451],[129.3878752,37.0895399],[129.38786,37.089529],[129.3878431,37.0895168],[129.387828,37.089506],[129.3877922,37.0895377]]},"properties":{"power":"transformer"}},
{"type":"Feature","geometry":{"type":"LineString","coordinates":[[129.3884683,37.0896859],[129.3885077,37.0897137],[129.3885415,37.0896833],[129.3885022,37.0896555],[129.3884683,37.0896859]]},"properties":{"power":"transformer"}},
{"type":"Feature","geometry":{"type":"LineString","coordinates":[[129.3883932,37.089632],[129.3884326,37.0896598],[129.3884664,37.0896294],[129.3884271,37.0896016],[129.3883932,37.089632]]},"properties":{"power":"transformer"}},
{"type":"Feature","geometry":{"type":"LineString","coordinates":[[129.3881284,37.08945],[129.3881674,37.0894773],[129.3882156,37.0894335],[129.3881766,37.0894062],[129.3881284,37.08945]]},"properties":{"power":"transformer"}},
{"type":"Feature","geometry":{"type":"MultiPolygon","coordinates":[[[[126.8635826,37.4679019],[126.8635859,37.4678482],[126.8636502,37.4678495],[126.8636486,37.4679032],[126.8635826,37.4679019]]]]},"properties":{"name":"전기실","power":"transformer"}},
{"type":"Feature","geometry":{"type":"MultiPolygon","coordinates":[[[[127.4699764,36.627646],[127.4700202,36.6275174],[127.4701012,36.6275343],[127.4700597,36.627627],[127.4700423,36.6276623],[127.4699764,36.627646]]]]},"properties":{"power":"transformer"}},
{"type":"Feature","geometry":{"type":"MultiPolygon","coordinates":[[[[126.8396396,35.2148241],[126.8398006,35.2148245],[126.8398624,35.2148234],[126.8398634,35.2149303],[126.8396398,35.2149317],[126.8396397,35.2148498],[126.8396396,35.2148241]]]]},"properties":{"power":"transformer"}},
{"type":"Feature","geometry":{"type":"MultiPolygon","coordinates":[[[[126.9487663,37.3368248],[126.9493617,37.3368482],[126.9493644,37.3371382],[126.9497694,37.3371382],[126.9497962,37.3376159],[126.9493698,37.3376117],[126.9487797,37.3376223],[126.9487663,37.3368248]]]]},"properties":{"name":"군포SS","operator":"한국철도공사","power":"transformer","transformer":"traction"}},
{"type":"Feature","geometry":{"type":"MultiPolygon","coordinates":[[[[127.4771282,36.6312898],[127.4771287,36.6312658],[127.477207,36.6312669],[127.4772065,36.6312909],[127.4771282,36.6312898]]]]},"properties":{"devices":"3","location":"outdoor","power":"transformer","transformer":"converter"}},
{"type":"Feature","geometry":{"type":"MultiPolygon","coordinates":[[[[126.9917522,37.5281973],[126.9917552,37.5281657],[126.9918053,37.5281687],[126.9918023,37.5282002],[126.9917522,37.5281973]]]]},"properties":{"power":"transformer"}},
{"type":"Feature","geometry":{"type":"MultiPolygon","coordinates":[[[[127.0994356,37.2171017],[127.0999716,37.2170956],[127.1001759,37.2170932],[127.1001545,37.2175887],[127.0994571,37.2175973],[127.0994356,37.2171017]]]]},"properties":{"power":"transformer"}},
{"type":"Feature","geometry":{"type":"MultiPolygon","coordinates":[[[[127.1176948,37.2173576],[127.1177601,37.2171959],[127.1181698,37.2173009],[127.1181046,37.2174625],[127.1176948,37.2173576]]]]},"properties":{"power":"transformer"}},
{"type":"Feature","geometry":{"type":"MultiPolygon","coordinates":[[[[126.8782008,37.6182023],[126.8782202,37.6181797],[126.8782607,37.6182015],[126.8782414,37.6182241],[126.8782008,37.6182023]]]]},"properties":{"power":"transformer"}},
{"type":"Feature","geometry":{"type":"MultiPolygon","coordinates":[[[[126.8864613,37.6164373],[126.8864651,37.6163944],[126.8865702,37.6164002],[126.8865664,37.6164431],[126.8864613,37.6164373]]]]},"properties":{"power":"transformer"}},
{"type":"Feature","geometry":{"type":"MultiPolygon","coordinates":[[[[127.3247846,36.6211088],[127.3252079,36.6208841],[127.3252588,36.6209459],[127.3253447,36.6209003],[127.3254966,36.6210847],[127.3249875,36.621355],[127.3247846,36.6211088]]]]},"properties":{"power":"transformer","transformer":"traction"}},
{"type":"Feature","geometry":{"type":"MultiPolygon","coordinates":[[[[129.4798562,35.7220434],[129.4799214,35.722027],[129.4799551,35.7221154],[129.47989,35.7221318],[129.4798562,35.7220434]]]]},"properties":{"power":"transformer"}},
{"type":"Feature","geometry":{"type":"MultiPolygon","coordinates":[[[[129.4798157,35.7219262],[129.4798786,35.7219116],[129.4799085,35.7219963],[129.4798456,35.722011],[129.4798157,35.7219262]]]]},"properties":{"power":"transformer"}},
{"type":"Feature","geometry":{"type":"MultiPolygon","coordinates":[[[[129.4798542,35.7206965],[129.4799193,35.7206789],[129.4799399,35.7207289],[129.4798747,35.7207465],[129.4798542,35.7206965]]]]},"properties":{"power":"transformer"}},
{"type":"Feature","geometry":{"type":"MultiPolygon","coordinates":[[[[129.4799254,35.7209079],[129.479992,35.7208906],[129.4800128,35.7209432],[129.4799462,35.7209606],[129.4799254,35.7209079]]]]},"properties":{"power":"transformer"}},
{"type":"Feature","geometry":{"type":"MultiPolygon","coordinates":[[[[129.479898,35.7207993],[129.4799502,35.7207864],[129.4799728,35.7208466],[129.4799206,35.7208595],[129.479898,35.7207993]]]]},"properties":{"power":"transformer"}},
{"type":"Feature","geometry":{"type":"MultiPolygon","coordinates":[[[[129.4794454,35.7209006],[129.4795083,35.7208859],[129.4795383,35.7209707],[129.4794753,35.7209853],[129.4794454,35.7209006]]]]},"properties":{"power":"transformer"}},
{"type":"Feature","geometry":{"type":"MultiPolygon","coordinates":[[[[129.479486,35.7210178],[129.4795511,35.7210014],[129.4795849,35.7210898],[129.4795197,35.7211062],[129.479486,35.7210178]]]]},"properties":{"power":"transformer"}},
{"type":"Feature","geometry":{"type":"MultiPolygon","coordinates":[[[[129.4746346,35.7132499],[129.4746785,35.7132244],[129.4747069,35.7132565],[129.474663,35.713282],[129.4746346,35.7132499]]]]},"properties":{"power":"transformer"}},
{"type":"Feature","geometry":{"type":"MultiPolygon","coordinates":[[[[129.4718904,35.709884],[129.4719335,35.7098596],[129.4719813,35.7099155],[129.4719382,35.7099399],[129.4718904,35.709884]]]]},"properties":{"power":"transformer"}},
{"type":"Feature","geometry":{"type":"MultiPolygon","coordinates":[[[[129.472093,35.71032],[129.4721349,35.7102962],[129.4721585,35.7103237],[129.4721166,35.7103475],[129.472093,35.71032]]]]},"properties":{"power":"transformer"}},
{"type":"Feature","geometry":{"type":"MultiPolygon","coordinates":[[[[129.4720185,35.7102362],[129.4720604,35.7102124],[129.4720841,35.7102399],[129.4720422,35.7102637],[129.4720185,35.7102362]]]]},"properties":{"power":"transformer"}},
{"type":"Feature","geometry":{"type":"MultiPolygon","coordinates":[[[[129.4719545,35.7101605],[129.4719964,35.7101367],[129.4720201,35.7101642],[129.4719782,35.710188],[129.4719545,35.7101605]]]]},"properties":{"power":"transformer"}},
{"type":"Feature","geometry":{"type":"MultiPolygon","coordinates":[[[[129.4728617,35.7110016],[129.4729048,35.7109773],[129.4729526,35.7110331],[129.4729095,35.7110575],[129.4728617,35.7110016]]]]},"properties":{"power":"transformer"}},
{"type":"Feature","geometry":{"type":"MultiPolygon","coordinates":[[[[129.4730656,35.7114311],[129.4731076,35.7114073],[129.4731312,35.7114348],[129.4730893,35.7114586],[129.4730656,35.7114311]]]]},"properties":{"power":"transformer"}},
{"type":"Feature","geometry":{"type":"MultiPolygon","coordinates":[[[[129.4729912,35.7113472],[129.4730331,35.7113234],[129.4730568,35.7113509],[129.4730149,35.7113747],[129.4729912,35.7113472]]]]},"properties":{"power":"transformer"}},
{"type":"Feature","geometry":{"type":"MultiPolygon","coordinates":[[[[129.4729272,35.7112716],[129.4729691,35.7112478],[129.4729928,35.7112753],[129.4729508,35.7112991],[129.4729272,35.7112716]]]]},"properties":{"power":"transformer"}},
{"type":"Feature","geometry":{"type":"MultiPolygon","coordinates":[[[[129.4749822,35.7138127],[129.4750441,35.7137765],[129.4751132,35.7138545],[129.4750513,35.7138907],[129.4749822,35.7138127]]]]},"properties":{"power":"transformer"}},
{"type":"Feature","geometry":{"type":"MultiPolygon","coordinates":[[[[129.3882894,37.0823328],[129.3883504,37.0822795],[129.3884765,37.0823714],[129.3884156,37.0824246],[129.3882894,37.0823328]]]]},"properties":{"power":"transformer"}},
{"type":"Feature","geometry":{"type":"MultiPolygon","coordinates":[[[[129.3881241,37.0822123],[129.388185,37.0821591],[129.3883062,37.0822474],[129.3882453,37.0823006],[129.3881241,37.0822123]]]]},"properties":{"power":"transformer"}},
{"type":"Feature","geometry":{"type":"MultiPolygon","coordinates":[[[[129.3879559,37.0820898],[129.3880168,37.0820366],[129.3881414,37.0821273],[129.3880805,37.0821805],[129.3879559,37.0820898]]]]},"properties":{"power":"transformer"}},
{"type":"Feature","geometry":{"type":"MultiPolygon","coordinates":[[[[129.3877921,37.0819704],[129.387853,37.0819172],[129.3879785,37.0820086],[129.3879176,37.0820619],[129.3877921,37.0819704]]]]},"properties":{"power":"transformer"}},
{"type":"Feature","geometry":{"type":"MultiPolygon","coordinates":[[[[129.3876233,37.0818474],[129.3876842,37.0817942],[129.3878094,37.0818854],[129.3877485,37.0819386],[129.3876233,37.0818474]]]]},"properties":{"power":"transformer"}},
{"type":"Feature","geometry":{"type":"MultiPolygon","coordinates":[[[[129.3874536,37.0817239],[129.3875145,37.0816706],[129.3876436,37.0817647],[129.3875827,37.0818179],[129.3874536,37.0817239]]]]},"properties":{"power":"transformer"}},
{"type":"Feature","geometry":{"type":"MultiPolygon","coordinates":[[[[129.3731348,37.0926312],[129.3731643,37.0925887],[129.3732426,37.0926231],[129.3732131,37.0926657],[129.3731348,37.0926312]]]]},"properties":{"power":"transformer"}},
{"type":"Feature","geometry":{"type":"MultiPolygon","coordinates":[[[[129.3730174,37.0925795],[129.3730469,37.0925369],[129.3731195,37.0925689],[129.37309,37.0926115],[129.3730174,37.0925795]]]]},"properties":{"power":"transformer"}},
{"type":"Feature","geometry":{"type":"MultiPolygon","coordinates":[[[[129.3904806,37.0855845],[129.3905359,37.0855368],[129.3905663,37.0855592],[129.3905109,37.0856069],[129.3904806,37.0855845]]]]},"properties":{"power":"transformer"}},
{"type":"Feature","geometry":{"type":"MultiPolygon","coordinates":[[[[129.3903414,37.0857044],[129.3903954,37.0856579],[129.3904257,37.0856803],[129.3903717,37.0857268],[129.3903414,37.0857044]]]]},"properties":{"power":"transformer"}},
{"type":"Feature","geometry":{"type":"MultiPolygon","coordinates":[[[[129.3901965,37.0858293],[129.3902499,37.0857833],[129.3902802,37.0858057],[129.3902269,37.0858517],[129.3901965,37.0858293]]]]},"properties":{"power":"transformer"}},
{"type":"Feature","geometry":{"type":"MultiPolygon","coordinates":[[[[129.3902143,37.0854752],[129.3902458,37.0854471],[129.390282,37.085473],[129.3902505,37.0855011],[129.3902143,37.0854752]]]]},"properties":{"power":"transformer"}},
{"type":"Feature","geometry":{"type":"MultiPolygon","coordinates":[[[[129.3902454,37.085203],[129.3902957,37.0851587],[129.3903479,37.0851965],[129.3902976,37.0852408],[129.3902454,37.085203]]]]},"properties":{"power":"transformer"}},
{"type":"Feature","geometry":{"type":"MultiPolygon","coordinates":[[[[129.3903683,37.0852919],[129.3904187,37.0852476],[129.3904678,37.0852831],[129.3904174,37.0853274],[129.3903683,37.0852919]]]]},"properties":{"power":"transformer"}},
{"type":"Feature","geometry":{"type":"MultiPolygon","coordinates":[[[[129.391364,37.084822],[129.3914174,37.084776],[129.3914477,37.0847984],[129.3913943,37.0848444],[129.391364,37.084822]]]]},"properties":{"power":"transformer"}},
{"type":"Feature","geometry":{"type":"MultiPolygon","coordinates":[[[[129.3915089,37.0846971],[129.3915629,37.0846506],[129.3915932,37.084673],[129.3915392,37.0847195],[129.3915089,37.0846971]]]]},"properties":{"power":"transformer"}},
{"type":"Feature","geometry":{"type":"MultiPolygon","coordinates":[[[[129.391648,37.0845772],[129.3917034,37.0845295],[129.3917337,37.0845519],[129.3916784,37.0845996],[129.391648,37.0845772]]]]},"properties":{"power":"transformer"}},
{"type":"Feature","geometry":{"type":"MultiPolygon","coordinates":[[[[129.3913817,37.0844679],[129.3914133,37.0844398],[129.3914495,37.0844657],[129.3914179,37.0844938],[129.3913817,37.0844679]]]]},"properties":{"power":"transformer"}},
{"type":"Feature","geometry":{"type":"MultiPolygon","coordinates":[[[[129.3914142,37.0841983],[129.3914632,37.0841531],[129.3915165,37.0841899],[129.3914674,37.0842351],[129.3914142,37.0841983]]]]},"properties":{"power":"transformer"}},
{"type":"Feature","geometry":{"type":"MultiPolygon","coordinates":[[[[129.3915396,37.084285],[129.3915887,37.0842398],[129.3916388,37.0842744],[129.3915897,37.0843196],[129.3915396,37.084285]]]]},"properties":{"power":"transformer"}},
{"type":"Feature","geometry":{"type":"MultiPolygon","coordinates":[[[[129.3800577,37.0968181],[129.3800829,37.0967965],[129.3801209,37.0968247],[129.3800956,37.0968463],[129.3800577,37.0968181]]]]},"properties":{"power":"transformer"}},
{"type":"Feature","geometry":{"type":"MultiPolygon","coordinates":[[[[129.3799048,37.096949],[129.3799301,37.0969273],[129.379968,37.0969555],[129.3799428,37.0969771],[129.3799048,37.096949]]]]},"properties":{"power":"transformer"}},
{"type":"Feature","geometry":{"type":"MultiPolygon","coordinates":[[[[129.3799796,37.0968849],[129.3800069,37.0968616],[129.3800448,37.0968898],[129.3800176,37.0969131],[129.3799796,37.0968849]]]]},"properties":{"power":"transformer"}},
{"type":"Feature","geometry":{"type":"MultiPolygon","coordinates":[[[[129.3805801,37.0963583],[129.3806054,37.0963366],[129.3806433,37.0963648],[129.380618,37.0963865],[129.3805801,37.0963583]]]]},"properties":{"power":"transformer"}},
{"type":"Feature","geometry":{"type":"MultiPolygon","coordinates":[[[[129.380733,37.0962274],[129.3807582,37.0962058],[129.3807962,37.096234],[129.3807709,37.0962556],[129.380733,37.0962274]]]]},"properties":{"power":"transformer"}},
{"type":"Feature","geometry":{"type":"MultiPolygon","coordinates":[[[[129.3806549,37.0962942],[129.3806822,37.0962709],[129.3807201,37.0962991],[129.3806929,37.0963224],[129.3806549,37.0962942]]]]},"properties":{"power":"transformer"}},
{"type":"Feature","geometry":{"type":"MultiPolygon","coordinates":[[[[129.3915612,37.0838987],[129.391594,37.0838699],[129.3916603,37.0839181],[129.3916275,37.0839469],[129.3915612,37.0838987]]]]},"properties":{"power":"transformer"}},
{"type":"Feature","geometry":{"type":"MultiPolygon","coordinates":[[[[129.3914495,37.0838175],[129.3914823,37.0837888],[129.391537,37.0838285],[129.3915042,37.0838573],[129.3914495,37.0838175]]]]},"properties":{"power":"transformer"}},
{"type":"Feature","geometry":{"type":"MultiPolygon","coordinates":[[[[129.39134,37.083738],[129.3913729,37.0837092],[129.3914278,37.0837491],[129.391395,37.0837779],[129.39134,37.083738]]]]},"properties":{"power":"transformer"}},
{"type":"Feature","geometry":{"type":"MultiPolygon","coordinates":[[[[129.3798556,37.0975471],[129.3798832,37.0975234],[129.3799184,37.0975496],[129.3798908,37.0975732],[129.3798556,37.0975471]]]]},"properties":{"power":"transformer"}},
{"type":"Feature","geometry":{"type":"MultiPolygon","coordinates":[[[[129.3797899,37.0976474],[129.3798113,37.0976291],[129.3798441,37.0976535],[129.3798228,37.0976718],[129.3797899,37.0976474]]]]},"properties":{"power":"transformer"}},
{"type":"Feature","geometry":{"type":"MultiPolygon","coordinates":[[[[129.3796118,37.0977869],[129.3796549,37.09775],[129.3797022,37.0977852],[129.3796591,37.097822],[129.3796118,37.0977869]]]]},"properties":{"power":"transformer"}},
{"type":"Feature","geometry":{"type":"MultiPolygon","coordinates":[[[[129.3796948,37.0977158],[129.3797329,37.0976832],[129.3797802,37.0977183],[129.3797421,37.0977509],[129.3796948,37.0977158]]]]},"properties":{"power":"transformer"}},
{"type":"Feature","geometry":{"type":"MultiPolygon","coordinates":[[[[129.3833739,37.0941626],[129.3834091,37.0941314],[129.3834742,37.0941782],[129.3834389,37.0942094],[129.3833739,37.0941626]]]]},"properties":{"power":"transformer"}},
{"type":"Feature","geometry":{"type":"MultiPolygon","coordinates":[[[[129.3831538,37.0940046],[129.383189,37.0939735],[129.3832655,37.0940284],[129.3832303,37.0940596],[129.3831538,37.0940046]]]]},"properties":{"power":"transformer"}},
{"type":"Feature","geometry":{"type":"MultiPolygon","coordinates":[[[[129.3832639,37.0940837],[129.3832991,37.0940525],[129.3833696,37.0941031],[129.3833343,37.0941343],[129.3832639,37.0940837]]]]},"properties":{"power":"transformer"}},
{"type":"Feature","geometry":{"type":"MultiPolygon","coordinates":[[[[129.3829661,37.0938828],[129.383002,37.0938511],[129.3830242,37.0938671],[129.3830389,37.0938777],[129.3830537,37.0938884],[129.383063,37.093895],[129.3830272,37.0939268],[129.3829661,37.0938828]]]]},"properties":{"power":"transformer"}},
{"type":"Feature","geometry":{"type":"MultiPolygon","coordinates":[[[[129.3828548,37.0938027],[129.3828907,37.093771],[129.3829058,37.0937819],[129.3829226,37.093794],[129.3829378,37.0938049],[129.3829451,37.0938102],[129.3829093,37.0938419],[129.3828548,37.0938027]]]]},"properties":{"power":"transformer"}},
{"type":"Feature","geometry":{"type":"MultiPolygon","coordinates":[[[[129.3834868,37.0939049],[129.3835245,37.0938704],[129.3835805,37.0939094],[129.3835429,37.0939438],[129.3834868,37.0939049]]]]},"properties":{"power":"transformer"}},
{"type":"Feature","geometry":{"type":"MultiPolygon","coordinates":[[[[129.382874,37.0940908],[129.3829216,37.0940495],[129.3829771,37.0940902],[129.3829296,37.0941315],[129.382874,37.0940908]]]]},"properties":{"power":"transformer"}},
{"type":"Feature","geometry":{"type":"MultiPolygon","coordinates":[[[[129.3842956,37.0928682],[129.3843431,37.092827],[129.3843987,37.0928677],[129.3843512,37.0929089],[129.3842956,37.0928682]]]]},"properties":{"power":"transformer"}},
{"type":"Feature","geometry":{"type":"MultiPolygon","coordinates":[[[[129.3845754,37.0927821],[129.3846106,37.0927509],[129.3846871,37.0928058],[129.3846519,37.092837],[129.3845754,37.0927821]]]]},"properties":{"power":"transformer"}},
{"type":"Feature","geometry":{"type":"MultiPolygon","coordinates":[[[[129.3846855,37.0928611],[129.3847207,37.0928299],[129.3847911,37.0928805],[129.3847559,37.0929117],[129.3846855,37.0928611]]]]},"properties":{"power":"transformer"}},
{"type":"Feature","geometry":{"type":"MultiPolygon","coordinates":[[[[129.3847954,37.0929401],[129.3848306,37.0929089],[129.3848957,37.0929556],[129.3848605,37.0929868],[129.3847954,37.0929401]]]]},"properties":{"power":"transformer"}},
{"type":"Feature","geometry":{"type":"MultiPolygon","coordinates":[[[[129.3841653,37.0926474],[129.3842021,37.092614],[129.3842608,37.0926553],[129.384224,37.0926886],[129.3841653,37.0926474]]]]},"properties":{"power":"transformer"}},
{"type":"Feature","geometry":{"type":"MultiPolygon","coordinates":[[[[129.3842764,37.0925802],[129.3843122,37.0925485],[129.3843273,37.0925593],[129.3843442,37.0925715],[129.3843594,37.0925824],[129.3843667,37.0925876],[129.3843308,37.0926194],[129.3842764,37.0925802]]]]},"properties":{"power":"transformer"}},
{"type":"Feature","geometry":{"type":"MultiPolygon","coordinates":[[[[129.3843877,37.0926603],[129.3844235,37.0926285],[129.3844457,37.0926445],[129.3844605,37.0926551],[129.3844753,37.0926658],[129.3844846,37.0926725],[129.3844487,37.0927042],[129.3843877,37.0926603]]]]},"properties":{"power":"transformer"}},
{"type":"Feature","geometry":{"type":"MultiPolygon","coordinates":[[[[129.3847224,37.09255],[129.3847399,37.0925358],[129.3847731,37.0925619],[129.3847555,37.0925761],[129.3847224,37.09255]]]]},"properties":{"power":"transformer"}},
{"type":"Feature","geometry":{"type":"MultiPolygon","coordinates":[[[[129.3863792,37.0907595],[129.3864151,37.0907278],[129.3864302,37.0907387],[129.3864471,37.0907508],[129.3864622,37.0907617],[129.3864695,37.090767],[129.3864337,37.0907987],[129.3863792,37.0907595]]]]},"properties":{"power":"transformer"}},
{"type":"Feature","geometry":{"type":"MultiPolygon","coordinates":[[[[129.3869498,37.0907985],[129.3869751,37.090776],[129.3869992,37.0907932],[129.3869738,37.0908157],[129.3869498,37.0907985]]]]},"properties":{"power":"transformer"}},
{"type":"Feature","geometry":{"type":"MultiPolygon","coordinates":[[[[129.3870259,37.090874],[129.3870597,37.0908436],[129.3870991,37.0908715],[129.3870652,37.0909019],[129.3870259,37.090874]]]]},"properties":{"power":"transformer"}},
{"type":"Feature","geometry":{"type":"MultiPolygon","coordinates":[[[[129.3864905,37.0908396],[129.3865264,37.0908079],[129.3865486,37.0908239],[129.3865633,37.0908345],[129.3865782,37.0908452],[129.3865875,37.0908519],[129.3865516,37.0908836],[129.3864905,37.0908396]]]]},"properties":{"power":"transformer"}},
{"type":"Feature","geometry":{"type":"MultiPolygon","coordinates":[[[[129.3879035,37.0896178],[129.3879393,37.089586],[129.3879615,37.089602],[129.3879763,37.0896126],[129.3879911,37.0896233],[129.3880004,37.08963],[129.3879645,37.0896617],[129.3879035,37.0896178]]]]},"properties":{"power":"transformer"}},
{"type":"Feature","geometry":{"type":"MultiPolygon","coordinates":[[[[129.3877922,37.0895377],[129.387828,37.089506],[129.3878431,37.0895168],[129.38786,37.089529],[129.3878752,37.0895399],[129.3878825,37.0895451],[129.3878466,37.0895769],[129.3877922,37.0895377]]]]},"properties":{"power":"transformer"}},
{"type":"Feature","geometry":{"type":"MultiPolygon","coordinates":[[[[129.3884683,37.0896859],[129.3885022,37.0896555],[129.3885415,37.0896833],[129.3885077,37.0897137],[129.3884683,37.0896859]]]]},"properties":{"power":"transformer"}},
{"type":"Feature","geometry":{"type":"MultiPolygon","coordinates":[[[[129.3883932,37.089632],[129.3884271,37.0896016],[129.3884664,37.0896294],[129.3884326,37.0896598],[129.3883932,37.089632]]]]},"properties":{"power":"transformer"}},
{"type":"Feature","geometry":{"type":"MultiPolygon","coordinates":[[[[129.3881284,37.08945],[129.3881766,37.0894062],[129.3882156,37.0894335],[129.3881674,37.0894773],[129.3881284,37.08945]]]]},"properties":{"power":"transformer"}}
]}
