{
  "type": "FeatureCollection",
  "features": [
    {
      "type": "Feature",
      "geometry": {
        "type": "Point",
        "coordinates": [
          127.4807311,
          36.477176
        ]
      },
      "properties": {
        "osm_type": "way",
        "osm_id": 26135489,
        "sido": "대전광역시",
        "power_type": "plant",
        "name": "대청댐",
        "name_en": "Daecheon Dam",
        "plant_source": "hydro",
        "plant_output": "90 MW",
        "plant_method": "",
        "operator": "한국수자원공사"
      }
    },
    {
      "type": "Feature",
      "geometry": {
        "type": "Point",
        "coordinates": [
          127.3083142,
          36.3452068
        ]
      },
      "properties": {
        "osm_type": "way",
        "osm_id": 472121386,
        "sido": "대전광역시",
        "power_type": "plant",
        "name": "학하발전소",
        "name_en": "",
        "plant_source": "gas",
        "plant_output": "26 MW",
        "plant_method": "",
        "operator": "충남도시가스"
      }
    },
    {
      "type": "Feature",
      "geometry": {
        "type": "Point",
        "coordinates": [
          127.4035223,
          36.4345846
        ]
      },
      "properties": {
        "osm_type": "way",
        "osm_id": 932442948,
        "sido": "대전광역시",
        "power_type": "plant",
        "name": "",
        "name_en": "",
        "plant_source": "",
        "plant_output": "",
        "plant_method": "",
        "operator": ""
      }
    },
    {
      "type": "Feature",
      "geometry": {
        "type": "Point",
        "coordinates": [
          127.3194932,
          36.3843451
        ]
      },
      "properties": {
        "osm_type": "way",
        "osm_id": 1136800261,
        "sido": "대전광역시",
        "power_type": "generator",
        "name": "",
        "name_en": "",
        "plant_source": "solar",
        "plant_output": "yes",
        "plant_method": "photovoltaic",
        "operator": ""
      }
    },
    {
      "type": "Feature",
      "geometry": {
        "type": "Point",
        "coordinates": [
          127.319501,
          36.3842257
        ]
      },
      "properties": {
        "osm_type": "way",
        "osm_id": 1136800262,
        "sido": "대전광역시",
        "power_type": "generator",
        "name": "",
        "name_en": "",
        "plant_source": "solar",
        "plant_output": "yes",
        "plant_method": "photovoltaic",
        "operator": ""
      }
    },
    {
      "type": "Feature",
      "geometry": {
        "type": "Point",
        "coordinates": [
          127.3661346,
          36.4759628
        ]
      },
      "properties": {
        "osm_type": "way",
        "osm_id": 1145216370,
        "sido": "대전광역시",
        "power_type": "generator",
        "name": "",
        "name_en": "",
        "plant_source": "solar",
        "plant_output": "yes",
        "plant_method": "photovoltaic",
        "operator": ""
      }
    },
    {
      "type": "Feature",
      "geometry": {
        "type": "Point",
        "coordinates": [
          127.3660384,
          36.4760658
        ]
      },
      "properties": {
        "osm_type": "way",
        "osm_id": 1145216371,
        "sido": "대전광역시",
        "power_type": "generator",
        "name": "",
        "name_en": "",
        "plant_source": "solar",
        "plant_output": "yes",
        "plant_method": "photovoltaic",
        "operator": ""
      }
    },
    {
      "type": "Feature",
      "geometry": {
        "type": "Point",
        "coordinates": [
          127.3659177,
          36.4758054
        ]
      },
      "properties": {
        "osm_type": "way",
        "osm_id": 1145216372,
        "sido": "대전광역시",
        "power_type": "generator",
        "name": "",
        "name_en": "",
        "plant_source": "solar",
        "plant_output": "yes",
        "plant_method": "photovoltaic",
        "operator": ""
      }
    },
    {
      "type": "Feature",
      "geometry": {
        "type": "Point",
        "coordinates": [
          127.3658018,
          36.4758935
        ]
      },
      "properties": {
        "osm_type": "way",
        "osm_id": 1145216373,
        "sido": "대전광역시",
        "power_type": "generator",
        "name": "",
        "name_en": "",
        "plant_source": "solar",
        "plant_output": "yes",
        "plant_method": "photovoltaic",
        "operator": ""
      }
    },
    {
      "type": "Feature",
      "geometry": {
        "type": "Point",
        "coordinates": [
          127.3657573,
          36.476071
        ]
      },
      "properties": {
        "osm_type": "way",
        "osm_id": 1145216374,
        "sido": "대전광역시",
        "power_type": "generator",
        "name": "",
        "name_en": "",
        "plant_source": "solar",
        "plant_output": "yes",
        "plant_method": "photovoltaic",
        "operator": ""
      }
    },
    {
      "type": "Feature",
      "geometry": {
        "type": "Point",
        "coordinates": [
          127.3657017,
          36.4762396
        ]
      },
      "properties": {
        "osm_type": "way",
        "osm_id": 1145216375,
        "sido": "대전광역시",
        "power_type": "generator",
        "name": "",
        "name_en": "",
        "plant_source": "solar",
        "plant_output": "yes",
        "plant_method": "photovoltaic",
        "operator": ""
      }
    },
    {
      "type": "Feature",
      "geometry": {
        "type": "Point",
        "coordinates": [
          127.3656557,
          36.4764146
        ]
      },
      "properties": {
        "osm_type": "way",
        "osm_id": 1145216376,
        "sido": "대전광역시",
        "power_type": "generator",
        "name": "",
        "name_en": "",
        "plant_source": "solar",
        "plant_output": "yes",
        "plant_method": "photovoltaic",
        "operator": ""
      }
    },
    {
      "type": "Feature",
      "geometry": {
        "type": "Point",
        "coordinates": [
          127.3655952,
          36.4765958
        ]
      },
      "properties": {
        "osm_type": "way",
        "osm_id": 1145216377,
        "sido": "대전광역시",
        "power_type": "generator",
        "name": "",
        "name_en": "",
        "plant_source": "solar",
        "plant_output": "yes",
        "plant_method": "photovoltaic",
        "operator": ""
      }
    },
    {
      "type": "Feature",
      "geometry": {
        "type": "Point",
        "coordinates": [
          127.3655366,
          36.4767631
        ]
      },
      "properties": {
        "osm_type": "way",
        "osm_id": 1145216378,
        "sido": "대전광역시",
        "power_type": "generator",
        "name": "",
        "name_en": "",
        "plant_source": "solar",
        "plant_output": "yes",
        "plant_method": "photovoltaic",
        "operator": ""
      }
    },
    {
      "type": "Feature",
      "geometry": {
        "type": "Point",
        "coordinates": [
          127.3664811,
          36.4766247
        ]
      },
      "properties": {
        "osm_type": "way",
        "osm_id": 1145216379,
        "sido": "대전광역시",
        "power_type": "generator",
        "name": "",
        "name_en": "",
        "plant_source": "solar",
        "plant_output": "yes",
        "plant_method": "photovoltaic",
        "operator": ""
      }
    },
    {
      "type": "Feature",
      "geometry": {
        "type": "Point",
        "coordinates": [
          127.3663612,
          36.4767441
        ]
      },
      "properties": {
        "osm_type": "way",
        "osm_id": 1145216380,
        "sido": "대전광역시",
        "power_type": "generator",
        "name": "",
        "name_en": "",
        "plant_source": "solar",
        "plant_output": "yes",
        "plant_method": "photovoltaic",
        "operator": ""
      }
    },
    {
      "type": "Feature",
      "geometry": {
        "type": "Point",
        "coordinates": [
          127.3661278,
          36.4769586
        ]
      },
      "properties": {
        "osm_type": "way",
        "osm_id": 1145216381,
        "sido": "대전광역시",
        "power_type": "generator",
        "name": "",
        "name_en": "",
        "plant_source": "solar",
        "plant_output": "yes",
        "plant_method": "photovoltaic",
        "operator": ""
      }
    },
    {
      "type": "Feature",
      "geometry": {
        "type": "Point",
        "coordinates": [
          127.3659304,
          36.4771409
        ]
      },
      "properties": {
        "osm_type": "way",
        "osm_id": 1145216382,
        "sido": "대전광역시",
        "power_type": "generator",
        "name": "",
        "name_en": "",
        "plant_source": "solar",
        "plant_output": "yes",
        "plant_method": "photovoltaic",
        "operator": ""
      }
    },
    {
      "type": "Feature",
      "geometry": {
        "type": "Point",
        "coordinates": [
          127.3671943,
          36.4776085
        ]
      },
      "properties": {
        "osm_type": "way",
        "osm_id": 1145216386,
        "sido": "대전광역시",
        "power_type": "generator",
        "name": "",
        "name_en": "",
        "plant_source": "solar",
        "plant_output": "yes",
        "plant_method": "photovoltaic",
        "operator": ""
      }
    },
    {
      "type": "Feature",
      "geometry": {
        "type": "Point",
        "coordinates": [
          127.3280654,
          36.3468666
        ]
      },
      "properties": {
        "osm_type": "way",
        "osm_id": 1153388725,
        "sido": "대전광역시",
        "power_type": "generator",
        "name": "",
        "name_en": "",
        "plant_source": "solar",
        "plant_output": "yes",
        "plant_method": "photovoltaic",
        "operator": ""
      }
    },
    {
      "type": "Feature",
      "geometry": {
        "type": "Point",
        "coordinates": [
          127.3277902,
          36.3468315
        ]
      },
      "properties": {
        "osm_type": "way",
        "osm_id": 1153388726,
        "sido": "대전광역시",
        "power_type": "generator",
        "name": "",
        "name_en": "",
        "plant_source": "solar",
        "plant_output": "yes",
        "plant_method": "photovoltaic",
        "operator": ""
      }
    },
    {
      "type": "Feature",
      "geometry": {
        "type": "Point",
        "coordinates": [
          127.3954016,
          36.4398653
        ]
      },
      "properties": {
        "osm_type": "way",
        "osm_id": 1274607671,
        "sido": "대전광역시",
        "power_type": "plant",
        "name": "동아ENG 태양광",
        "name_en": "",
        "plant_source": "solar",
        "plant_output": "0.48048 MW",
        "plant_method": "photovoltaic",
        "operator": "네모그린6"
      }
    },
    {
      "type": "Feature",
      "geometry": {
        "type": "Point",
        "coordinates": [
          127.3837485,
          36.4538341
        ]
      },
      "properties": {
        "osm_type": "way",
        "osm_id": 1274607672,
        "sido": "대전광역시",
        "power_type": "plant",
        "name": "대전저유소 태양광",
        "name_en": "",
        "plant_source": "solar",
        "plant_output": "0.2448 MW",
        "plant_method": "photovoltaic",
        "operator": "대한송유관공사"
      }
    },
    {
      "type": "Feature",
      "geometry": {
        "type": "Point",
        "coordinates": [
          127.4061861,
          36.4240595
        ]
      },
      "properties": {
        "osm_type": "way",
        "osm_id": 1274607673,
        "sido": "대전광역시",
        "power_type": "plant",
        "name": "도시환경ENG 태양광",
        "name_en": "",
        "plant_source": "solar",
        "plant_output": "1.198 MW",
        "plant_method": "photovoltaic",
        "operator": "도시환경ENG"
      }
    },
    {
      "type": "Feature",
      "geometry": {
        "type": "Point",
        "coordinates": [
          127.3594834,
          36.3466102
        ]
      },
      "properties": {
        "osm_type": "way",
        "osm_id": 1274607674,
        "sido": "대전광역시",
        "power_type": "plant",
        "name": "",
        "name_en": "",
        "plant_source": "solar",
        "plant_output": "1.402 MW",
        "plant_method": "photovoltaic",
        "operator": "대전광역시"
      }
    },
    {
      "type": "Feature",
      "geometry": {
        "type": "Point",
        "coordinates": [
          127.4097828,
          36.3705114
        ]
      },
      "properties": {
        "osm_type": "way",
        "osm_id": 1274607675,
        "sido": "대전광역시",
        "power_type": "plant",
        "name": "",
        "name_en": "",
        "plant_source": "solar",
        "plant_output": "yes",
        "plant_method": "photovoltaic",
        "operator": ""
      }
    },
    {
      "type": "Feature",
      "geometry": {
        "type": "Point",
        "coordinates": [
          127.4098786,
          36.3701822
        ]
      },
      "properties": {
        "osm_type": "way",
        "osm_id": 1274607676,
        "sido": "대전광역시",
        "power_type": "plant",
        "name": "",
        "name_en": "",
        "plant_source": "solar",
        "plant_output": "yes",
        "plant_method": "photovoltaic",
        "operator": ""
      }
    },
    {
      "type": "Feature",
      "geometry": {
        "type": "Point",
        "coordinates": [
          127.4101938,
          36.3693257
        ]
      },
      "properties": {
        "osm_type": "way",
        "osm_id": 1274607677,
        "sido": "대전광역시",
        "power_type": "plant",
        "name": "",
        "name_en": "",
        "plant_source": "solar",
        "plant_output": "yes",
        "plant_method": "photovoltaic",
        "operator": ""
      }
    },
    {
      "type": "Feature",
      "geometry": {
        "type": "Point",
        "coordinates": [
          127.4082883,
          36.4333878
        ]
      },
      "properties": {
        "osm_type": "way",
        "osm_id": 1274607678,
        "sido": "대전광역시",
        "power_type": "plant",
        "name": "신탄진 태양광 1호",
        "name_en": "",
        "plant_source": "solar",
        "plant_output": "0.8856 MW",
        "plant_method": "photovoltaic",
        "operator": "충남도시가스"
      }
    },
    {
      "type": "Feature",
      "geometry": {
        "type": "Point",
        "coordinates": [
          127.4086529,
          36.4330817
        ]
      },
      "properties": {
        "osm_type": "way",
        "osm_id": 1274607679,
        "sido": "대전광역시",
        "power_type": "plant",
        "name": "신탄진 태양광 2호",
        "name_en": "",
        "plant_source": "solar",
        "plant_output": "0.8856 MW",
        "plant_method": "photovoltaic",
        "operator": "충남도시가스"
      }
    },
    {
      "type": "Feature",
      "geometry": {
        "type": "Point",
        "coordinates": [
          127.4711065,
          36.3189558
        ]
      },
      "properties": {
        "osm_type": "way",
        "osm_id": 1274607680,
        "sido": "대전광역시",
        "power_type": "plant",
        "name": "판암차량기지 태양광",
        "name_en": "",
        "plant_source": "solar",
        "plant_output": "1.8392 MW",
        "plant_method": "photovoltaic",
        "operator": "대전교통공사"
      }
    },
    {
      "type": "Feature",
      "geometry": {
        "type": "Point",
        "coordinates": [
          127.4073795,
          36.3820685
        ]
      },
      "properties": {
        "osm_type": "way",
        "osm_id": 1274607700,
        "sido": "대전광역시",
        "power_type": "plant",
        "name": "",
        "name_en": "",
        "plant_source": "solar",
        "plant_output": "yes",
        "plant_method": "photovoltaic",
        "operator": ""
      }
    },
    {
      "type": "Feature",
      "geometry": {
        "type": "Point",
        "coordinates": [
          127.4086963,
          36.3819577
        ]
      },
      "properties": {
        "osm_type": "way",
        "osm_id": 1274607701,
        "sido": "대전광역시",
        "power_type": "plant",
        "name": "",
        "name_en": "",
        "plant_source": "solar",
        "plant_output": "yes",
        "plant_method": "photovoltaic",
        "operator": ""
      }
    },
    {
      "type": "Feature",
      "geometry": {
        "type": "Point",
        "coordinates": [
          127.4083204,
          36.3865751
        ]
      },
      "properties": {
        "osm_type": "way",
        "osm_id": 1274607702,
        "sido": "대전광역시",
        "power_type": "plant",
        "name": "",
        "name_en": "",
        "plant_source": "solar",
        "plant_output": "yes",
        "plant_method": "photovoltaic",
        "operator": ""
      }
    },
    {
      "type": "Feature",
      "geometry": {
        "type": "Point",
        "coordinates": [
          127.4083672,
          36.3854317
        ]
      },
      "properties": {
        "osm_type": "way",
        "osm_id": 1274607703,
        "sido": "대전광역시",
        "power_type": "plant",
        "name": "",
        "name_en": "",
        "plant_source": "solar",
        "plant_output": "yes",
        "plant_method": "photovoltaic",
        "operator": ""
      }
    },
    {
      "type": "Feature",
      "geometry": {
        "type": "Point",
        "coordinates": [
          127.424414,
          36.3974934
        ]
      },
      "properties": {
        "osm_type": "way",
        "osm_id": 1274607704,
        "sido": "대전광역시",
        "power_type": "plant",
        "name": "한국수자원공사 본사 태양광",
        "name_en": "",
        "plant_source": "solar",
        "plant_output": "0.098 MW",
        "plant_method": "photovoltaic",
        "operator": "한국수자원공사 (K-Water)"
      }
    },
    {
      "type": "Feature",
      "geometry": {
        "type": "Point",
        "coordinates": [
          127.4077621,
          36.4291188
        ]
      },
      "properties": {
        "osm_type": "way",
        "osm_id": 1274607705,
        "sido": "대전광역시",
        "power_type": "plant",
        "name": "",
        "name_en": "",
        "plant_source": "solar",
        "plant_output": "yes",
        "plant_method": "photovoltaic",
        "operator": ""
      }
    },
    {
      "type": "Feature",
      "geometry": {
        "type": "Point",
        "coordinates": [
          127.4077761,
          36.4288354
        ]
      },
      "properties": {
        "osm_type": "way",
        "osm_id": 1274607706,
        "sido": "대전광역시",
        "power_type": "plant",
        "name": "",
        "name_en": "",
        "plant_source": "solar",
        "plant_output": "yes",
        "plant_method": "photovoltaic",
        "operator": ""
      }
    },
    {
      "type": "Feature",
      "geometry": {
        "type": "Point",
        "coordinates": [
          127.4298267,
          36.4248389
        ]
      },
      "properties": {
        "osm_type": "way",
        "osm_id": 1274607707,
        "sido": "대전광역시",
        "power_type": "plant",
        "name": "",
        "name_en": "",
        "plant_source": "solar",
        "plant_output": "yes",
        "plant_method": "photovoltaic",
        "operator": ""
      }
    },
    {
      "type": "Feature",
      "geometry": {
        "type": "Point",
        "coordinates": [
          127.4304456,
          36.426263
        ]
      },
      "properties": {
        "osm_type": "way",
        "osm_id": 1274607708,
        "sido": "대전광역시",
        "power_type": "plant",
        "name": "",
        "name_en": "",
        "plant_source": "solar",
        "plant_output": "yes",
        "plant_method": "photovoltaic",
        "operator": ""
      }
    },
    {
      "type": "Feature",
      "geometry": {
        "type": "Point",
        "coordinates": [
          127.43083,
          36.4272742
        ]
      },
      "properties": {
        "osm_type": "way",
        "osm_id": 1274607709,
        "sido": "대전광역시",
        "power_type": "plant",
        "name": "",
        "name_en": "",
        "plant_source": "solar",
        "plant_output": "yes",
        "plant_method": "photovoltaic",
        "operator": ""
      }
    },
    {
      "type": "Feature",
      "geometry": {
        "type": "Point",
        "coordinates": [
          127.4317779,
          36.428192
        ]
      },
      "properties": {
        "osm_type": "way",
        "osm_id": 1274607710,
        "sido": "대전광역시",
        "power_type": "plant",
        "name": "",
        "name_en": "",
        "plant_source": "solar",
        "plant_output": "yes",
        "plant_method": "photovoltaic",
        "operator": ""
      }
    },
    {
      "type": "Feature",
      "geometry": {
        "type": "Point",
        "coordinates": [
          127.4329793,
          36.4265501
        ]
      },
      "properties": {
        "osm_type": "way",
        "osm_id": 1274607711,
        "sido": "대전광역시",
        "power_type": "plant",
        "name": "",
        "name_en": "",
        "plant_source": "solar",
        "plant_output": "yes",
        "plant_method": "photovoltaic",
        "operator": ""
      }
    },
    {
      "type": "Feature",
      "geometry": {
        "type": "Point",
        "coordinates": [
          127.4334927,
          36.4263577
        ]
      },
      "properties": {
        "osm_type": "way",
        "osm_id": 1274607712,
        "sido": "대전광역시",
        "power_type": "plant",
        "name": "",
        "name_en": "",
        "plant_source": "solar",
        "plant_output": "yes",
        "plant_method": "photovoltaic",
        "operator": ""
      }
    },
    {
      "type": "Feature",
      "geometry": {
        "type": "Point",
        "coordinates": [
          127.4316032,
          36.429343
        ]
      },
      "properties": {
        "osm_type": "way",
        "osm_id": 1274607713,
        "sido": "대전광역시",
        "power_type": "plant",
        "name": "",
        "name_en": "",
        "plant_source": "solar",
        "plant_output": "yes",
        "plant_method": "photovoltaic",
        "operator": ""
      }
    },
    {
      "type": "Feature",
      "geometry": {
        "type": "Point",
        "coordinates": [
          127.4284339,
          36.4256106
        ]
      },
      "properties": {
        "osm_type": "way",
        "osm_id": 1274607714,
        "sido": "대전광역시",
        "power_type": "plant",
        "name": "",
        "name_en": "",
        "plant_source": "solar",
        "plant_output": "yes",
        "plant_method": "photovoltaic",
        "operator": ""
      }
    },
    {
      "type": "Feature",
      "geometry": {
        "type": "Point",
        "coordinates": [
          127.3474197,
          36.3335384
        ]
      },
      "properties": {
        "osm_type": "way",
        "osm_id": 1278459092,
        "sido": "대전광역시",
        "power_type": "plant",
        "name": "대전서남부 열병합",
        "name_en": "",
        "plant_source": "gas",
        "plant_output": "48.3 MW",
        "plant_method": "combustion",
        "operator": "한국토지주택공사 (LH공사)"
      }
    },
    {
      "type": "Feature",
      "geometry": {
        "type": "Point",
        "coordinates": [
          127.3947396,
          36.4635293
        ]
      },
      "properties": {
        "osm_type": "way",
        "osm_id": 1278647872,
        "sido": "대전광역시",
        "power_type": "plant",
        "name": "대전금고동 LFG",
        "name_en": "",
        "plant_source": "biogas",
        "plant_output": "3.46 MW",
        "plant_method": "gasification",
        "operator": "대전도시공사"
      }
    },
    {
      "type": "Feature",
      "geometry": {
        "type": "Point",
        "coordinates": [
          127.4170519,
          36.3939604
        ]
      },
      "properties": {
        "osm_type": "way",
        "osm_id": 1278647878,
        "sido": "대전광역시",
        "power_type": "plant",
        "name": "대전 바이오가스",
        "name_en": "",
        "plant_source": "biogas",
        "plant_output": "0.099 MW",
        "plant_method": "gasification",
        "operator": "영스타"
      }
    },
    {
      "type": "Feature",
      "geometry": {
        "type": "Point",
        "coordinates": [
          127.3993953,
          36.4030364
        ]
      },
      "properties": {
        "osm_type": "way",
        "osm_id": 1278691823,
        "sido": "대전광역시",
        "power_type": "plant",
        "name": "KT대덕2연구센터 연료전지",
        "name_en": "",
        "plant_source": "gas",
        "plant_output": "0.9 MW",
        "plant_method": "fuel_cell",
        "operator": "KT"
      }
    },
    {
      "type": "Feature",
      "geometry": {
        "type": "Point",
        "coordinates": [
          127.4700196,
          36.3184519
        ]
      },
      "properties": {
        "osm_type": "way",
        "osm_id": 1278691831,
        "sido": "대전광역시",
        "power_type": "plant",
        "name": "S-Fuelcell(대전) 연료전지",
        "name_en": "",
        "plant_source": "gas",
        "plant_output": "0.105 MW",
        "plant_method": "fuel_cell",
        "operator": "S-Fuelcell"
      }
    },
    {
      "type": "Feature",
      "geometry": {
        "type": "Point",
        "coordinates": [
          127.3678346,
          36.3681398
        ]
      },
      "properties": {
        "osm_type": "way",
        "osm_id": 1290618743,
        "sido": "대전광역시",
        "power_type": "generator",
        "name": "",
        "name_en": "",
        "plant_source": "solar",
        "plant_output": "yes",
        "plant_method": "photovoltaic",
        "operator": ""
      }
    },
    {
      "type": "Feature",
      "geometry": {
        "type": "Point",
        "coordinates": [
          127.3486458,
          36.3636281
        ]
      },
      "properties": {
        "osm_type": "way",
        "osm_id": 1345114352,
        "sido": "대전광역시",
        "power_type": "generator",
        "name": "",
        "name_en": "",
        "plant_source": "solar",
        "plant_output": "yes",
        "plant_method": "photovoltaic",
        "operator": ""
      }
    },
    {
      "type": "Feature",
      "geometry": {
        "type": "Point",
        "coordinates": [
          127.3523611,
          36.4114674
        ]
      },
      "properties": {
        "osm_type": "way",
        "osm_id": 1469610976,
        "sido": "대전광역시",
        "power_type": "generator",
        "name": "",
        "name_en": "",
        "plant_source": "solar",
        "plant_output": "yes",
        "plant_method": "photovoltaic",
        "operator": ""
      }
    },
    {
      "type": "Feature",
      "geometry": {
        "type": "Point",
        "coordinates": [
          127.352412,
          36.4115556
        ]
      },
      "properties": {
        "osm_type": "way",
        "osm_id": 1469610977,
        "sido": "대전광역시",
        "power_type": "generator",
        "name": "",
        "name_en": "",
        "plant_source": "solar",
        "plant_output": "yes",
        "plant_method": "photovoltaic",
        "operator": ""
      }
    },
    {
      "type": "Feature",
      "geometry": {
        "type": "Point",
        "coordinates": [
          127.3524266,
          36.4116447
        ]
      },
      "properties": {
        "osm_type": "way",
        "osm_id": 1469610978,
        "sido": "대전광역시",
        "power_type": "generator",
        "name": "",
        "name_en": "",
        "plant_source": "solar",
        "plant_output": "yes",
        "plant_method": "photovoltaic",
        "operator": ""
      }
    },
    {
      "type": "Feature",
      "geometry": {
        "type": "Point",
        "coordinates": [
          127.3523539,
          36.4117171
        ]
      },
      "properties": {
        "osm_type": "way",
        "osm_id": 1469610979,
        "sido": "대전광역시",
        "power_type": "generator",
        "name": "",
        "name_en": "",
        "plant_source": "solar",
        "plant_output": "yes",
        "plant_method": "photovoltaic",
        "operator": ""
      }
    },
    {
      "type": "Feature",
      "geometry": {
        "type": "Point",
        "coordinates": [
          127.3523617,
          36.4118529
        ]
      },
      "properties": {
        "osm_type": "way",
        "osm_id": 1469610980,
        "sido": "대전광역시",
        "power_type": "generator",
        "name": "",
        "name_en": "",
        "plant_source": "solar",
        "plant_output": "yes",
        "plant_method": "photovoltaic",
        "operator": ""
      }
    },
    {
      "type": "Feature",
      "geometry": {
        "type": "Point",
        "coordinates": [
          127.3523588,
          36.4119428
        ]
      },
      "properties": {
        "osm_type": "way",
        "osm_id": 1469610981,
        "sido": "대전광역시",
        "power_type": "generator",
        "name": "",
        "name_en": "",
        "plant_source": "solar",
        "plant_output": "yes",
        "plant_method": "photovoltaic",
        "operator": ""
      }
    },
    {
      "type": "Feature",
      "geometry": {
        "type": "Point",
        "coordinates": [
          127.3526169,
          36.4122877
        ]
      },
      "properties": {
        "osm_type": "way",
        "osm_id": 1469610982,
        "sido": "대전광역시",
        "power_type": "generator",
        "name": "",
        "name_en": "",
        "plant_source": "solar",
        "plant_output": "yes",
        "plant_method": "photovoltaic",
        "operator": ""
      }
    },
    {
      "type": "Feature",
      "geometry": {
        "type": "Point",
        "coordinates": [
          127.35372,
          36.4105208
        ]
      },
      "properties": {
        "osm_type": "way",
        "osm_id": 1469667073,
        "sido": "대전광역시",
        "power_type": "generator",
        "name": "",
        "name_en": "",
        "plant_source": "solar",
        "plant_output": "yes",
        "plant_method": "photovoltaic",
        "operator": ""
      }
    },
    {
      "type": "Feature",
      "geometry": {
        "type": "Point",
        "coordinates": [
          127.3533322,
          36.4091979
        ]
      },
      "properties": {
        "osm_type": "way",
        "osm_id": 1470159085,
        "sido": "대전광역시",
        "power_type": "generator",
        "name": "",
        "name_en": "",
        "plant_source": "solar",
        "plant_output": "yes",
        "plant_method": "photovoltaic",
        "operator": ""
      }
    },
    {
      "type": "Feature",
      "geometry": {
        "type": "Point",
        "coordinates": [
          127.353833,
          36.4091379
        ]
      },
      "properties": {
        "osm_type": "way",
        "osm_id": 1470159086,
        "sido": "대전광역시",
        "power_type": "generator",
        "name": "",
        "name_en": "",
        "plant_source": "solar",
        "plant_output": "yes",
        "plant_method": "photovoltaic",
        "operator": ""
      }
    },
    {
      "type": "Feature",
      "geometry": {
        "type": "Point",
        "coordinates": [
          127.3538796,
          36.409218
        ]
      },
      "properties": {
        "osm_type": "way",
        "osm_id": 1470159087,
        "sido": "대전광역시",
        "power_type": "generator",
        "name": "",
        "name_en": "",
        "plant_source": "solar",
        "plant_output": "yes",
        "plant_method": "photovoltaic",
        "operator": ""
      }
    },
    {
      "type": "Feature",
      "geometry": {
        "type": "Point",
        "coordinates": [
          127.3533306,
          36.4087378
        ]
      },
      "properties": {
        "osm_type": "way",
        "osm_id": 1470159088,
        "sido": "대전광역시",
        "power_type": "generator",
        "name": "",
        "name_en": "",
        "plant_source": "solar",
        "plant_output": "yes",
        "plant_method": "photovoltaic",
        "operator": ""
      }
    },
    {
      "type": "Feature",
      "geometry": {
        "type": "Point",
        "coordinates": [
          127.3532951,
          36.4076595
        ]
      },
      "properties": {
        "osm_type": "way",
        "osm_id": 1470159104,
        "sido": "대전광역시",
        "power_type": "generator",
        "name": "",
        "name_en": "",
        "plant_source": "solar",
        "plant_output": "yes",
        "plant_method": "photovoltaic",
        "operator": ""
      }
    },
    {
      "type": "Feature",
      "geometry": {
        "type": "Point",
        "coordinates": [
          127.3519623,
          36.4062437
        ]
      },
      "properties": {
        "osm_type": "way",
        "osm_id": 1470175450,
        "sido": "대전광역시",
        "power_type": "generator",
        "name": "",
        "name_en": "",
        "plant_source": "solar",
        "plant_output": "yes",
        "plant_method": "photovoltaic",
        "operator": ""
      }
    },
    {
      "type": "Feature",
      "geometry": {
        "type": "Point",
        "coordinates": [
          127.3518274,
          36.4058028
        ]
      },
      "properties": {
        "osm_type": "way",
        "osm_id": 1470175454,
        "sido": "대전광역시",
        "power_type": "generator",
        "name": "",
        "name_en": "",
        "plant_source": "solar",
        "plant_output": "yes",
        "plant_method": "photovoltaic",
        "operator": ""
      }
    },
    {
      "type": "Feature",
      "geometry": {
        "type": "Point",
        "coordinates": [
          127.3534199,
          36.4055932
        ]
      },
      "properties": {
        "osm_type": "way",
        "osm_id": 1470175459,
        "sido": "대전광역시",
        "power_type": "generator",
        "name": "",
        "name_en": "",
        "plant_source": "solar",
        "plant_output": "yes",
        "plant_method": "photovoltaic",
        "operator": ""
      }
    },
    {
      "type": "Feature",
      "geometry": {
        "type": "Point",
        "coordinates": [
          127.3538896,
          36.4053567
        ]
      },
      "properties": {
        "osm_type": "way",
        "osm_id": 1470175460,
        "sido": "대전광역시",
        "power_type": "generator",
        "name": "",
        "name_en": "",
        "plant_source": "solar",
        "plant_output": "yes",
        "plant_method": "photovoltaic",
        "operator": ""
      }
    },
    {
      "type": "Feature",
      "geometry": {
        "type": "Point",
        "coordinates": [
          127.3534873,
          36.405359
        ]
      },
      "properties": {
        "osm_type": "way",
        "osm_id": 1470175461,
        "sido": "대전광역시",
        "power_type": "generator",
        "name": "",
        "name_en": "",
        "plant_source": "solar",
        "plant_output": "yes",
        "plant_method": "photovoltaic",
        "operator": ""
      }
    },
    {
      "type": "Feature",
      "geometry": {
        "type": "Point",
        "coordinates": [
          127.352997,
          36.40536
        ]
      },
      "properties": {
        "osm_type": "way",
        "osm_id": 1470175462,
        "sido": "대전광역시",
        "power_type": "generator",
        "name": "",
        "name_en": "",
        "plant_source": "solar",
        "plant_output": "yes",
        "plant_method": "photovoltaic",
        "operator": ""
      }
    },
    {
      "type": "Feature",
      "geometry": {
        "type": "Point",
        "coordinates": [
          127.3525867,
          36.40549
        ]
      },
      "properties": {
        "osm_type": "way",
        "osm_id": 1470175465,
        "sido": "대전광역시",
        "power_type": "generator",
        "name": "",
        "name_en": "",
        "plant_source": "solar",
        "plant_output": "yes",
        "plant_method": "photovoltaic",
        "operator": ""
      }
    },
    {
      "type": "Feature",
      "geometry": {
        "type": "Point",
        "coordinates": [
          127.3518908,
          36.4053631
        ]
      },
      "properties": {
        "osm_type": "way",
        "osm_id": 1470175467,
        "sido": "대전광역시",
        "power_type": "generator",
        "name": "",
        "name_en": "",
        "plant_source": "solar",
        "plant_output": "yes",
        "plant_method": "photovoltaic",
        "operator": ""
      }
    },
    {
      "type": "Feature",
      "geometry": {
        "type": "Point",
        "coordinates": [
          127.3551589,
          36.40557
        ]
      },
      "properties": {
        "osm_type": "way",
        "osm_id": 1470189128,
        "sido": "대전광역시",
        "power_type": "generator",
        "name": "",
        "name_en": "",
        "plant_source": "solar",
        "plant_output": "yes",
        "plant_method": "photovoltaic",
        "operator": ""
      }
    },
    {
      "type": "Feature",
      "geometry": {
        "type": "Point",
        "coordinates": [
          127.3548239,
          36.405338
        ]
      },
      "properties": {
        "osm_type": "way",
        "osm_id": 1470189129,
        "sido": "대전광역시",
        "power_type": "generator",
        "name": "",
        "name_en": "",
        "plant_source": "solar",
        "plant_output": "yes",
        "plant_method": "photovoltaic",
        "operator": ""
      }
    },
    {
      "type": "Feature",
      "geometry": {
        "type": "Point",
        "coordinates": [
          127.3554991,
          36.4053399
        ]
      },
      "properties": {
        "osm_type": "way",
        "osm_id": 1470189130,
        "sido": "대전광역시",
        "power_type": "generator",
        "name": "",
        "name_en": "",
        "plant_source": "solar",
        "plant_output": "yes",
        "plant_method": "photovoltaic",
        "operator": ""
      }
    },
    {
      "type": "Feature",
      "geometry": {
        "type": "Point",
        "coordinates": [
          127.35644,
          36.4053828
        ]
      },
      "properties": {
        "osm_type": "way",
        "osm_id": 1470189134,
        "sido": "대전광역시",
        "power_type": "generator",
        "name": "",
        "name_en": "",
        "plant_source": "solar",
        "plant_output": "yes",
        "plant_method": "photovoltaic",
        "operator": ""
      }
    },
    {
      "type": "Feature",
      "geometry": {
        "type": "Point",
        "coordinates": [
          127.3564508,
          36.406042
        ]
      },
      "properties": {
        "osm_type": "way",
        "osm_id": 1470189136,
        "sido": "대전광역시",
        "power_type": "generator",
        "name": "",
        "name_en": "",
        "plant_source": "solar",
        "plant_output": "yes",
        "plant_method": "photovoltaic",
        "operator": ""
      }
    },
    {
      "type": "Feature",
      "geometry": {
        "type": "Point",
        "coordinates": [
          127.3550882,
          36.4065826
        ]
      },
      "properties": {
        "osm_type": "way",
        "osm_id": 1470189154,
        "sido": "대전광역시",
        "power_type": "generator",
        "name": "",
        "name_en": "",
        "plant_source": "solar",
        "plant_output": "yes",
        "plant_method": "photovoltaic",
        "operator": ""
      }
    },
    {
      "type": "Feature",
      "geometry": {
        "type": "Point",
        "coordinates": [
          127.3563218,
          36.406689
        ]
      },
      "properties": {
        "osm_type": "way",
        "osm_id": 1470189176,
        "sido": "대전광역시",
        "power_type": "generator",
        "name": "",
        "name_en": "",
        "plant_source": "solar",
        "plant_output": "yes",
        "plant_method": "photovoltaic",
        "operator": ""
      }
    },
    {
      "type": "Feature",
      "geometry": {
        "type": "Point",
        "coordinates": [
          127.4100323,
          36.3698279
        ]
      },
      "properties": {
        "osm_type": "relation",
        "osm_id": 17497245,
        "sido": "대전광역시",
        "power_type": "plant",
        "name": "코원ES햇빛 대전 태양광",
        "name_en": "",
        "plant_source": "solar",
        "plant_output": "0.57072 MW",
        "plant_method": "photovoltaic",
        "operator": "부산정관에너지"
      }
    },
    {
      "type": "Feature",
      "geometry": {
        "type": "Point",
        "coordinates": [
          127.4080401,
          36.3843178
        ]
      },
      "properties": {
        "osm_type": "relation",
        "osm_id": 17497247,
        "sido": "대전광역시",
        "power_type": "plant",
        "name": "대전하수처리장 태양광",
        "name_en": "",
        "plant_source": "solar",
        "plant_output": "2.008 MW",
        "plant_method": "photovoltaic",
        "operator": "코스콘태양광"
      }
    },
    {
      "type": "Feature",
      "geometry": {
        "type": "Point",
        "coordinates": [
          127.4077621,
          36.4290344
        ]
      },
      "properties": {
        "osm_type": "relation",
        "osm_id": 17497248,
        "sido": "대전광역시",
        "power_type": "plant",
        "name": "ESG 태양광",
        "name_en": "",
        "plant_source": "solar",
        "plant_output": "0.18 MW",
        "plant_method": "photovoltaic",
        "operator": "이에스지태양광"
      }
    },
    {
      "type": "Feature",
      "geometry": {
        "type": "Point",
        "coordinates": [
          127.4310469,
          36.4270708
        ]
      },
      "properties": {
        "osm_type": "relation",
        "osm_id": 17497249,
        "sido": "대전광역시",
        "power_type": "plant",
        "name": "코레일 대전 태양광",
        "name_en": "",
        "plant_source": "solar",
        "plant_output": "2.356 MW",
        "plant_method": "photovoltaic",
        "operator": "한전산업개발"
      }
    }
  ]
}