{
  "type": "FeatureCollection",
  "features": [
    {
      "type": "Feature",
      "geometry": {
        "type": "Point",
        "coordinates": [
          127.4807311,
          36.477176
        ]
      },
      "properties": {
        "osm_type": "way",
        "osm_id": 26135489,
        "sido": "충청북도",
        "power_type": "plant",
        "name": "대청댐",
        "name_en": "Daecheon Dam",
        "plant_source": "hydro",
        "plant_output": "90 MW",
        "plant_method": "",
        "operator": "한국수자원공사"
      }
    },
    {
      "type": "Feature",
      "geometry": {
        "type": "Point",
        "coordinates": [
          127.9924908,
          37.0071796
        ]
      },
      "properties": {
        "osm_type": "way",
        "osm_id": 640393478,
        "sido": "충청북도",
        "power_type": "plant",
        "name": "충주수력발전소",
        "name_en": "Chungju Hydro Power Plant",
        "plant_source": "hydro",
        "plant_output": "400 MW",
        "plant_method": "",
        "operator": "K Water"
      }
    },
    {
      "type": "Feature",
      "geometry": {
        "type": "Point",
        "coordinates": [
          127.4434195,
          36.60498
        ]
      },
      "properties": {
        "osm_type": "way",
        "osm_id": 734814973,
        "sido": "충청북도",
        "power_type": "plant",
        "name": "한국지역난방공사 청주지사",
        "name_en": "Cheongju CHP plant",
        "plant_source": "",
        "plant_output": "",
        "plant_method": "combustion",
        "operator": ""
      }
    },
    {
      "type": "Feature",
      "geometry": {
        "type": "Point",
        "coordinates": [
          127.6283834,
          36.218832
        ]
      },
      "properties": {
        "osm_type": "way",
        "osm_id": 735048614,
        "sido": "충청북도",
        "power_type": "plant",
        "name": "",
        "name_en": "",
        "plant_source": "solar",
        "plant_output": "yes",
        "plant_method": "photovoltaic",
        "operator": ""
      }
    },
    {
      "type": "Feature",
      "geometry": {
        "type": "Point",
        "coordinates": [
          127.6540847,
          36.8072709
        ]
      },
      "properties": {
        "osm_type": "way",
        "osm_id": 753344281,
        "sido": "충청북도",
        "power_type": "generator",
        "name": "",
        "name_en": "",
        "plant_source": "solar",
        "plant_output": "yes",
        "plant_method": "photovoltaic",
        "operator": ""
      }
    },
    {
      "type": "Feature",
      "geometry": {
        "type": "Point",
        "coordinates": [
          127.4503277,
          36.6152772
        ]
      },
      "properties": {
        "osm_type": "way",
        "osm_id": 899908931,
        "sido": "충청북도",
        "power_type": "generator",
        "name": "",
        "name_en": "",
        "plant_source": "solar",
        "plant_output": "yes",
        "plant_method": "photovoltaic",
        "operator": ""
      }
    },
    {
      "type": "Feature",
      "geometry": {
        "type": "Point",
        "coordinates": [
          127.9600895,
          36.9756828
        ]
      },
      "properties": {
        "osm_type": "way",
        "osm_id": 1071164405,
        "sido": "충청북도",
        "power_type": "generator",
        "name": "",
        "name_en": "",
        "plant_source": "solar",
        "plant_output": "yes",
        "plant_method": "photovoltaic",
        "operator": ""
      }
    },
    {
      "type": "Feature",
      "geometry": {
        "type": "Point",
        "coordinates": [
          127.9601976,
          36.9759124
        ]
      },
      "properties": {
        "osm_type": "way",
        "osm_id": 1071164406,
        "sido": "충청북도",
        "power_type": "generator",
        "name": "",
        "name_en": "",
        "plant_source": "solar",
        "plant_output": "yes",
        "plant_method": "photovoltaic",
        "operator": ""
      }
    },
    {
      "type": "Feature",
      "geometry": {
        "type": "Point",
        "coordinates": [
          127.959749,
          36.9757131
        ]
      },
      "properties": {
        "osm_type": "way",
        "osm_id": 1071164407,
        "sido": "충청북도",
        "power_type": "generator",
        "name": "",
        "name_en": "",
        "plant_source": "solar",
        "plant_output": "yes",
        "plant_method": "photovoltaic",
        "operator": ""
      }
    },
    {
      "type": "Feature",
      "geometry": {
        "type": "Point",
        "coordinates": [
          127.9596681,
          36.9752372
        ]
      },
      "properties": {
        "osm_type": "way",
        "osm_id": 1071164408,
        "sido": "충청북도",
        "power_type": "generator",
        "name": "",
        "name_en": "",
        "plant_source": "solar",
        "plant_output": "yes",
        "plant_method": "photovoltaic",
        "operator": ""
      }
    },
    {
      "type": "Feature",
      "geometry": {
        "type": "Point",
        "coordinates": [
          127.9595176,
          36.9753061
        ]
      },
      "properties": {
        "osm_type": "way",
        "osm_id": 1071164409,
        "sido": "충청북도",
        "power_type": "generator",
        "name": "",
        "name_en": "",
        "plant_source": "solar",
        "plant_output": "yes",
        "plant_method": "photovoltaic",
        "operator": ""
      }
    },
    {
      "type": "Feature",
      "geometry": {
        "type": "Point",
        "coordinates": [
          127.9610958,
          36.9758588
        ]
      },
      "properties": {
        "osm_type": "way",
        "osm_id": 1071164412,
        "sido": "충청북도",
        "power_type": "generator",
        "name": "",
        "name_en": "",
        "plant_source": "solar",
        "plant_output": "yes",
        "plant_method": "photovoltaic",
        "operator": ""
      }
    },
    {
      "type": "Feature",
      "geometry": {
        "type": "Point",
        "coordinates": [
          127.9603561,
          36.9760411
        ]
      },
      "properties": {
        "osm_type": "way",
        "osm_id": 1071164413,
        "sido": "충청북도",
        "power_type": "generator",
        "name": "",
        "name_en": "",
        "plant_source": "solar",
        "plant_output": "yes",
        "plant_method": "photovoltaic",
        "operator": ""
      }
    },
    {
      "type": "Feature",
      "geometry": {
        "type": "Point",
        "coordinates": [
          127.948658,
          36.9854896
        ]
      },
      "properties": {
        "osm_type": "way",
        "osm_id": 1137555858,
        "sido": "충청북도",
        "power_type": "generator",
        "name": "",
        "name_en": "",
        "plant_source": "solar",
        "plant_output": "yes",
        "plant_method": "photovoltaic",
        "operator": ""
      }
    },
    {
      "type": "Feature",
      "geometry": {
        "type": "Point",
        "coordinates": [
          127.9487304,
          36.9857726
        ]
      },
      "properties": {
        "osm_type": "way",
        "osm_id": 1137555859,
        "sido": "충청북도",
        "power_type": "generator",
        "name": "",
        "name_en": "",
        "plant_source": "solar",
        "plant_output": "yes",
        "plant_method": "photovoltaic",
        "operator": ""
      }
    },
    {
      "type": "Feature",
      "geometry": {
        "type": "Point",
        "coordinates": [
          127.9486718,
          36.9855389
        ]
      },
      "properties": {
        "osm_type": "way",
        "osm_id": 1137555860,
        "sido": "충청북도",
        "power_type": "generator",
        "name": "",
        "name_en": "",
        "plant_source": "solar",
        "plant_output": "yes",
        "plant_method": "photovoltaic",
        "operator": ""
      }
    },
    {
      "type": "Feature",
      "geometry": {
        "type": "Point",
        "coordinates": [
          127.9486845,
          36.9855876
        ]
      },
      "properties": {
        "osm_type": "way",
        "osm_id": 1137555861,
        "sido": "충청북도",
        "power_type": "generator",
        "name": "",
        "name_en": "",
        "plant_source": "solar",
        "plant_output": "yes",
        "plant_method": "photovoltaic",
        "operator": ""
      }
    },
    {
      "type": "Feature",
      "geometry": {
        "type": "Point",
        "coordinates": [
          127.9486955,
          36.9856353
        ]
      },
      "properties": {
        "osm_type": "way",
        "osm_id": 1137555862,
        "sido": "충청북도",
        "power_type": "generator",
        "name": "",
        "name_en": "",
        "plant_source": "solar",
        "plant_output": "yes",
        "plant_method": "photovoltaic",
        "operator": ""
      }
    },
    {
      "type": "Feature",
      "geometry": {
        "type": "Point",
        "coordinates": [
          127.9487067,
          36.9856802
        ]
      },
      "properties": {
        "osm_type": "way",
        "osm_id": 1137555863,
        "sido": "충청북도",
        "power_type": "generator",
        "name": "",
        "name_en": "",
        "plant_source": "solar",
        "plant_output": "yes",
        "plant_method": "photovoltaic",
        "operator": ""
      }
    },
    {
      "type": "Feature",
      "geometry": {
        "type": "Point",
        "coordinates": [
          127.9487189,
          36.9857286
        ]
      },
      "properties": {
        "osm_type": "way",
        "osm_id": 1137555864,
        "sido": "충청북도",
        "power_type": "generator",
        "name": "",
        "name_en": "",
        "plant_source": "solar",
        "plant_output": "yes",
        "plant_method": "photovoltaic",
        "operator": ""
      }
    },
    {
      "type": "Feature",
      "geometry": {
        "type": "Point",
        "coordinates": [
          127.9489563,
          36.9857641
        ]
      },
      "properties": {
        "osm_type": "way",
        "osm_id": 1137555866,
        "sido": "충청북도",
        "power_type": "generator",
        "name": "",
        "name_en": "",
        "plant_source": "solar",
        "plant_output": "yes",
        "plant_method": "photovoltaic",
        "operator": ""
      }
    },
    {
      "type": "Feature",
      "geometry": {
        "type": "Point",
        "coordinates": [
          127.9489554,
          36.9857223
        ]
      },
      "properties": {
        "osm_type": "way",
        "osm_id": 1137555867,
        "sido": "충청북도",
        "power_type": "generator",
        "name": "",
        "name_en": "",
        "plant_source": "solar",
        "plant_output": "yes",
        "plant_method": "photovoltaic",
        "operator": ""
      }
    },
    {
      "type": "Feature",
      "geometry": {
        "type": "Point",
        "coordinates": [
          127.9489272,
          36.9856802
        ]
      },
      "properties": {
        "osm_type": "way",
        "osm_id": 1137555868,
        "sido": "충청북도",
        "power_type": "generator",
        "name": "",
        "name_en": "",
        "plant_source": "solar",
        "plant_output": "yes",
        "plant_method": "photovoltaic",
        "operator": ""
      }
    },
    {
      "type": "Feature",
      "geometry": {
        "type": "Point",
        "coordinates": [
          127.9489277,
          36.9856342
        ]
      },
      "properties": {
        "osm_type": "way",
        "osm_id": 1137555869,
        "sido": "충청북도",
        "power_type": "generator",
        "name": "",
        "name_en": "",
        "plant_source": "solar",
        "plant_output": "yes",
        "plant_method": "photovoltaic",
        "operator": ""
      }
    },
    {
      "type": "Feature",
      "geometry": {
        "type": "Point",
        "coordinates": [
          127.9489305,
          36.9855848
        ]
      },
      "properties": {
        "osm_type": "way",
        "osm_id": 1137555870,
        "sido": "충청북도",
        "power_type": "generator",
        "name": "",
        "name_en": "",
        "plant_source": "solar",
        "plant_output": "yes",
        "plant_method": "photovoltaic",
        "operator": ""
      }
    },
    {
      "type": "Feature",
      "geometry": {
        "type": "Point",
        "coordinates": [
          127.912003,
          36.9597402
        ]
      },
      "properties": {
        "osm_type": "way",
        "osm_id": 1200820028,
        "sido": "충청북도",
        "power_type": "generator",
        "name": "",
        "name_en": "",
        "plant_source": "solar",
        "plant_output": "yes",
        "plant_method": "photovoltaic",
        "operator": ""
      }
    },
    {
      "type": "Feature",
      "geometry": {
        "type": "Point",
        "coordinates": [
          127.5765916,
          36.5826487
        ]
      },
      "properties": {
        "osm_type": "way",
        "osm_id": 1207328008,
        "sido": "충청북도",
        "power_type": "plant",
        "name": "",
        "name_en": "",
        "plant_source": "solar",
        "plant_output": "yes",
        "plant_method": "photovoltaic",
        "operator": ""
      }
    },
    {
      "type": "Feature",
      "geometry": {
        "type": "Point",
        "coordinates": [
          127.4108372,
          36.7246965
        ]
      },
      "properties": {
        "osm_type": "way",
        "osm_id": 1223378645,
        "sido": "충청북도",
        "power_type": "plant",
        "name": "",
        "name_en": "",
        "plant_source": "solar",
        "plant_output": "yes",
        "plant_method": "photovoltaic",
        "operator": ""
      }
    },
    {
      "type": "Feature",
      "geometry": {
        "type": "Point",
        "coordinates": [
          128.0903667,
          37.0814051
        ]
      },
      "properties": {
        "osm_type": "way",
        "osm_id": 1225806322,
        "sido": "충청북도",
        "power_type": "generator",
        "name": "",
        "name_en": "",
        "plant_source": "solar",
        "plant_output": "yes",
        "plant_method": "photovoltaic",
        "operator": ""
      }
    },
    {
      "type": "Feature",
      "geometry": {
        "type": "Point",
        "coordinates": [
          127.7363366,
          36.9487182
        ]
      },
      "properties": {
        "osm_type": "way",
        "osm_id": 1228559900,
        "sido": "충청북도",
        "power_type": "generator",
        "name": "",
        "name_en": "",
        "plant_source": "solar",
        "plant_output": "yes",
        "plant_method": "photovoltaic",
        "operator": ""
      }
    },
    {
      "type": "Feature",
      "geometry": {
        "type": "Point",
        "coordinates": [
          127.7347581,
          36.9481598
        ]
      },
      "properties": {
        "osm_type": "way",
        "osm_id": 1228559901,
        "sido": "충청북도",
        "power_type": "generator",
        "name": "",
        "name_en": "",
        "plant_source": "solar",
        "plant_output": "yes",
        "plant_method": "photovoltaic",
        "operator": ""
      }
    },
    {
      "type": "Feature",
      "geometry": {
        "type": "Point",
        "coordinates": [
          127.3648265,
          36.5715671
        ]
      },
      "properties": {
        "osm_type": "way",
        "osm_id": 1232805631,
        "sido": "충청북도",
        "power_type": "generator",
        "name": "",
        "name_en": "",
        "plant_source": "solar",
        "plant_output": "yes",
        "plant_method": "photovoltaic",
        "operator": ""
      }
    },
    {
      "type": "Feature",
      "geometry": {
        "type": "Point",
        "coordinates": [
          127.9257576,
          36.9710867
        ]
      },
      "properties": {
        "osm_type": "way",
        "osm_id": 1246214680,
        "sido": "충청북도",
        "power_type": "generator",
        "name": "",
        "name_en": "",
        "plant_source": "solar",
        "plant_output": "yes",
        "plant_method": "photovoltaic",
        "operator": ""
      }
    },
    {
      "type": "Feature",
      "geometry": {
        "type": "Point",
        "coordinates": [
          127.563554,
          37.0067724
        ]
      },
      "properties": {
        "osm_type": "way",
        "osm_id": 1271097795,
        "sido": "충청북도",
        "power_type": "generator",
        "name": "",
        "name_en": "",
        "plant_source": "solar",
        "plant_output": "yes",
        "plant_method": "photovoltaic",
        "operator": ""
      }
    },
    {
      "type": "Feature",
      "geometry": {
        "type": "Point",
        "coordinates": [
          127.5714519,
          36.8942669
        ]
      },
      "properties": {
        "osm_type": "way",
        "osm_id": 1278401649,
        "sido": "충청북도",
        "power_type": "plant",
        "name": "맹동 소수력",
        "name_en": "",
        "plant_source": "hydro",
        "plant_output": "0.36 MW",
        "plant_method": "run-of-the-river",
        "operator": "한국농어촌공사"
      }
    },
    {
      "type": "Feature",
      "geometry": {
        "type": "Point",
        "coordinates": [
          127.6736916,
          36.277306
        ]
      },
      "properties": {
        "osm_type": "way",
        "osm_id": 1278401650,
        "sido": "충청북도",
        "power_type": "plant",
        "name": "금강 소수력",
        "name_en": "",
        "plant_source": "hydro",
        "plant_output": "1.35 MW",
        "plant_method": "run-of-the-river",
        "operator": "클린에너지"
      }
    },
    {
      "type": "Feature",
      "geometry": {
        "type": "Point",
        "coordinates": [
          127.6720708,
          36.4771501
        ]
      },
      "properties": {
        "osm_type": "way",
        "osm_id": 1278401651,
        "sido": "충청북도",
        "power_type": "plant",
        "name": "보청 소수력",
        "name_en": "",
        "plant_source": "hydro",
        "plant_output": "0.35 MW",
        "plant_method": "run-of-the-river",
        "operator": "희도전력"
      }
    },
    {
      "type": "Feature",
      "geometry": {
        "type": "Point",
        "coordinates": [
          127.3864847,
          36.5527064
        ]
      },
      "properties": {
        "osm_type": "way",
        "osm_id": 1278401652,
        "sido": "충청북도",
        "power_type": "plant",
        "name": "비룡 소수력",
        "name_en": "",
        "plant_source": "hydro",
        "plant_output": "0.6 MW",
        "plant_method": "run-of-the-river",
        "operator": "비룡소수력발전"
      }
    },
    {
      "type": "Feature",
      "geometry": {
        "type": "Point",
        "coordinates": [
          127.3954356,
          36.6291468
        ]
      },
      "properties": {
        "osm_type": "way",
        "osm_id": 1278647869,
        "sido": "충청북도",
        "power_type": "plant",
        "name": "청주 LFG",
        "name_en": "",
        "plant_source": "biogas",
        "plant_output": "1.858 MW",
        "plant_method": "gasification",
        "operator": "GnC에너지"
      }
    },
    {
      "type": "Feature",
      "geometry": {
        "type": "Point",
        "coordinates": [
          127.4041017,
          36.6249866
        ]
      },
      "properties": {
        "osm_type": "way",
        "osm_id": 1278647870,
        "sido": "충청북도",
        "power_type": "plant",
        "name": "청주광역소각장 바이오",
        "name_en": "",
        "plant_source": "biomass",
        "plant_output": "0.99 MW",
        "plant_method": "combustion",
        "operator": "청주시"
      }
    },
    {
      "type": "Feature",
      "geometry": {
        "type": "Point",
        "coordinates": [
          127.3988954,
          36.6672267
        ]
      },
      "properties": {
        "osm_type": "way",
        "osm_id": 1278647871,
        "sido": "충청북도",
        "power_type": "plant",
        "name": "청주 유기성폐기물에너지화",
        "name_en": "",
        "plant_source": "biogas",
        "plant_output": "0.87 MW",
        "plant_method": "anaerobic_digestion",
        "operator": "GnC에너지"
      }
    },
    {
      "type": "Feature",
      "geometry": {
        "type": "Point",
        "coordinates": [
          127.5758848,
          36.9827935
        ]
      },
      "properties": {
        "osm_type": "way",
        "osm_id": 1278685123,
        "sido": "충청북도",
        "power_type": "plant",
        "name": "음성 연료전지",
        "name_en": "",
        "plant_source": "gas",
        "plant_output": "19.8 MW",
        "plant_method": "fuel_cell",
        "operator": "음성에코파크"
      }
    },
    {
      "type": "Feature",
      "geometry": {
        "type": "Point",
        "coordinates": [
          127.4463832,
          36.6490373
        ]
      },
      "properties": {
        "osm_type": "way",
        "osm_id": 1278685124,
        "sido": "충청북도",
        "power_type": "plant",
        "name": "청주 연료전지",
        "name_en": "",
        "plant_source": "gas",
        "plant_output": "19.8 MW",
        "plant_method": "fuel_cell",
        "operator": "청주에코파크"
      }
    },
    {
      "type": "Feature",
      "geometry": {
        "type": "Point",
        "coordinates": [
          127.8479724,
          36.9412005
        ]
      },
      "properties": {
        "osm_type": "way",
        "osm_id": 1281447134,
        "sido": "충청북도",
        "power_type": "plant",
        "name": "충주 클린에너지파크",
        "name_en": "",
        "plant_source": "waste",
        "plant_output": "0.76 MW",
        "plant_method": "combustion",
        "operator": "충주시설관리공단"
      }
    },
    {
      "type": "Feature",
      "geometry": {
        "type": "Point",
        "coordinates": [
          127.5576283,
          36.5703732
        ]
      },
      "properties": {
        "osm_type": "way",
        "osm_id": 1281447654,
        "sido": "충청북도",
        "power_type": "plant",
        "name": "삼성에너지 폐기물",
        "name_en": "",
        "plant_source": "waste",
        "plant_output": "0.5 MW",
        "plant_method": "combustion",
        "operator": "삼성에너지"
      }
    },
    {
      "type": "Feature",
      "geometry": {
        "type": "Point",
        "coordinates": [
          127.9512724,
          37.0060746
        ]
      },
      "properties": {
        "osm_type": "way",
        "osm_id": 1290274141,
        "sido": "충청북도",
        "power_type": "generator",
        "name": "",
        "name_en": "",
        "plant_source": "solar",
        "plant_output": "yes",
        "plant_method": "photovoltaic",
        "operator": ""
      }
    },
    {
      "type": "Feature",
      "geometry": {
        "type": "Point",
        "coordinates": [
          127.910364,
          36.9515948
        ]
      },
      "properties": {
        "osm_type": "way",
        "osm_id": 1290280588,
        "sido": "충청북도",
        "power_type": "generator",
        "name": "",
        "name_en": "",
        "plant_source": "solar",
        "plant_output": "yes",
        "plant_method": "photovoltaic",
        "operator": ""
      }
    },
    {
      "type": "Feature",
      "geometry": {
        "type": "Point",
        "coordinates": [
          128.1228409,
          36.9464487
        ]
      },
      "properties": {
        "osm_type": "way",
        "osm_id": 1290392590,
        "sido": "충청북도",
        "power_type": "generator",
        "name": "",
        "name_en": "",
        "plant_source": "solar",
        "plant_output": "yes",
        "plant_method": "photovoltaic",
        "operator": ""
      }
    },
    {
      "type": "Feature",
      "geometry": {
        "type": "Point",
        "coordinates": [
          128.1229871,
          36.9463929
        ]
      },
      "properties": {
        "osm_type": "way",
        "osm_id": 1290392591,
        "sido": "충청북도",
        "power_type": "generator",
        "name": "",
        "name_en": "",
        "plant_source": "solar",
        "plant_output": "yes",
        "plant_method": "photovoltaic",
        "operator": ""
      }
    },
    {
      "type": "Feature",
      "geometry": {
        "type": "Point",
        "coordinates": [
          128.1291313,
          36.9474342
        ]
      },
      "properties": {
        "osm_type": "way",
        "osm_id": 1290392613,
        "sido": "충청북도",
        "power_type": "generator",
        "name": "",
        "name_en": "",
        "plant_source": "solar",
        "plant_output": "yes",
        "plant_method": "photovoltaic",
        "operator": ""
      }
    },
    {
      "type": "Feature",
      "geometry": {
        "type": "Point",
        "coordinates": [
          127.9017819,
          37.052252
        ]
      },
      "properties": {
        "osm_type": "way",
        "osm_id": 1302171508,
        "sido": "충청북도",
        "power_type": "generator",
        "name": "",
        "name_en": "",
        "plant_source": "solar",
        "plant_output": "yes",
        "plant_method": "photovoltaic",
        "operator": ""
      }
    },
    {
      "type": "Feature",
      "geometry": {
        "type": "Point",
        "coordinates": [
          128.2183162,
          37.2265771
        ]
      },
      "properties": {
        "osm_type": "way",
        "osm_id": 1304959993,
        "sido": "충청북도",
        "power_type": "generator",
        "name": "",
        "name_en": "",
        "plant_source": "solar",
        "plant_output": "yes",
        "plant_method": "photovoltaic",
        "operator": ""
      }
    },
    {
      "type": "Feature",
      "geometry": {
        "type": "Point",
        "coordinates": [
          127.3674671,
          36.7137563
        ]
      },
      "properties": {
        "osm_type": "way",
        "osm_id": 1311921047,
        "sido": "충청북도",
        "power_type": "generator",
        "name": "",
        "name_en": "",
        "plant_source": "solar",
        "plant_output": "yes",
        "plant_method": "photovoltaic",
        "operator": ""
      }
    },
    {
      "type": "Feature",
      "geometry": {
        "type": "Point",
        "coordinates": [
          127.7583602,
          36.8289336
        ]
      },
      "properties": {
        "osm_type": "way",
        "osm_id": 1311922485,
        "sido": "충청북도",
        "power_type": "generator",
        "name": "",
        "name_en": "",
        "plant_source": "solar",
        "plant_output": "yes",
        "plant_method": "photovoltaic",
        "operator": ""
      }
    },
    {
      "type": "Feature",
      "geometry": {
        "type": "Point",
        "coordinates": [
          127.4365442,
          36.8559869
        ]
      },
      "properties": {
        "osm_type": "way",
        "osm_id": 1315315381,
        "sido": "충청북도",
        "power_type": "generator",
        "name": "",
        "name_en": "",
        "plant_source": "solar",
        "plant_output": "yes",
        "plant_method": "photovoltaic",
        "operator": ""
      }
    },
    {
      "type": "Feature",
      "geometry": {
        "type": "Point",
        "coordinates": [
          127.4365591,
          36.8558562
        ]
      },
      "properties": {
        "osm_type": "way",
        "osm_id": 1315315382,
        "sido": "충청북도",
        "power_type": "generator",
        "name": "",
        "name_en": "",
        "plant_source": "solar",
        "plant_output": "yes",
        "plant_method": "photovoltaic",
        "operator": ""
      }
    },
    {
      "type": "Feature",
      "geometry": {
        "type": "Point",
        "coordinates": [
          127.5224129,
          36.9622739
        ]
      },
      "properties": {
        "osm_type": "way",
        "osm_id": 1361573238,
        "sido": "충청북도",
        "power_type": "generator",
        "name": "",
        "name_en": "",
        "plant_source": "solar",
        "plant_output": "yes",
        "plant_method": "photovoltaic",
        "operator": ""
      }
    },
    {
      "type": "Feature",
      "geometry": {
        "type": "Point",
        "coordinates": [
          127.5200942,
          36.964506
        ]
      },
      "properties": {
        "osm_type": "way",
        "osm_id": 1361573239,
        "sido": "충청북도",
        "power_type": "generator",
        "name": "",
        "name_en": "",
        "plant_source": "solar",
        "plant_output": "yes",
        "plant_method": "photovoltaic",
        "operator": ""
      }
    },
    {
      "type": "Feature",
      "geometry": {
        "type": "Point",
        "coordinates": [
          128.2194892,
          37.135398
        ]
      },
      "properties": {
        "osm_type": "way",
        "osm_id": 1372093356,
        "sido": "충청북도",
        "power_type": "generator",
        "name": "",
        "name_en": "",
        "plant_source": "solar",
        "plant_output": "yes",
        "plant_method": "photovoltaic",
        "operator": ""
      }
    },
    {
      "type": "Feature",
      "geometry": {
        "type": "Point",
        "coordinates": [
          128.2204319,
          37.1361298
        ]
      },
      "properties": {
        "osm_type": "way",
        "osm_id": 1372093369,
        "sido": "충청북도",
        "power_type": "generator",
        "name": "",
        "name_en": "",
        "plant_source": "solar",
        "plant_output": "yes",
        "plant_method": "photovoltaic",
        "operator": ""
      }
    },
    {
      "type": "Feature",
      "geometry": {
        "type": "Point",
        "coordinates": [
          127.7354246,
          37.1901085
        ]
      },
      "properties": {
        "osm_type": "way",
        "osm_id": 1375756816,
        "sido": "충청북도",
        "power_type": "generator",
        "name": "",
        "name_en": "",
        "plant_source": "solar",
        "plant_output": "yes",
        "plant_method": "photovoltaic",
        "operator": ""
      }
    },
    {
      "type": "Feature",
      "geometry": {
        "type": "Point",
        "coordinates": [
          127.7635302,
          36.961722
        ]
      },
      "properties": {
        "osm_type": "way",
        "osm_id": 1389969563,
        "sido": "충청북도",
        "power_type": "generator",
        "name": "",
        "name_en": "",
        "plant_source": "solar",
        "plant_output": "yes",
        "plant_method": "photovoltaic",
        "operator": ""
      }
    },
    {
      "type": "Feature",
      "geometry": {
        "type": "Point",
        "coordinates": [
          127.7377501,
          36.9818032
        ]
      },
      "properties": {
        "osm_type": "way",
        "osm_id": 1389997807,
        "sido": "충청북도",
        "power_type": "generator",
        "name": "",
        "name_en": "",
        "plant_source": "solar",
        "plant_output": "yes",
        "plant_method": "photovoltaic",
        "operator": ""
      }
    },
    {
      "type": "Feature",
      "geometry": {
        "type": "Point",
        "coordinates": [
          127.7391287,
          36.9826441
        ]
      },
      "properties": {
        "osm_type": "way",
        "osm_id": 1389997808,
        "sido": "충청북도",
        "power_type": "generator",
        "name": "",
        "name_en": "",
        "plant_source": "solar",
        "plant_output": "yes",
        "plant_method": "photovoltaic",
        "operator": ""
      }
    },
    {
      "type": "Feature",
      "geometry": {
        "type": "Point",
        "coordinates": [
          127.7397993,
          36.9816714
        ]
      },
      "properties": {
        "osm_type": "way",
        "osm_id": 1389997809,
        "sido": "충청북도",
        "power_type": "generator",
        "name": "",
        "name_en": "",
        "plant_source": "solar",
        "plant_output": "yes",
        "plant_method": "photovoltaic",
        "operator": ""
      }
    },
    {
      "type": "Feature",
      "geometry": {
        "type": "Point",
        "coordinates": [
          127.7566905,
          36.9811089
        ]
      },
      "properties": {
        "osm_type": "way",
        "osm_id": 1389997836,
        "sido": "충청북도",
        "power_type": "generator",
        "name": "",
        "name_en": "",
        "plant_source": "solar",
        "plant_output": "yes",
        "plant_method": "photovoltaic",
        "operator": ""
      }
    },
    {
      "type": "Feature",
      "geometry": {
        "type": "Point",
        "coordinates": [
          127.754764,
          37.0013911
        ]
      },
      "properties": {
        "osm_type": "way",
        "osm_id": 1390259066,
        "sido": "충청북도",
        "power_type": "generator",
        "name": "",
        "name_en": "",
        "plant_source": "solar",
        "plant_output": "yes",
        "plant_method": "photovoltaic",
        "operator": ""
      }
    },
    {
      "type": "Feature",
      "geometry": {
        "type": "Point",
        "coordinates": [
          127.754127,
          37.0023958
        ]
      },
      "properties": {
        "osm_type": "way",
        "osm_id": 1390259067,
        "sido": "충청북도",
        "power_type": "generator",
        "name": "",
        "name_en": "",
        "plant_source": "solar",
        "plant_output": "yes",
        "plant_method": "photovoltaic",
        "operator": ""
      }
    },
    {
      "type": "Feature",
      "geometry": {
        "type": "Point",
        "coordinates": [
          127.7805796,
          37.010322
        ]
      },
      "properties": {
        "osm_type": "way",
        "osm_id": 1390259084,
        "sido": "충청북도",
        "power_type": "generator",
        "name": "",
        "name_en": "",
        "plant_source": "solar",
        "plant_output": "yes",
        "plant_method": "photovoltaic",
        "operator": ""
      }
    },
    {
      "type": "Feature",
      "geometry": {
        "type": "Point",
        "coordinates": [
          127.7814728,
          37.0107412
        ]
      },
      "properties": {
        "osm_type": "way",
        "osm_id": 1390259085,
        "sido": "충청북도",
        "power_type": "generator",
        "name": "",
        "name_en": "",
        "plant_source": "solar",
        "plant_output": "yes",
        "plant_method": "photovoltaic",
        "operator": ""
      }
    },
    {
      "type": "Feature",
      "geometry": {
        "type": "Point",
        "coordinates": [
          127.7826784,
          37.0105731
        ]
      },
      "properties": {
        "osm_type": "way",
        "osm_id": 1390259086,
        "sido": "충청북도",
        "power_type": "generator",
        "name": "",
        "name_en": "",
        "plant_source": "solar",
        "plant_output": "yes",
        "plant_method": "photovoltaic",
        "operator": ""
      }
    },
    {
      "type": "Feature",
      "geometry": {
        "type": "Point",
        "coordinates": [
          127.7678123,
          37.0057764
        ]
      },
      "properties": {
        "osm_type": "way",
        "osm_id": 1390259087,
        "sido": "충청북도",
        "power_type": "generator",
        "name": "",
        "name_en": "",
        "plant_source": "solar",
        "plant_output": "yes",
        "plant_method": "photovoltaic",
        "operator": ""
      }
    },
    {
      "type": "Feature",
      "geometry": {
        "type": "Point",
        "coordinates": [
          127.7746386,
          37.0084334
        ]
      },
      "properties": {
        "osm_type": "way",
        "osm_id": 1390259090,
        "sido": "충청북도",
        "power_type": "generator",
        "name": "",
        "name_en": "",
        "plant_source": "solar",
        "plant_output": "yes",
        "plant_method": "photovoltaic",
        "operator": ""
      }
    },
    {
      "type": "Feature",
      "geometry": {
        "type": "Point",
        "coordinates": [
          127.7830071,
          36.9677763
        ]
      },
      "properties": {
        "osm_type": "way",
        "osm_id": 1390259150,
        "sido": "충청북도",
        "power_type": "generator",
        "name": "",
        "name_en": "",
        "plant_source": "solar",
        "plant_output": "yes",
        "plant_method": "photovoltaic",
        "operator": ""
      }
    },
    {
      "type": "Feature",
      "geometry": {
        "type": "Point",
        "coordinates": [
          127.6796132,
          36.8107708
        ]
      },
      "properties": {
        "osm_type": "way",
        "osm_id": 1392258116,
        "sido": "충청북도",
        "power_type": "generator",
        "name": "",
        "name_en": "",
        "plant_source": "solar",
        "plant_output": "yes",
        "plant_method": "photovoltaic",
        "operator": ""
      }
    },
    {
      "type": "Feature",
      "geometry": {
        "type": "Point",
        "coordinates": [
          127.678264,
          36.8129944
        ]
      },
      "properties": {
        "osm_type": "way",
        "osm_id": 1392258117,
        "sido": "충청북도",
        "power_type": "generator",
        "name": "",
        "name_en": "",
        "plant_source": "solar",
        "plant_output": "yes",
        "plant_method": "photovoltaic",
        "operator": ""
      }
    },
    {
      "type": "Feature",
      "geometry": {
        "type": "Point",
        "coordinates": [
          127.3972671,
          36.7896631
        ]
      },
      "properties": {
        "osm_type": "way",
        "osm_id": 1442567964,
        "sido": "충청북도",
        "power_type": "plant",
        "name": "",
        "name_en": "",
        "plant_source": "solar",
        "plant_output": "",
        "plant_method": "photovoltaic",
        "operator": ""
      }
    },
    {
      "type": "Feature",
      "geometry": {
        "type": "Point",
        "coordinates": [
          127.4240732,
          36.8791398
        ]
      },
      "properties": {
        "osm_type": "way",
        "osm_id": 1442567965,
        "sido": "충청북도",
        "power_type": "plant",
        "name": "",
        "name_en": "",
        "plant_source": "solar",
        "plant_output": "",
        "plant_method": "photovoltaic",
        "operator": ""
      }
    },
    {
      "type": "Feature",
      "geometry": {
        "type": "Point",
        "coordinates": [
          127.476066,
          36.8322323
        ]
      },
      "properties": {
        "osm_type": "way",
        "osm_id": 1442567969,
        "sido": "충청북도",
        "power_type": "plant",
        "name": "",
        "name_en": "",
        "plant_source": "solar",
        "plant_output": "",
        "plant_method": "photovoltaic",
        "operator": ""
      }
    },
    {
      "type": "Feature",
      "geometry": {
        "type": "Point",
        "coordinates": [
          127.4623577,
          36.8362472
        ]
      },
      "properties": {
        "osm_type": "way",
        "osm_id": 1442567970,
        "sido": "충청북도",
        "power_type": "plant",
        "name": "",
        "name_en": "",
        "plant_source": "solar",
        "plant_output": "",
        "plant_method": "photovoltaic",
        "operator": ""
      }
    },
    {
      "type": "Feature",
      "geometry": {
        "type": "Point",
        "coordinates": [
          127.4402996,
          36.881161
        ]
      },
      "properties": {
        "osm_type": "way",
        "osm_id": 1442567971,
        "sido": "충청북도",
        "power_type": "plant",
        "name": "",
        "name_en": "",
        "plant_source": "solar",
        "plant_output": "",
        "plant_method": "photovoltaic",
        "operator": ""
      }
    },
    {
      "type": "Feature",
      "geometry": {
        "type": "Point",
        "coordinates": [
          127.9144889,
          37.100955
        ]
      },
      "properties": {
        "osm_type": "way",
        "osm_id": 1442741766,
        "sido": "충청북도",
        "power_type": "plant",
        "name": "",
        "name_en": "",
        "plant_source": "solar",
        "plant_output": "",
        "plant_method": "",
        "operator": ""
      }
    },
    {
      "type": "Feature",
      "geometry": {
        "type": "Point",
        "coordinates": [
          127.8937165,
          37.0753352
        ]
      },
      "properties": {
        "osm_type": "way",
        "osm_id": 1442741798,
        "sido": "충청북도",
        "power_type": "plant",
        "name": "",
        "name_en": "",
        "plant_source": "solar",
        "plant_output": "",
        "plant_method": "",
        "operator": ""
      }
    },
    {
      "type": "Feature",
      "geometry": {
        "type": "Point",
        "coordinates": [
          127.8369503,
          36.8906095
        ]
      },
      "properties": {
        "osm_type": "way",
        "osm_id": 1445929354,
        "sido": "충청북도",
        "power_type": "plant",
        "name": "",
        "name_en": "",
        "plant_source": "solar",
        "plant_output": "",
        "plant_method": "",
        "operator": ""
      }
    },
    {
      "type": "Feature",
      "geometry": {
        "type": "Point",
        "coordinates": [
          127.8375531,
          36.8906048
        ]
      },
      "properties": {
        "osm_type": "way",
        "osm_id": 1445929355,
        "sido": "충청북도",
        "power_type": "plant",
        "name": "",
        "name_en": "",
        "plant_source": "solar",
        "plant_output": "",
        "plant_method": "",
        "operator": ""
      }
    },
    {
      "type": "Feature",
      "geometry": {
        "type": "Point",
        "coordinates": [
          127.8396063,
          36.8898346
        ]
      },
      "properties": {
        "osm_type": "way",
        "osm_id": 1445929356,
        "sido": "충청북도",
        "power_type": "plant",
        "name": "",
        "name_en": "",
        "plant_source": "solar",
        "plant_output": "",
        "plant_method": "",
        "operator": ""
      }
    },
    {
      "type": "Feature",
      "geometry": {
        "type": "Point",
        "coordinates": [
          127.5602375,
          36.5466981
        ]
      },
      "properties": {
        "osm_type": "way",
        "osm_id": 1445943708,
        "sido": "충청북도",
        "power_type": "plant",
        "name": "",
        "name_en": "",
        "plant_source": "solar",
        "plant_output": "",
        "plant_method": "",
        "operator": ""
      }
    },
    {
      "type": "Feature",
      "geometry": {
        "type": "Point",
        "coordinates": [
          127.8219198,
          36.3606526
        ]
      },
      "properties": {
        "osm_type": "way",
        "osm_id": 1445969323,
        "sido": "충청북도",
        "power_type": "plant",
        "name": "",
        "name_en": "",
        "plant_source": "solar",
        "plant_output": "",
        "plant_method": "",
        "operator": ""
      }
    },
    {
      "type": "Feature",
      "geometry": {
        "type": "Point",
        "coordinates": [
          127.8215329,
          36.3609631
        ]
      },
      "properties": {
        "osm_type": "way",
        "osm_id": 1445969324,
        "sido": "충청북도",
        "power_type": "plant",
        "name": "",
        "name_en": "",
        "plant_source": "solar",
        "plant_output": "",
        "plant_method": "",
        "operator": ""
      }
    },
    {
      "type": "Feature",
      "geometry": {
        "type": "Point",
        "coordinates": [
          127.8223718,
          36.3595872
        ]
      },
      "properties": {
        "osm_type": "way",
        "osm_id": 1445969325,
        "sido": "충청북도",
        "power_type": "plant",
        "name": "",
        "name_en": "",
        "plant_source": "solar",
        "plant_output": "",
        "plant_method": "",
        "operator": ""
      }
    },
    {
      "type": "Feature",
      "geometry": {
        "type": "Point",
        "coordinates": [
          127.8210079,
          36.3602876
        ]
      },
      "properties": {
        "osm_type": "way",
        "osm_id": 1445969326,
        "sido": "충청북도",
        "power_type": "plant",
        "name": "",
        "name_en": "",
        "plant_source": "solar",
        "plant_output": "",
        "plant_method": "",
        "operator": ""
      }
    },
    {
      "type": "Feature",
      "geometry": {
        "type": "Point",
        "coordinates": [
          127.7423394,
          36.5260382
        ]
      },
      "properties": {
        "osm_type": "way",
        "osm_id": 1453794189,
        "sido": "충청북도",
        "power_type": "plant",
        "name": "",
        "name_en": "",
        "plant_source": "solar",
        "plant_output": "",
        "plant_method": "",
        "operator": ""
      }
    },
    {
      "type": "Feature",
      "geometry": {
        "type": "Point",
        "coordinates": [
          128.018034,
          36.9928598
        ]
      },
      "properties": {
        "osm_type": "way",
        "osm_id": 1467604772,
        "sido": "충청북도",
        "power_type": "generator",
        "name": "",
        "name_en": "",
        "plant_source": "solar",
        "plant_output": "yes",
        "plant_method": "photovoltaic",
        "operator": ""
      }
    }
  ]
}