{
  "type": "FeatureCollection",
  "features": [
    {
      "type": "Feature",
      "geometry": {
        "type": "LineString",
        "coordinates": [
          [
            127.3573378,
            36.7500841
          ],
          [
            127.3572949,
            36.7517174
          ],
          [
            127.355471,
            36.7577861
          ],
          [
            127.3501414,
            36.7610202
          ],
          [
            127.3458363,
            36.7574129
          ],
          [
            127.3403646,
            36.7546106
          ],
          [
            127.3354267,
            36.7521495
          ],
          [
            127.328807,
            36.7487625
          ],
          [
            127.3251219,
            36.7467118
          ],
          [
            127.3199559,
            36.7426282
          ],
          [
            127.3161646,
            36.7380903
          ],
          [
            127.3141784,
            36.7319885
          ],
          [
            127.3128051,
            36.7280502
          ],
          [
            127.3102356,
            36.7228004
          ],
          [
            127.3079664,
            36.7183801
          ],
          [
            127.3089481,
            36.7138219
          ],
          [
            127.309506,
            36.709543
          ],
          [
            127.3084334,
            36.7052941
          ],
          [
            127.305983,
            36.702576
          ],
          [
            127.3039445,
            36.6961588
          ],
          [
            127.2996573,
            36.6942318
          ],
          [
            127.2939066,
            36.691909
          ],
          [
            127.2897971,
            36.6901623
          ],
          [
            127.2884134,
            36.6896206
          ],
          [
            127.2827479,
            36.6871769
          ],
          [
            127.2789714,
            36.6848539
          ],
          [
            127.2749695,
            36.6822985
          ],
          [
            127.2696276,
            36.6811834
          ],
          [
            127.2645411,
            36.6798979
          ],
          [
            127.2587582,
            36.6784868
          ],
          [
            127.2544999,
            36.6781805
          ],
          [
            127.2495218,
            36.6778277
          ],
          [
            127.242386,
            36.6772563
          ],
          [
            127.2377726,
            36.6730227
          ],
          [
            127.2342965,
            36.6697011
          ],
          [
            127.2293934,
            36.6651314
          ],
          [
            127.2282776,
            36.6609918
          ],
          [
            127.226561,
            36.6548723
          ],
          [
            127.2242006,
            36.6516446
          ],
          [
            127.2205325,
            36.6465952
          ],
          [
            127.2141166,
            36.6437029
          ],
          [
            127.2092135,
            36.641456
          ],
          [
            127.2040315,
            36.6390025
          ],
          [
            127.1997496,
            36.6370194
          ],
          [
            127.1945783,
            36.6333518
          ],
          [
            127.1903308,
            36.6303415
          ],
          [
            127.1830877,
            36.6251982
          ],
          [
            127.1766612,
            36.6206345
          ],
          [
            127.1708676,
            36.6214181
          ],
          [
            127.1671769,
            36.622305
          ],
          [
            127.1641739,
            36.6240732
          ],
          [
            127.1601532,
            36.6259998
          ],
          [
            127.1568354,
            36.627724
          ],
          [
            127.1509774,
            36.6306084
          ],
          [
            127.1445068,
            36.6338684
          ],
          [
            127.1394976,
            36.6371602
          ],
          [
            127.1358283,
            36.6433671
          ],
          [
            127.1334465,
            36.6474991
          ],
          [
            127.1279528,
            36.6525312
          ],
          [
            127.122347,
            36.6543602
          ],
          [
            127.1180718,
            36.6557609
          ],
          [
            127.1146166,
            36.6568609
          ],
          [
            127.1053796,
            36.656026
          ],
          [
            127.1013241,
            36.6542357
          ],
          [
            127.0972257,
            36.6525418
          ],
          [
            127.09405,
            36.6487699
          ],
          [
            127.0924514,
            36.6458088
          ],
          [
            127.0896833,
            36.640549
          ],
          [
            127.0825594,
            36.6370641
          ],
          [
            127.0748775,
            36.6360723
          ],
          [
            127.069953,
            36.6375961
          ],
          [
            127.0620137,
            36.6401358
          ],
          [
            127.0565527,
            36.639602
          ],
          [
            127.0493858,
            36.6390338
          ],
          [
            127.0450728,
            36.6386034
          ],
          [
            127.0403843,
            36.6399119
          ],
          [
            127.0316831,
            36.6424257
          ],
          [
            127.0254389,
            36.6440355
          ],
          [
            127.0163194,
            36.6474099
          ],
          [
            127.0095023,
            36.6483826
          ],
          [
            127.0032517,
            36.648615
          ],
          [
            126.9967366,
            36.6485698
          ],
          [
            126.9925872,
            36.6485408
          ],
          [
            126.9885424,
            36.6485504
          ],
          [
            126.9824154,
            36.6484654
          ],
          [
            126.9778999,
            36.651532
          ],
          [
            126.9772767,
            36.6556901
          ],
          [
            126.9764484,
            36.6601005
          ],
          [
            126.9738703,
            36.6644602
          ],
          [
            126.9702922,
            36.6693526
          ],
          [
            126.9675671,
            36.6736252
          ],
          [
            126.9658183,
            36.6784094
          ],
          [
            126.9644343,
            36.6823201
          ],
          [
            126.9609259,
            36.6868543
          ],
          [
            126.9583135,
            36.6902699
          ],
          [
            126.9557707,
            36.6955607
          ],
          [
            126.9525413,
            36.6977414
          ],
          [
            126.942939,
            36.6993027
          ],
          [
            126.9387816,
            36.6997672
          ],
          [
            126.9301717,
            36.700692
          ],
          [
            126.9247107,
            36.7013199
          ],
          [
            126.9190438,
            36.6993924
          ],
          [
            126.9144379,
            36.6978274
          ],
          [
            126.9106452,
            36.6997414
          ],
          [
            126.9069545,
            36.701578
          ],
          [
            126.9041597,
            36.7063779
          ],
          [
            126.9020064,
            36.7099853
          ],
          [
            126.8980689,
            36.7166507
          ],
          [
            126.8959414,
            36.7205947
          ],
          [
            126.8925081,
            36.7244043
          ],
          [
            126.8883781,
            36.7288931
          ],
          [
            126.8818335,
            36.7303033
          ],
          [
            126.8759755,
            36.7343274
          ],
          [
            126.8684761,
            36.7394174
          ],
          [
            126.8653376,
            36.7405994
          ],
          [
            126.8611188,
            36.7421162
          ],
          [
            126.8542226,
            36.7438234
          ],
          [
            126.8507411,
            36.744653
          ],
          [
            126.8428446,
            36.7459727
          ],
          [
            126.8387677,
            36.7483368
          ],
          [
            126.8355598,
            36.7516035
          ],
          [
            126.8317564,
            36.7555405
          ],
          [
            126.8282481,
            36.7591249
          ],
          [
            126.8271108,
            36.7633409
          ],
          [
            126.8259253,
            36.7677758
          ],
          [
            126.8220414,
            36.7701564
          ],
          [
            126.8174709,
            36.773174
          ],
          [
            126.8118329,
            36.775113
          ],
          [
            126.8076862,
            36.7703713
          ],
          [
            126.803325,
            36.7690692
          ],
          [
            126.7984662,
            36.7660343
          ],
          [
            126.7950584,
            36.7629971
          ],
          [
            126.7906381,
            36.7597825
          ],
          [
            126.7866045,
            36.7569116
          ],
          [
            126.782152,
            36.7535334
          ],
          [
            126.7779785,
            36.7505247
          ],
          [
            126.7705863,
            36.7503442
          ],
          [
            126.7646962,
            36.7477566
          ],
          [
            126.7608123,
            36.7419794
          ],
          [
            126.7579692,
            36.7381276
          ],
          [
            126.7517454,
            36.7352598
          ],
          [
            126.7456192,
            36.7323793
          ],
          [
            126.7405563,
            36.7301484
          ],
          [
            126.7380994,
            36.7262531
          ],
          [
            126.7350631,
            36.721618
          ],
          [
            126.7312973,
            36.7188746
          ],
          [
            126.72589,
            36.7183156
          ],
          [
            126.7199569,
            36.7176362
          ],
          [
            126.7149573,
            36.7169482
          ],
          [
            126.7113835,
            36.7195493
          ],
          [
            126.7078001,
            36.721983
          ],
          [
            126.7021363,
            36.7237335
          ],
          [
            126.6966646,
            36.7254533
          ],
          [
            126.6924589,
            36.7241548
          ],
          [
            126.6886073,
            36.7227961
          ],
          [
            126.6851848,
            36.7246966
          ],
          [
            126.683113,
            36.7280713
          ],
          [
            126.6806239,
            36.73213
          ],
          [
            126.6774922,
            36.7369067
          ],
          [
            126.6755825,
            36.7391078
          ],
          [
            126.6716986,
            36.7394173
          ],
          [
            126.6675144,
            36.7398042
          ],
          [
            126.6640812,
            36.744292
          ],
          [
            126.6635115,
            36.7485772
          ],
          [
            126.6628248,
            36.7536147
          ],
          [
            126.6598325,
            36.756542
          ],
          [
            126.6562491,
            36.7602295
          ],
          [
            126.6548219,
            36.7633968
          ],
          [
            126.6533191,
            36.767436
          ],
          [
            126.6497678,
            36.7697994
          ],
          [
            126.6456694,
            36.7723777
          ],
          [
            126.6406902,
            36.7742805
          ],
          [
            126.6370931,
            36.7724254
          ]
        ]
      },
      "properties": {
        "osm_type": "way",
        "osm_id": 119005956,
        "sido": "세종특별자치시",
        "power_type": "line",
        "name": "",
        "description": "신중부변전소 분기-신서산변전소",
        "voltage": "765000",
        "cables": "6",
        "circuits": "2",
        "frequency": "60",
        "operator": "",
        "wires": ""
      }
    },
    {
      "type": "Feature",
      "geometry": {
        "type": "LineString",
        "coordinates": [
          [
            127.2169311,
            36.7030006
          ],
          [
            127.2135256,
            36.7043306
          ],
          [
            127.2132949,
            36.7063734
          ],
          [
            127.2121227,
            36.7094333
          ],
          [
            127.211412,
            36.7118168
          ],
          [
            127.21072,
            36.7140283
          ],
          [
            127.2097919,
            36.7166213
          ],
          [
            127.2086198,
            36.7202204
          ],
          [
            127.2061227,
            36.7247438
          ],
          [
            127.2045777,
            36.7277449
          ],
          [
            127.2028343,
            36.7311931
          ],
          [
            127.2015146,
            36.7337425
          ],
          [
            127.2000984,
            36.7365025
          ],
          [
            127.1991351,
            36.738189
          ],
          [
            127.198135,
            36.7402045
          ],
          [
            127.1968253,
            36.7427273
          ],
          [
            127.1952428,
            36.7459447
          ],
          [
            127.1936987,
            36.7490117
          ],
          [
            127.1926813,
            36.7508448
          ],
          [
            127.1916272,
            36.7530928
          ],
          [
            127.1897533,
            36.7565892
          ],
          [
            127.1885829,
            36.7590862
          ],
          [
            127.1873232,
            36.7612694
          ],
          [
            127.1865561,
            36.7627328
          ],
          [
            127.1852364,
            36.7654338
          ],
          [
            127.183045,
            36.7697439
          ],
          [
            127.1818971,
            36.7719999
          ],
          [
            127.1800115,
            36.7748509
          ],
          [
            127.1791432,
            36.7763315
          ],
          [
            127.1775063,
            36.7788276
          ],
          [
            127.1761813,
            36.7809888
          ],
          [
            127.1752264,
            36.7831778
          ],
          [
            127.1732067,
            36.7855258
          ],
          [
            127.1724705,
            36.7869096
          ]
        ]
      },
      "properties": {
        "osm_type": "way",
        "osm_id": 125840987,
        "sido": "세종특별자치시",
        "power_type": "line",
        "name": "",
        "description": "",
        "voltage": "154000",
        "cables": "6",
        "circuits": "2",
        "frequency": "",
        "operator": "",
        "wires": ""
      }
    },
    {
      "type": "Feature",
      "geometry": {
        "type": "LineString",
        "coordinates": [
          [
            127.3301772,
            36.7693381
          ],
          [
            127.3299888,
            36.7668048
          ],
          [
            127.3298479,
            36.7654982
          ],
          [
            127.329754,
            36.7632614
          ],
          [
            127.3311636,
            36.7611837
          ],
          [
            127.3323974,
            36.759267
          ],
          [
            127.3336084,
            36.7574574
          ],
          [
            127.3322525,
            36.75429
          ],
          [
            127.3314532,
            36.7523559
          ],
          [
            127.3289253,
            36.7500776
          ],
          [
            127.3273266,
            36.7490931
          ],
          [
            127.32458,
            36.7475973
          ],
          [
            127.3205728,
            36.7458092
          ],
          [
            127.319972,
            36.7439909
          ],
          [
            127.3179443,
            36.7413818
          ],
          [
            127.3159433,
            36.7387982
          ],
          [
            127.3144413,
            36.7357115
          ],
          [
            127.3128899,
            36.7327146
          ],
          [
            127.3114415,
            36.7298341
          ],
          [
            127.3100317,
            36.7270355
          ],
          [
            127.3090179,
            36.7234195
          ],
          [
            127.3080737,
            36.7207021
          ],
          [
            127.3073563,
            36.7186941
          ],
          [
            127.3068507,
            36.7167417
          ],
          [
            127.3063572,
            36.7143035
          ],
          [
            127.3060836,
            36.7128371
          ],
          [
            127.3059495,
            36.7089366
          ],
          [
            127.3051072,
            36.7061455
          ],
          [
            127.3029132,
            36.7041413
          ],
          [
            127.3014661,
            36.7028427
          ],
          [
            127.2979752,
            36.6996855
          ],
          [
            127.2957224,
            36.697918
          ],
          [
            127.2921417,
            36.6976147
          ],
          [
            127.2905727,
            36.6964448
          ],
          [
            127.2876919,
            36.6940941
          ],
          [
            127.2867827,
            36.6923391
          ],
          [
            127.2813646,
            36.6912466
          ],
          [
            127.2788111,
            36.6921069
          ],
          [
            127.2755308,
            36.6932145
          ],
          [
            127.2727816,
            36.6951265
          ],
          [
            127.269984,
            36.6947092
          ],
          [
            127.2681574,
            36.6944103
          ],
          [
            127.2614905,
            36.6934467
          ],
          [
            127.2586635,
            36.6947221
          ],
          [
            127.2549902,
            36.6947563
          ],
          [
            127.2527156,
            36.6979438
          ],
          [
            127.2500093,
            36.7003309
          ],
          [
            127.2486037,
            36.7015782
          ],
          [
            127.2453475,
            36.7044469
          ],
          [
            127.2420002,
            36.706098
          ],
          [
            127.2381335,
            36.707339
          ],
          [
            127.2367504,
            36.7077557
          ],
          [
            127.2340809,
            36.7084761
          ],
          [
            127.232114,
            36.7088376
          ],
          [
            127.2274469,
            36.7088858
          ],
          [
            127.2247664,
            36.7078329
          ],
          [
            127.2227418,
            36.7046789
          ],
          [
            127.2194017,
            36.7058733
          ],
          [
            127.2181181,
            36.7045551
          ],
          [
            127.2169311,
            36.7030006
          ]
        ]
      },
      "properties": {
        "osm_type": "way",
        "osm_id": 176601576,
        "sido": "세종특별자치시",
        "power_type": "line",
        "name": "",
        "description": "",
        "voltage": "154000",
        "cables": "6",
        "circuits": "2",
        "frequency": "",
        "operator": "",
        "wires": ""
      }
    },
    {
      "type": "Feature",
      "geometry": {
        "type": "LineString",
        "coordinates": [
          [
            127.1609304,
            36.4813532
          ],
          [
            127.1617396,
            36.4813603
          ],
          [
            127.1627433,
            36.4801209
          ],
          [
            127.1637784,
            36.478364
          ],
          [
            127.1697728,
            36.4780209
          ],
          [
            127.1748461,
            36.4777935
          ],
          [
            127.1783283,
            36.4775559
          ],
          [
            127.1821902,
            36.4781329
          ],
          [
            127.1856006,
            36.4785809
          ],
          [
            127.1926072,
            36.4794413
          ],
          [
            127.1968374,
            36.4796885
          ],
          [
            127.2004726,
            36.4799093
          ],
          [
            127.2049971,
            36.4801349
          ],
          [
            127.2085218,
            36.4795469
          ],
          [
            127.2097485,
            36.4793021
          ],
          [
            127.214461,
            36.478407
          ],
          [
            127.2154549,
            36.4774375
          ],
          [
            127.2170098,
            36.4758992
          ],
          [
            127.2182036,
            36.4747401
          ],
          [
            127.221412,
            36.4733409
          ],
          [
            127.2249069,
            36.4718697
          ],
          [
            127.2288136,
            36.4702041
          ],
          [
            127.2311206,
            36.4692489
          ],
          [
            127.2338724,
            36.4680824
          ],
          [
            127.2361466,
            36.4658791
          ],
          [
            127.2397071,
            36.4624563
          ],
          [
            127.2451103,
            36.4572222
          ],
          [
            127.247149,
            36.4552226
          ],
          [
            127.2490172,
            36.4533809
          ],
          [
            127.249262,
            36.4513778
          ],
          [
            127.2494393,
            36.4497958
          ],
          [
            127.249912,
            36.445983
          ],
          [
            127.2509577,
            36.4443884
          ],
          [
            127.2522685,
            36.4425595
          ],
          [
            127.2545753,
            36.4392879
          ],
          [
            127.257238,
            36.4383015
          ],
          [
            127.2598317,
            36.4373621
          ],
          [
            127.2627284,
            36.4362597
          ],
          [
            127.2648878,
            36.4353815
          ],
          [
            127.2671623,
            36.434579
          ],
          [
            127.2695287,
            36.4339053
          ],
          [
            127.2752684,
            36.4322029
          ],
          [
            127.2775996,
            36.4314743
          ],
          [
            127.2813149,
            36.4303928
          ],
          [
            127.2832887,
            36.4298191
          ],
          [
            127.2853504,
            36.4292549
          ],
          [
            127.2880858,
            36.427619
          ],
          [
            127.2906163,
            36.4261662
          ],
          [
            127.2923877,
            36.4252173
          ],
          [
            127.2939733,
            36.4243161
          ],
          [
            127.2954922,
            36.4241845
          ]
        ]
      },
      "properties": {
        "osm_type": "way",
        "osm_id": 310378763,
        "sido": "세종특별자치시",
        "power_type": "line",
        "name": "",
        "description": "",
        "voltage": "154000",
        "cables": "6",
        "circuits": "2",
        "frequency": "60",
        "operator": "",
        "wires": ""
      }
    },
    {
      "type": "Feature",
      "geometry": {
        "type": "LineString",
        "coordinates": [
          [
            127.3886813,
            36.5193818
          ],
          [
            127.3934134,
            36.5208338
          ],
          [
            127.3971729,
            36.5219488
          ],
          [
            127.4018079,
            36.5241741
          ],
          [
            127.4043679,
            36.5238881
          ],
          [
            127.4067051,
            36.5229528
          ],
          [
            127.4092301,
            36.5219571
          ],
          [
            127.4140641,
            36.5213612
          ],
          [
            127.4175746,
            36.521497
          ],
          [
            127.4217233,
            36.5214894
          ],
          [
            127.423319,
            36.523609
          ],
          [
            127.4258548,
            36.5268896
          ],
          [
            127.4273461,
            36.5272948
          ],
          [
            127.4324477,
            36.5281656
          ],
          [
            127.4349347,
            36.5297406
          ],
          [
            127.4381232,
            36.5296226
          ],
          [
            127.4426508,
            36.5267603
          ],
          [
            127.4456334,
            36.5217338
          ],
          [
            127.4453866,
            36.5169226
          ],
          [
            127.4465883,
            36.5128526
          ],
          [
            127.4494421,
            36.5095758
          ],
          [
            127.4544418,
            36.5079934
          ],
          [
            127.4574405,
            36.507006
          ],
          [
            127.4605465,
            36.5084677
          ],
          [
            127.4632711,
            36.5088149
          ],
          [
            127.4631,
            36.5056089
          ],
          [
            127.4625971,
            36.5019883
          ],
          [
            127.4623155,
            36.5001883
          ],
          [
            127.4620779,
            36.4982806
          ],
          [
            127.4614885,
            36.4946087
          ],
          [
            127.461473,
            36.4917037
          ],
          [
            127.4614215,
            36.4885218
          ],
          [
            127.46109,
            36.4846895
          ],
          [
            127.4604187,
            36.4797453
          ],
          [
            127.4605051,
            36.4776303
          ],
          [
            127.4602678,
            36.4741038
          ],
          [
            127.460279,
            36.4722006
          ],
          [
            127.4598868,
            36.4691764
          ],
          [
            127.4597534,
            36.466231
          ],
          [
            127.4595083,
            36.4632394
          ],
          [
            127.4581727,
            36.4617975
          ],
          [
            127.457047,
            36.4605475
          ]
        ]
      },
      "properties": {
        "osm_type": "way",
        "osm_id": 310689431,
        "sido": "세종특별자치시",
        "power_type": "line",
        "name": "",
        "description": "",
        "voltage": "154000",
        "cables": "6",
        "circuits": "2",
        "frequency": "60",
        "operator": "",
        "wires": ""
      }
    },
    {
      "type": "Feature",
      "geometry": {
        "type": "LineString",
        "coordinates": [
          [
            127.3801257,
            36.4220479
          ],
          [
            127.3796208,
            36.4225327
          ],
          [
            127.3784508,
            36.4236563
          ],
          [
            127.377876,
            36.4264846
          ],
          [
            127.3781137,
            36.4284324
          ],
          [
            127.3755581,
            36.4318133
          ],
          [
            127.3737063,
            36.433462
          ],
          [
            127.3726709,
            36.4357251
          ],
          [
            127.3720925,
            36.4390269
          ],
          [
            127.3746445,
            36.4388146
          ],
          [
            127.3747626,
            36.4388614
          ],
          [
            127.3750319,
            36.4390663
          ],
          [
            127.376235,
            36.4402571
          ],
          [
            127.3769118,
            36.4409201
          ],
          [
            127.3773829,
            36.4432603
          ],
          [
            127.3760537,
            36.4464988
          ],
          [
            127.3746923,
            36.4498456
          ],
          [
            127.3739285,
            36.4526123
          ],
          [
            127.3736925,
            36.4532559
          ],
          [
            127.3725355,
            36.456419
          ],
          [
            127.3711828,
            36.4600725
          ],
          [
            127.3698379,
            36.4636809
          ],
          [
            127.3686084,
            36.4669149
          ],
          [
            127.3674078,
            36.4695216
          ],
          [
            127.3663743,
            36.4717826
          ],
          [
            127.3648611,
            36.4735581
          ],
          [
            127.3628299,
            36.4803603
          ],
          [
            127.3610818,
            36.4858093
          ],
          [
            127.3608307,
            36.4872645
          ],
          [
            127.3606024,
            36.4888561
          ],
          [
            127.3607524,
            36.493608
          ],
          [
            127.3604826,
            36.4939621
          ],
          [
            127.3607664,
            36.4966207
          ],
          [
            127.3658703,
            36.4963575
          ],
          [
            127.3681849,
            36.4956073
          ],
          [
            127.3694176,
            36.4974653
          ],
          [
            127.3707902,
            36.49943
          ],
          [
            127.3695853,
            36.4999934
          ]
        ]
      },
      "properties": {
        "osm_type": "way",
        "osm_id": 312319426,
        "sido": "세종특별자치시",
        "power_type": "line",
        "name": "",
        "description": "",
        "voltage": "154000",
        "cables": "3",
        "circuits": "",
        "frequency": "60",
        "operator": "",
        "wires": ""
      }
    },
    {
      "type": "Feature",
      "geometry": {
        "type": "LineString",
        "coordinates": [
          [
            127.3504168,
            36.4455001
          ],
          [
            127.3493662,
            36.4454107
          ],
          [
            127.3457721,
            36.4451618
          ],
          [
            127.3433881,
            36.4449836
          ],
          [
            127.3402329,
            36.4443254
          ],
          [
            127.3355066,
            36.443336
          ],
          [
            127.3320703,
            36.4425711
          ],
          [
            127.3292261,
            36.4419729
          ],
          [
            127.325434,
            36.4412
          ],
          [
            127.3234254,
            36.4407584
          ],
          [
            127.3209582,
            36.4402403
          ],
          [
            127.3180707,
            36.4395949
          ],
          [
            127.3157096,
            36.4384016
          ],
          [
            127.3128263,
            36.4369876
          ],
          [
            127.3088813,
            36.4349493
          ],
          [
            127.305654,
            36.4333144
          ],
          [
            127.3036115,
            36.4322528
          ],
          [
            127.3019129,
            36.4305754
          ],
          [
            127.3001633,
            36.4288386
          ],
          [
            127.2977641,
            36.4263799
          ],
          [
            127.2954922,
            36.4241845
          ]
        ]
      },
      "properties": {
        "osm_type": "way",
        "osm_id": 312319431,
        "sido": "세종특별자치시",
        "power_type": "line",
        "name": "",
        "description": "",
        "voltage": "154000",
        "cables": "12",
        "circuits": "4",
        "frequency": "",
        "operator": "KoreaNet",
        "wires": "quad"
      }
    },
    {
      "type": "Feature",
      "geometry": {
        "type": "LineString",
        "coordinates": [
          [
            127.2966701,
            36.5184697
          ],
          [
            127.2968599,
            36.5188745
          ]
        ]
      },
      "properties": {
        "osm_type": "way",
        "osm_id": 313280961,
        "sido": "세종특별자치시",
        "power_type": "line",
        "name": "",
        "description": "",
        "voltage": "154000",
        "cables": "3",
        "circuits": "1",
        "frequency": "60",
        "operator": "",
        "wires": ""
      }
    },
    {
      "type": "Feature",
      "geometry": {
        "type": "LineString",
        "coordinates": [
          [
            127.2969904,
            36.5181529
          ],
          [
            127.2969491,
            36.5188265
          ]
        ]
      },
      "properties": {
        "osm_type": "way",
        "osm_id": 313280962,
        "sido": "세종특별자치시",
        "power_type": "line",
        "name": "",
        "description": "",
        "voltage": "154000",
        "cables": "3",
        "circuits": "1",
        "frequency": "60",
        "operator": "",
        "wires": ""
      }
    },
    {
      "type": "Feature",
      "geometry": {
        "type": "LineString",
        "coordinates": [
          [
            127.2966701,
            36.5184697
          ],
          [
            127.2967693,
            36.5189232
          ]
        ]
      },
      "properties": {
        "osm_type": "way",
        "osm_id": 313280963,
        "sido": "세종특별자치시",
        "power_type": "line",
        "name": "",
        "description": "",
        "voltage": "154000",
        "cables": "3",
        "circuits": "1",
        "frequency": "60",
        "operator": "",
        "wires": ""
      }
    },
    {
      "type": "Feature",
      "geometry": {
        "type": "LineString",
        "coordinates": [
          [
            127.2969904,
            36.5181529
          ],
          [
            127.2970509,
            36.5187717
          ]
        ]
      },
      "properties": {
        "osm_type": "way",
        "osm_id": 313280964,
        "sido": "세종특별자치시",
        "power_type": "line",
        "name": "",
        "description": "",
        "voltage": "154000",
        "cables": "3",
        "circuits": "1",
        "frequency": "60",
        "operator": "",
        "wires": ""
      }
    },
    {
      "type": "Feature",
      "geometry": {
        "type": "LineString",
        "coordinates": [
          [
            127.2738266,
            36.5338975
          ],
          [
            127.2728135,
            36.5338149
          ],
          [
            127.2742907,
            36.5318778
          ],
          [
            127.276237,
            36.5292653
          ],
          [
            127.277652,
            36.5274495
          ],
          [
            127.279069,
            36.5255956
          ],
          [
            127.2809053,
            36.5231342
          ],
          [
            127.2831198,
            36.5202549
          ],
          [
            127.2838349,
            36.5192973
          ],
          [
            127.2859666,
            36.515639
          ],
          [
            127.2878656,
            36.5125606
          ],
          [
            127.2892603,
            36.5100623
          ],
          [
            127.2912108,
            36.5104327
          ],
          [
            127.292592,
            36.5133666
          ],
          [
            127.2927086,
            36.5151932
          ],
          [
            127.2952945,
            36.5169191
          ],
          [
            127.2966701,
            36.5184697
          ]
        ]
      },
      "properties": {
        "osm_type": "way",
        "osm_id": 313280965,
        "sido": "세종특별자치시",
        "power_type": "line",
        "name": "",
        "description": "",
        "voltage": "154000",
        "cables": "6",
        "circuits": "2",
        "frequency": "60",
        "operator": "",
        "wires": ""
      }
    },
    {
      "type": "Feature",
      "geometry": {
        "type": "LineString",
        "coordinates": [
          [
            127.3886813,
            36.5193818
          ],
          [
            127.3914966,
            36.5186721
          ],
          [
            127.3937827,
            36.5155999
          ],
          [
            127.3941278,
            36.5137248
          ],
          [
            127.3946038,
            36.5103334
          ],
          [
            127.3944627,
            36.5088739
          ],
          [
            127.3913161,
            36.5067162
          ],
          [
            127.3880646,
            36.5052122
          ],
          [
            127.3808198,
            36.5051236
          ],
          [
            127.3772649,
            36.5051525
          ],
          [
            127.3716521,
            36.5051839
          ],
          [
            127.3686992,
            36.5051946
          ],
          [
            127.3641177,
            36.5053603
          ],
          [
            127.3611535,
            36.5060394
          ],
          [
            127.3557157,
            36.5071423
          ],
          [
            127.3543274,
            36.5100006
          ],
          [
            127.3530913,
            36.5122433
          ],
          [
            127.3502362,
            36.5195558
          ],
          [
            127.3487341,
            36.521582
          ],
          [
            127.3471315,
            36.5230101
          ],
          [
            127.3453612,
            36.5246375
          ],
          [
            127.3425582,
            36.5256101
          ],
          [
            127.3385985,
            36.5269627
          ],
          [
            127.3366693,
            36.5287522
          ],
          [
            127.337123,
            36.5304867
          ],
          [
            127.3374665,
            36.5324282
          ],
          [
            127.3342663,
            36.5325111
          ],
          [
            127.3313433,
            36.5326025
          ],
          [
            127.3267452,
            36.5325993
          ],
          [
            127.3233146,
            36.5310765
          ],
          [
            127.3193,
            36.5274197
          ],
          [
            127.322205,
            36.5243519
          ]
        ]
      },
      "properties": {
        "osm_type": "way",
        "osm_id": 313280966,
        "sido": "세종특별자치시",
        "power_type": "line",
        "name": "",
        "description": "",
        "voltage": "154000",
        "cables": "6",
        "circuits": "2",
        "frequency": "60",
        "operator": "",
        "wires": ""
      }
    },
    {
      "type": "Feature",
      "geometry": {
        "type": "LineString",
        "coordinates": [
          [
            127.3886813,
            36.5193818
          ],
          [
            127.3850511,
            36.5200419
          ],
          [
            127.3807497,
            36.5208687
          ],
          [
            127.3776248,
            36.5214194
          ],
          [
            127.3739183,
            36.5203916
          ],
          [
            127.3716575,
            36.5193779
          ],
          [
            127.3714247,
            36.5196516
          ]
        ]
      },
      "properties": {
        "osm_type": "way",
        "osm_id": 313280967,
        "sido": "세종특별자치시",
        "power_type": "line",
        "name": "",
        "description": "",
        "voltage": "154000",
        "cables": "12",
        "circuits": "4",
        "frequency": "60",
        "operator": "",
        "wires": ""
      }
    },
    {
      "type": "Feature",
      "geometry": {
        "type": "LineString",
        "coordinates": [
          [
            127.2169311,
            36.7030006
          ],
          [
            127.2170421,
            36.7023763
          ]
        ]
      },
      "properties": {
        "osm_type": "way",
        "osm_id": 675208593,
        "sido": "세종특별자치시",
        "power_type": "line",
        "name": "",
        "description": "",
        "voltage": "154000",
        "cables": "6",
        "circuits": "2",
        "frequency": "",
        "operator": "",
        "wires": ""
      }
    },
    {
      "type": "Feature",
      "geometry": {
        "type": "LineString",
        "coordinates": [
          [
            127.2164986,
            36.7019657
          ],
          [
            127.2154417,
            36.7006247
          ],
          [
            127.2158271,
            36.6991952
          ],
          [
            127.2179836,
            36.6980403
          ],
          [
            127.2160739,
            36.695666
          ],
          [
            127.2174337,
            36.6933175
          ],
          [
            127.2182411,
            36.6909216
          ],
          [
            127.2191638,
            36.6862327
          ],
          [
            127.2203547,
            36.6805261
          ],
          [
            127.221052,
            36.6773274
          ],
          [
            127.2214276,
            36.6749697
          ],
          [
            127.2221035,
            36.6719063
          ],
          [
            127.2229376,
            36.6678294
          ],
          [
            127.2237825,
            36.6635953
          ],
          [
            127.2247508,
            36.6599849
          ],
          [
            127.2271192,
            36.6547369
          ],
          [
            127.2286883,
            36.6513176
          ],
          [
            127.2297424,
            36.648972
          ],
          [
            127.2310178,
            36.6460883
          ],
          [
            127.2331893,
            36.6413551
          ],
          [
            127.2344117,
            36.6386902
          ],
          [
            127.2351511,
            36.637286
          ],
          [
            127.2348171,
            36.6341436
          ],
          [
            127.2346562,
            36.6321376
          ],
          [
            127.2343665,
            36.6287797
          ],
          [
            127.2342056,
            36.6265862
          ],
          [
            127.2338408,
            36.622268
          ],
          [
            127.2335055,
            36.6180314
          ],
          [
            127.233865,
            36.6143931
          ],
          [
            127.234152,
            36.6116954
          ],
          [
            127.2345596,
            36.608074
          ],
          [
            127.2350612,
            36.6043426
          ],
          [
            127.235257,
            36.6002104
          ],
          [
            127.235359,
            36.5990197
          ],
          [
            127.2353509,
            36.5970493
          ],
          [
            127.237376,
            36.5969782
          ],
          [
            127.2399026,
            36.598014
          ],
          [
            127.2422576,
            36.5994719
          ],
          [
            127.2459215,
            36.599713
          ],
          [
            127.2478339,
            36.5995429
          ],
          [
            127.2513181,
            36.6006024
          ],
          [
            127.2537133,
            36.6006863
          ],
          [
            127.2575033,
            36.6008414
          ],
          [
            127.2603813,
            36.602101
          ],
          [
            127.2627443,
            36.6016101
          ],
          [
            127.2649115,
            36.5999607
          ],
          [
            127.2668374,
            36.5975877
          ],
          [
            127.2669607,
            36.5955075
          ]
        ]
      },
      "properties": {
        "osm_type": "way",
        "osm_id": 675208594,
        "sido": "세종특별자치시",
        "power_type": "line",
        "name": "",
        "description": "",
        "voltage": "154000",
        "cables": "6",
        "circuits": "2",
        "frequency": "60",
        "operator": "",
        "wires": ""
      }
    },
    {
      "type": "Feature",
      "geometry": {
        "type": "LineString",
        "coordinates": [
          [
            127.3351291,
            36.4951217
          ],
          [
            127.336328,
            36.4945718
          ],
          [
            127.3373151,
            36.4908716
          ],
          [
            127.3410273,
            36.4898753
          ],
          [
            127.3462388,
            36.4902937
          ],
          [
            127.3525125,
            36.4884435
          ],
          [
            127.3553985,
            36.4867463
          ],
          [
            127.3598456,
            36.4840874
          ],
          [
            127.3632856,
            36.483008
          ],
          [
            127.3676026,
            36.4839784
          ],
          [
            127.3716232,
            36.4841693
          ],
          [
            127.3770399,
            36.4829508
          ],
          [
            127.3785782,
            36.4805408
          ],
          [
            127.3807695,
            36.4771192
          ],
          [
            127.3859288,
            36.4758521
          ],
          [
            127.3902391,
            36.4719342
          ],
          [
            127.3942503,
            36.4714856
          ],
          [
            127.396899,
            36.4703791
          ],
          [
            127.4033819,
            36.4675599
          ],
          [
            127.408222,
            36.466298
          ],
          [
            127.4147035,
            36.4661028
          ],
          [
            127.4203294,
            36.4659324
          ],
          [
            127.4246733,
            36.465803
          ],
          [
            127.4272375,
            36.4652271
          ],
          [
            127.4322344,
            36.4640719
          ],
          [
            127.4348107,
            36.4634949
          ],
          [
            127.4395461,
            36.4644074
          ],
          [
            127.4425194,
            36.4669516
          ],
          [
            127.4449065,
            36.4679697
          ],
          [
            127.4502495,
            36.4702971
          ],
          [
            127.4548122,
            36.4719936
          ]
        ]
      },
      "properties": {
        "osm_type": "way",
        "osm_id": 883142548,
        "sido": "세종특별자치시",
        "power_type": "line",
        "name": "",
        "description": "",
        "voltage": "345000",
        "cables": "",
        "circuits": "",
        "frequency": "60",
        "operator": "",
        "wires": ""
      }
    },
    {
      "type": "Feature",
      "geometry": {
        "type": "LineString",
        "coordinates": [
          [
            127.3607524,
            36.493608
          ],
          [
            127.3609212,
            36.4936468
          ]
        ]
      },
      "properties": {
        "osm_type": "way",
        "osm_id": 1093341759,
        "sido": "세종특별자치시",
        "power_type": "line",
        "name": "",
        "description": "",
        "voltage": "154000",
        "cables": "",
        "circuits": "",
        "frequency": "60",
        "operator": "",
        "wires": ""
      }
    },
    {
      "type": "Feature",
      "geometry": {
        "type": "LineString",
        "coordinates": [
          [
            127.3502782,
            36.4458616
          ],
          [
            127.3484737,
            36.4456644
          ],
          [
            127.3473688,
            36.4475825
          ],
          [
            127.3451035,
            36.4516114
          ],
          [
            127.3428077,
            36.4540127
          ],
          [
            127.3402553,
            36.4564752
          ],
          [
            127.3385495,
            36.4585075
          ],
          [
            127.3367642,
            36.4603402
          ],
          [
            127.333744,
            36.4635395
          ],
          [
            127.331214,
            36.4662346
          ],
          [
            127.3292568,
            36.4682616
          ],
          [
            127.3274078,
            36.4699532
          ],
          [
            127.3253328,
            36.4718291
          ],
          [
            127.3235092,
            36.4735028
          ],
          [
            127.322178,
            36.4746996
          ],
          [
            127.3203977,
            36.4763257
          ],
          [
            127.3185818,
            36.4779509
          ]
        ]
      },
      "properties": {
        "osm_type": "way",
        "osm_id": 1113483245,
        "sido": "세종특별자치시",
        "power_type": "line",
        "name": "",
        "description": "",
        "voltage": "154000",
        "cables": "6",
        "circuits": "2",
        "frequency": "60",
        "operator": "",
        "wires": ""
      }
    },
    {
      "type": "Feature",
      "geometry": {
        "type": "LineString",
        "coordinates": [
          [
            127.322205,
            36.5243519
          ],
          [
            127.3187627,
            36.5210977
          ],
          [
            127.316679,
            36.5193126
          ],
          [
            127.3137448,
            36.5180782
          ],
          [
            127.3107455,
            36.5168094
          ],
          [
            127.3078139,
            36.5155871
          ],
          [
            127.3036218,
            36.51601
          ],
          [
            127.3015096,
            36.5161802
          ],
          [
            127.2980966,
            36.5172529
          ],
          [
            127.2969904,
            36.5181529
          ]
        ]
      },
      "properties": {
        "osm_type": "way",
        "osm_id": 1258970091,
        "sido": "세종특별자치시",
        "power_type": "line",
        "name": "",
        "description": "",
        "voltage": "154000",
        "cables": "6",
        "circuits": "2",
        "frequency": "60",
        "operator": "",
        "wires": ""
      }
    },
    {
      "type": "Feature",
      "geometry": {
        "type": "LineString",
        "coordinates": [
          [
            127.2954922,
            36.4241845
          ],
          [
            127.2946845,
            36.4210692
          ],
          [
            127.2935736,
            36.4162146
          ],
          [
            127.2931299,
            36.4137347
          ],
          [
            127.2946466,
            36.4115592
          ],
          [
            127.2962804,
            36.409193
          ],
          [
            127.2979185,
            36.4067358
          ],
          [
            127.2996867,
            36.4052061
          ],
          [
            127.3017668,
            36.4033903
          ],
          [
            127.3035826,
            36.4019082
          ],
          [
            127.3059098,
            36.399854
          ],
          [
            127.3066205,
            36.3979559
          ],
          [
            127.3072055,
            36.3963914
          ]
        ]
      },
      "properties": {
        "osm_type": "way",
        "osm_id": 1432641513,
        "sido": "세종특별자치시",
        "power_type": "line",
        "name": "",
        "description": "",
        "voltage": "154000",
        "cables": "6",
        "circuits": "2",
        "frequency": "",
        "operator": "KoreaNet",
        "wires": "quad"
      }
    },
    {
      "type": "Feature",
      "geometry": {
        "type": "LineString",
        "coordinates": [
          [
            127.273671,
            36.5915294
          ],
          [
            127.2734436,
            36.5915902
          ]
        ]
      },
      "properties": {
        "osm_type": "way",
        "osm_id": 1432642938,
        "sido": "세종특별자치시",
        "power_type": "line",
        "name": "",
        "description": "",
        "voltage": "154000",
        "cables": "3",
        "circuits": "",
        "frequency": "60",
        "operator": "",
        "wires": ""
      }
    },
    {
      "type": "Feature",
      "geometry": {
        "type": "LineString",
        "coordinates": [
          [
            127.2736688,
            36.5916505
          ],
          [
            127.2734436,
            36.5915902
          ]
        ]
      },
      "properties": {
        "osm_type": "way",
        "osm_id": 1432642939,
        "sido": "세종특별자치시",
        "power_type": "line",
        "name": "",
        "description": "",
        "voltage": "154000",
        "cables": "3",
        "circuits": "",
        "frequency": "60",
        "operator": "",
        "wires": ""
      }
    },
    {
      "type": "Feature",
      "geometry": {
        "type": "LineString",
        "coordinates": [
          [
            127.273667,
            36.5917554
          ],
          [
            127.2734463,
            36.5919068
          ]
        ]
      },
      "properties": {
        "osm_type": "way",
        "osm_id": 1432642940,
        "sido": "세종특별자치시",
        "power_type": "line",
        "name": "",
        "description": "",
        "voltage": "154000",
        "cables": "3",
        "circuits": "",
        "frequency": "60",
        "operator": "",
        "wires": ""
      }
    },
    {
      "type": "Feature",
      "geometry": {
        "type": "LineString",
        "coordinates": [
          [
            127.2736649,
            36.5918718
          ],
          [
            127.2734463,
            36.5919068
          ]
        ]
      },
      "properties": {
        "osm_type": "way",
        "osm_id": 1432642941,
        "sido": "세종특별자치시",
        "power_type": "line",
        "name": "",
        "description": "",
        "voltage": "154000",
        "cables": "3",
        "circuits": "",
        "frequency": "60",
        "operator": "",
        "wires": ""
      }
    },
    {
      "type": "Feature",
      "geometry": {
        "type": "LineString",
        "coordinates": [
          [
            127.2726846,
            36.593186
          ],
          [
            127.2734463,
            36.5919068
          ]
        ]
      },
      "properties": {
        "osm_type": "way",
        "osm_id": 1432642942,
        "sido": "세종특별자치시",
        "power_type": "line",
        "name": "",
        "description": "",
        "voltage": "154000",
        "cables": "6",
        "circuits": "2",
        "frequency": "60",
        "operator": "",
        "wires": ""
      }
    },
    {
      "type": "Feature",
      "geometry": {
        "type": "LineString",
        "coordinates": [
          [
            127.2734436,
            36.5915902
          ],
          [
            127.2726846,
            36.593186
          ]
        ]
      },
      "properties": {
        "osm_type": "way",
        "osm_id": 1432642943,
        "sido": "세종특별자치시",
        "power_type": "line",
        "name": "",
        "description": "",
        "voltage": "154000",
        "cables": "6",
        "circuits": "2",
        "frequency": "60",
        "operator": "",
        "wires": ""
      }
    },
    {
      "type": "Feature",
      "geometry": {
        "type": "LineString",
        "coordinates": [
          [
            127.2669607,
            36.5955075
          ],
          [
            127.2726846,
            36.593186
          ]
        ]
      },
      "properties": {
        "osm_type": "way",
        "osm_id": 1432642944,
        "sido": "세종특별자치시",
        "power_type": "line",
        "name": "",
        "description": "",
        "voltage": "154000",
        "cables": "12",
        "circuits": "4",
        "frequency": "60",
        "operator": "",
        "wires": ""
      }
    },
    {
      "type": "Feature",
      "geometry": {
        "type": "LineString",
        "coordinates": [
          [
            127.2728135,
            36.5338149
          ],
          [
            127.2714481,
            36.5354007
          ],
          [
            127.2702625,
            36.5371679
          ],
          [
            127.2702599,
            36.5401461
          ],
          [
            127.2691065,
            36.5428915
          ],
          [
            127.2667757,
            36.5431544
          ],
          [
            127.2660783,
            36.5444732
          ],
          [
            127.2645387,
            36.5472422
          ],
          [
            127.2636589,
            36.5487376
          ],
          [
            127.2623929,
            36.5510194
          ],
          [
            127.2615266,
            36.5525988
          ],
          [
            127.2605959,
            36.5542988
          ],
          [
            127.2594237,
            36.556406
          ],
          [
            127.2572055,
            36.5603982
          ],
          [
            127.2558323,
            36.5627508
          ],
          [
            127.2525305,
            36.5687311
          ],
          [
            127.2513503,
            36.5709327
          ],
          [
            127.2507092,
            36.5721196
          ],
          [
            127.248601,
            36.5742715
          ],
          [
            127.2453529,
            36.5775284
          ],
          [
            127.243883,
            36.5790124
          ],
          [
            127.2417802,
            36.5811534
          ],
          [
            127.2402298,
            36.5827149
          ],
          [
            127.2379526,
            36.5849807
          ],
          [
            127.2373518,
            36.5879786
          ],
          [
            127.2382852,
            36.5888121
          ],
          [
            127.2418687,
            36.5919542
          ],
          [
            127.2448271,
            36.5945039
          ],
          [
            127.2472116,
            36.5960264
          ],
          [
            127.249757,
            36.5970687
          ],
          [
            127.2531018,
            36.5984318
          ],
          [
            127.256476,
            36.5979494
          ],
          [
            127.2603759,
            36.5974046
          ],
          [
            127.2636992,
            36.59647
          ],
          [
            127.2669607,
            36.5955075
          ]
        ]
      },
      "properties": {
        "osm_type": "way",
        "osm_id": 1432642945,
        "sido": "세종특별자치시",
        "power_type": "line",
        "name": "",
        "description": "",
        "voltage": "154000",
        "cables": "6",
        "circuits": "2",
        "frequency": "60",
        "operator": "",
        "wires": ""
      }
    },
    {
      "type": "Feature",
      "geometry": {
        "type": "LineString",
        "coordinates": [
          [
            127.2169311,
            36.7030006
          ],
          [
            127.2166371,
            36.7021414
          ]
        ]
      },
      "properties": {
        "osm_type": "way",
        "osm_id": 1432646118,
        "sido": "세종특별자치시",
        "power_type": "line",
        "name": "",
        "description": "",
        "voltage": "154000",
        "cables": "6",
        "circuits": "2",
        "frequency": "",
        "operator": "",
        "wires": ""
      }
    },
    {
      "type": "Feature",
      "geometry": {
        "type": "LineString",
        "coordinates": [
          [
            127.3641177,
            36.5053603
          ],
          [
            127.362899,
            36.5036714
          ],
          [
            127.3599438,
            36.5026828
          ]
        ]
      },
      "properties": {
        "osm_type": "way",
        "osm_id": 1449657185,
        "sido": "세종특별자치시",
        "power_type": "line",
        "name": "",
        "description": "",
        "voltage": "",
        "cables": "",
        "circuits": "",
        "frequency": "",
        "operator": "",
        "wires": ""
      }
    }
  ]
}