{
  "type": "FeatureCollection",
  "features": [
    {
      "type": "Feature",
      "geometry": {
        "type": "LineString",
        "coordinates": [
          [
            126.4464174,
            37.2387411
          ],
          [
            126.4498899,
            37.2374276
          ],
          [
            126.4543725,
            37.2371792
          ],
          [
            126.4588546,
            37.2374395
          ],
          [
            126.4629207,
            37.2382881
          ],
          [
            126.4694913,
            37.2364557
          ],
          [
            126.4753417,
            37.237977
          ],
          [
            126.481483,
            37.2395649
          ],
          [
            126.4893203,
            37.2415118
          ],
          [
            126.5001227,
            37.2442374
          ],
          [
            126.5087159,
            37.2463964
          ],
          [
            126.5144416,
            37.2478284
          ],
          [
            126.5192361,
            37.2523164
          ],
          [
            126.5193619,
            37.2567449
          ],
          [
            126.5217511,
            37.2577045
          ],
          [
            126.527881,
            37.2612393
          ],
          [
            126.5343974,
            37.264903
          ],
          [
            126.5405619,
            37.268378
          ],
          [
            126.5467425,
            37.2718549
          ],
          [
            126.5517369,
            37.2746544
          ],
          [
            126.5555408,
            37.2751671
          ]
        ]
      },
      "properties": {
        "osm_type": "way",
        "osm_id": 173116484,
        "sido": "인천광역시",
        "power_type": "line",
        "name": "",
        "description": "",
        "voltage": "345000",
        "cables": "6",
        "circuits": "2",
        "frequency": "60",
        "operator": "",
        "wires": ""
      }
    },
    {
      "type": "Feature",
      "geometry": {
        "type": "LineString",
        "coordinates": [
          [
            126.7607259,
            37.3623651
          ],
          [
            126.7570778,
            37.3629811
          ],
          [
            126.7542396,
            37.3658404
          ],
          [
            126.7536029,
            37.3671698
          ],
          [
            126.7543116,
            37.3682823
          ],
          [
            126.7514349,
            37.3693639
          ],
          [
            126.7518547,
            37.3716571
          ],
          [
            126.7517021,
            37.3736818
          ],
          [
            126.7517976,
            37.3760237
          ],
          [
            126.7519072,
            37.3787224
          ],
          [
            126.7531339,
            37.3807701
          ],
          [
            126.7545496,
            37.3831417
          ],
          [
            126.7559918,
            37.385476
          ],
          [
            126.757063,
            37.3872529
          ],
          [
            126.7548836,
            37.3889654
          ],
          [
            126.7523034,
            37.3903801
          ],
          [
            126.7491284,
            37.3907084
          ],
          [
            126.7463431,
            37.3931345
          ],
          [
            126.7443793,
            37.3953885
          ],
          [
            126.7442036,
            37.3980127
          ],
          [
            126.7439748,
            37.4019374
          ],
          [
            126.7434095,
            37.4051904
          ],
          [
            126.7424473,
            37.4077835
          ],
          [
            126.7420893,
            37.4107313
          ],
          [
            126.7397692,
            37.4123744
          ],
          [
            126.7395062,
            37.4144194
          ]
        ]
      },
      "properties": {
        "osm_type": "way",
        "osm_id": 312319373,
        "sido": "인천광역시",
        "power_type": "line",
        "name": "",
        "description": "",
        "voltage": "154000",
        "cables": "12",
        "circuits": "4",
        "frequency": "60",
        "operator": "",
        "wires": ""
      }
    },
    {
      "type": "Feature",
      "geometry": {
        "type": "LineString",
        "coordinates": [
          [
            126.6939463,
            37.4883268
          ],
          [
            126.6990838,
            37.4869262
          ],
          [
            126.7025345,
            37.4860143
          ],
          [
            126.7021609,
            37.4838345
          ],
          [
            126.70644,
            37.4806706
          ],
          [
            126.7081106,
            37.4809712
          ],
          [
            126.7135636,
            37.4788037
          ],
          [
            126.7147436,
            37.4783484
          ],
          [
            126.7187816,
            37.4745681
          ],
          [
            126.7210391,
            37.4727126
          ],
          [
            126.7277218,
            37.4707151
          ],
          [
            126.7316614,
            37.4707059
          ],
          [
            126.7380043,
            37.4689849
          ],
          [
            126.7433338,
            37.4642901
          ],
          [
            126.7453716,
            37.4631212
          ],
          [
            126.7484859,
            37.4623973
          ],
          [
            126.7519553,
            37.4615482
          ],
          [
            126.755113,
            37.4608092
          ],
          [
            126.7600778,
            37.4601567
          ],
          [
            126.764759,
            37.4595565
          ],
          [
            126.7677749,
            37.4591583
          ],
          [
            126.7730775,
            37.4584465
          ],
          [
            126.7775582,
            37.4578801
          ],
          [
            126.7813495,
            37.4573808
          ],
          [
            126.7831828,
            37.4571392
          ],
          [
            126.7895088,
            37.4563003
          ],
          [
            126.7941543,
            37.455785
          ],
          [
            126.7979094,
            37.4564706
          ],
          [
            126.802142,
            37.4546246
          ],
          [
            126.8049462,
            37.4529446
          ],
          [
            126.808405,
            37.4507046
          ],
          [
            126.8141261,
            37.4473252
          ],
          [
            126.8169022,
            37.4456472
          ],
          [
            126.8180716,
            37.4433857
          ],
          [
            126.8198365,
            37.4400379
          ],
          [
            126.8209898,
            37.4374866
          ],
          [
            126.8239886,
            37.4307095
          ],
          [
            126.825657,
            37.4295804
          ]
        ]
      },
      "properties": {
        "osm_type": "way",
        "osm_id": 312408980,
        "sido": "인천광역시",
        "power_type": "line",
        "name": "",
        "description": "",
        "voltage": "345000",
        "cables": "6",
        "circuits": "2",
        "frequency": "60",
        "operator": "",
        "wires": ""
      }
    },
    {
      "type": "Feature",
      "geometry": {
        "type": "LineString",
        "coordinates": [
          [
            126.6962956,
            37.5825965
          ],
          [
            126.6952103,
            37.581147
          ],
          [
            126.694909,
            37.5794516
          ],
          [
            126.692883,
            37.5790247
          ],
          [
            126.691402,
            37.576691
          ],
          [
            126.6911839,
            37.575318
          ],
          [
            126.6916228,
            37.5727296
          ],
          [
            126.6917869,
            37.5691937
          ],
          [
            126.6919581,
            37.5664784
          ],
          [
            126.6937375,
            37.564033
          ],
          [
            126.6953978,
            37.5617074
          ],
          [
            126.6988368,
            37.5602572
          ],
          [
            126.7005882,
            37.5596335
          ],
          [
            126.7027826,
            37.5570075
          ],
          [
            126.7073491,
            37.556567
          ]
        ]
      },
      "properties": {
        "osm_type": "way",
        "osm_id": 373636454,
        "sido": "인천광역시",
        "power_type": "line",
        "name": "",
        "description": "",
        "voltage": "154000",
        "cables": "12",
        "circuits": "4",
        "frequency": "60",
        "operator": "",
        "wires": ""
      }
    },
    {
      "type": "Feature",
      "geometry": {
        "type": "LineString",
        "coordinates": [
          [
            126.4397567,
            37.2363441
          ],
          [
            126.4403078,
            37.2362756
          ],
          [
            126.443592,
            37.2362403
          ],
          [
            126.4491095,
            37.2363199
          ],
          [
            126.4545953,
            37.2364435
          ],
          [
            126.4588771,
            37.236984
          ],
          [
            126.4628273,
            37.2378153
          ],
          [
            126.4694999,
            37.2359263
          ],
          [
            126.4753618,
            37.2372985
          ],
          [
            126.4811986,
            37.2386668
          ],
          [
            126.487871,
            37.240185
          ],
          [
            126.4981436,
            37.242538
          ],
          [
            126.5086336,
            37.244944
          ],
          [
            126.516335,
            37.2467108
          ],
          [
            126.5201651,
            37.2502299
          ],
          [
            126.5202475,
            37.2520061
          ],
          [
            126.5203248,
            37.2536726
          ],
          [
            126.5201446,
            37.2559631
          ],
          [
            126.5217446,
            37.2565715
          ],
          [
            126.5233218,
            37.2571713
          ],
          [
            126.5290547,
            37.2604056
          ],
          [
            126.5352109,
            37.2639078
          ],
          [
            126.5413606,
            37.2673982
          ],
          [
            126.547508,
            37.2709032
          ],
          [
            126.5527843,
            37.2739337
          ],
          [
            126.5555408,
            37.2751671
          ]
        ]
      },
      "properties": {
        "osm_type": "way",
        "osm_id": 686923107,
        "sido": "인천광역시",
        "power_type": "line",
        "name": "",
        "description": "",
        "voltage": "345000",
        "cables": "6",
        "circuits": "2",
        "frequency": "60",
        "operator": "",
        "wires": ""
      }
    },
    {
      "type": "Feature",
      "geometry": {
        "type": "LineString",
        "coordinates": [
          [
            126.6990152,
            37.4814544
          ],
          [
            126.6996103,
            37.4825285
          ],
          [
            126.6992484,
            37.4852146
          ],
          [
            126.6979705,
            37.4888541
          ],
          [
            126.6969648,
            37.4898407
          ],
          [
            126.6945959,
            37.4922975
          ],
          [
            126.6925351,
            37.4919815
          ],
          [
            126.6928332,
            37.4901524
          ],
          [
            126.6929412,
            37.4897657
          ]
        ]
      },
      "properties": {
        "osm_type": "way",
        "osm_id": 697603197,
        "sido": "인천광역시",
        "power_type": "line",
        "name": "",
        "description": "",
        "voltage": "154000",
        "cables": "6",
        "circuits": "2",
        "frequency": "60",
        "operator": "",
        "wires": ""
      }
    },
    {
      "type": "Feature",
      "geometry": {
        "type": "LineString",
        "coordinates": [
          [
            126.6845515,
            37.5282575
          ],
          [
            126.6873392,
            37.5264239
          ],
          [
            126.688457,
            37.5242905
          ],
          [
            126.6862139,
            37.5209659
          ],
          [
            126.6847454,
            37.5185548
          ],
          [
            126.6839402,
            37.514498
          ],
          [
            126.6846516,
            37.5097493
          ],
          [
            126.687233,
            37.5052315
          ],
          [
            126.6903596,
            37.4995622
          ],
          [
            126.6916262,
            37.4972857
          ],
          [
            126.6947348,
            37.4932288
          ],
          [
            126.6977692,
            37.4902403
          ],
          [
            126.6942742,
            37.4885356
          ]
        ]
      },
      "properties": {
        "osm_type": "way",
        "osm_id": 697603198,
        "sido": "인천광역시",
        "power_type": "line",
        "name": "",
        "description": "",
        "voltage": "345000",
        "cables": "6",
        "circuits": "2",
        "frequency": "60",
        "operator": "",
        "wires": ""
      }
    },
    {
      "type": "Feature",
      "geometry": {
        "type": "LineString",
        "coordinates": [
          [
            126.6264287,
            37.6358452
          ],
          [
            126.6261725,
            37.6354266
          ],
          [
            126.6258927,
            37.635463
          ],
          [
            126.6244459,
            37.6356512
          ],
          [
            126.6214251,
            37.636162
          ],
          [
            126.6171591,
            37.6361691
          ],
          [
            126.6139098,
            37.6344281
          ],
          [
            126.611159,
            37.6327289
          ],
          [
            126.6078165,
            37.6306371
          ],
          [
            126.6036651,
            37.6282833
          ],
          [
            126.6008477,
            37.6266031
          ],
          [
            126.5981428,
            37.6249739
          ],
          [
            126.5947361,
            37.6230037
          ],
          [
            126.5917333,
            37.6213271
          ],
          [
            126.588154,
            37.6192583
          ],
          [
            126.5858772,
            37.6167775
          ],
          [
            126.5839319,
            37.6145942
          ],
          [
            126.5815123,
            37.6118908
          ],
          [
            126.5793381,
            37.6095041
          ],
          [
            126.5763229,
            37.607529
          ],
          [
            126.5724085,
            37.6064329
          ],
          [
            126.5691513,
            37.6054991
          ],
          [
            126.5654071,
            37.6044098
          ],
          [
            126.5619377,
            37.6034247
          ],
          [
            126.5617836,
            37.6005168
          ],
          [
            126.564363,
            37.5983589
          ],
          [
            126.566952,
            37.5962
          ],
          [
            126.5695053,
            37.5940607
          ],
          [
            126.5720786,
            37.5918978
          ],
          [
            126.5747562,
            37.5900289
          ],
          [
            126.576164,
            37.5875245
          ],
          [
            126.5779785,
            37.5850746
          ],
          [
            126.5799016,
            37.5825692
          ],
          [
            126.5817494,
            37.5800773
          ],
          [
            126.5836001,
            37.5776139
          ],
          [
            126.5854418,
            37.5751531
          ],
          [
            126.587289,
            37.5726959
          ],
          [
            126.5891486,
            37.570223
          ],
          [
            126.5910628,
            37.5677316
          ],
          [
            126.5930555,
            37.5671368
          ],
          [
            126.5939622,
            37.5667338
          ]
        ]
      },
      "properties": {
        "osm_type": "way",
        "osm_id": 884263057,
        "sido": "인천광역시",
        "power_type": "line",
        "name": "",
        "description": "",
        "voltage": "345000",
        "cables": "6",
        "circuits": "2",
        "frequency": "60",
        "operator": "",
        "wires": ""
      }
    },
    {
      "type": "Feature",
      "geometry": {
        "type": "LineString",
        "coordinates": [
          [
            126.6332789,
            37.4932567
          ],
          [
            126.6260711,
            37.4977786
          ],
          [
            126.6196902,
            37.4977277
          ],
          [
            126.6133972,
            37.4976169
          ],
          [
            126.6134333,
            37.5012482
          ],
          [
            126.6133947,
            37.5048711
          ],
          [
            126.6113175,
            37.508587
          ]
        ]
      },
      "properties": {
        "osm_type": "way",
        "osm_id": 884288792,
        "sido": "인천광역시",
        "power_type": "line",
        "name": "",
        "description": "",
        "voltage": "154000",
        "cables": "12",
        "circuits": "4",
        "frequency": "60",
        "operator": "",
        "wires": ""
      }
    },
    {
      "type": "Feature",
      "geometry": {
        "type": "LineString",
        "coordinates": [
          [
            126.6475928,
            37.597578
          ],
          [
            126.646504,
            37.6002171
          ],
          [
            126.6451861,
            37.6015017
          ],
          [
            126.6431848,
            37.6027788
          ],
          [
            126.6401586,
            37.6042739
          ],
          [
            126.6374499,
            37.6054675
          ],
          [
            126.6344563,
            37.606604
          ],
          [
            126.6315876,
            37.6080592
          ],
          [
            126.6287033,
            37.6089595
          ],
          [
            126.6283203,
            37.6083977
          ],
          [
            126.6260901,
            37.6081339
          ],
          [
            126.6255102,
            37.6099313
          ],
          [
            126.6237898,
            37.6095612
          ],
          [
            126.6238882,
            37.6092956
          ]
        ]
      },
      "properties": {
        "osm_type": "way",
        "osm_id": 886623602,
        "sido": "인천광역시",
        "power_type": "line",
        "name": "",
        "description": "",
        "voltage": "154000",
        "cables": "6",
        "circuits": "2",
        "frequency": "60",
        "operator": "",
        "wires": ""
      }
    },
    {
      "type": "Feature",
      "geometry": {
        "type": "LineString",
        "coordinates": [
          [
            126.3968778,
            37.7089739
          ],
          [
            126.3971821,
            37.7090977
          ],
          [
            126.3993412,
            37.7089005
          ],
          [
            126.402408,
            37.7075713
          ],
          [
            126.4057967,
            37.706137
          ],
          [
            126.408774,
            37.7057664
          ],
          [
            126.4125216,
            37.7054456
          ],
          [
            126.4169003,
            37.7049034
          ],
          [
            126.4191674,
            37.7043819
          ],
          [
            126.423243,
            37.7035705
          ],
          [
            126.4263737,
            37.7037221
          ],
          [
            126.42966,
            37.7033873
          ],
          [
            126.4324479,
            37.70287
          ],
          [
            126.4344603,
            37.7022116
          ],
          [
            126.4361279,
            37.7009661
          ],
          [
            126.4402569,
            37.6993328
          ],
          [
            126.4442602,
            37.6967894
          ],
          [
            126.4473276,
            37.6948865
          ],
          [
            126.4471374,
            37.6928278
          ],
          [
            126.445561,
            37.690086
          ],
          [
            126.4429379,
            37.6847131
          ],
          [
            126.4495115,
            37.6832713
          ],
          [
            126.4540619,
            37.6836916
          ],
          [
            126.4567332,
            37.6834057
          ],
          [
            126.4622095,
            37.6804618
          ],
          [
            126.4660275,
            37.6784438
          ],
          [
            126.4697989,
            37.6764395
          ],
          [
            126.476121,
            37.6777849
          ],
          [
            126.4780414,
            37.6800947
          ],
          [
            126.4808584,
            37.6813113
          ],
          [
            126.4813412,
            37.6816902
          ]
        ]
      },
      "properties": {
        "osm_type": "way",
        "osm_id": 888094922,
        "sido": "인천광역시",
        "power_type": "line",
        "name": "",
        "description": "",
        "voltage": "154000",
        "cables": "6",
        "circuits": "2",
        "frequency": "60",
        "operator": "",
        "wires": ""
      }
    },
    {
      "type": "Feature",
      "geometry": {
        "type": "LineString",
        "coordinates": [
          [
            126.4397702,
            37.2368161
          ],
          [
            126.4402947,
            37.2368421
          ],
          [
            126.4435475,
            37.2373372
          ],
          [
            126.4464174,
            37.2387411
          ]
        ]
      },
      "properties": {
        "osm_type": "way",
        "osm_id": 915376875,
        "sido": "인천광역시",
        "power_type": "line",
        "name": "",
        "description": "",
        "voltage": "345000",
        "cables": "6",
        "circuits": "2",
        "frequency": "60",
        "operator": "",
        "wires": ""
      }
    },
    {
      "type": "Feature",
      "geometry": {
        "type": "LineString",
        "coordinates": [
          [
            126.4464174,
            37.2387411
          ],
          [
            126.4462147,
            37.2414091
          ],
          [
            126.4459585,
            37.2440273
          ],
          [
            126.4456307,
            37.2446919
          ],
          [
            126.4447069,
            37.2465651
          ],
          [
            126.4426499,
            37.2491798
          ],
          [
            126.4415574,
            37.2505636
          ]
        ]
      },
      "properties": {
        "osm_type": "way",
        "osm_id": 915376876,
        "sido": "인천광역시",
        "power_type": "line",
        "name": "",
        "description": "",
        "voltage": "345000",
        "cables": "12",
        "circuits": "4",
        "frequency": "60",
        "operator": "",
        "wires": ""
      }
    },
    {
      "type": "Feature",
      "geometry": {
        "type": "LineString",
        "coordinates": [
          [
            126.6208753,
            37.6583885
          ],
          [
            126.6203059,
            37.6585841
          ],
          [
            126.6179457,
            37.6577866
          ],
          [
            126.6145188,
            37.6568955
          ],
          [
            126.6113885,
            37.6560024
          ],
          [
            126.6081196,
            37.6551378
          ],
          [
            126.6058196,
            37.6534991
          ],
          [
            126.6036348,
            37.6518938
          ],
          [
            126.6017873,
            37.6498884
          ],
          [
            126.6019806,
            37.6473144
          ],
          [
            126.6017908,
            37.6441254
          ],
          [
            126.6019124,
            37.6429217
          ],
          [
            126.6000458,
            37.6410157
          ],
          [
            126.5979105,
            37.6403801
          ],
          [
            126.5932596,
            37.6409636
          ],
          [
            126.5904269,
            37.6408873
          ],
          [
            126.5859678,
            37.6407429
          ],
          [
            126.5796015,
            37.6417506
          ],
          [
            126.5750849,
            37.6406734
          ],
          [
            126.5727421,
            37.6423191
          ],
          [
            126.5705656,
            37.6441849
          ],
          [
            126.5674671,
            37.6451591
          ],
          [
            126.5649478,
            37.6455195
          ],
          [
            126.5621489,
            37.6463055
          ],
          [
            126.5608459,
            37.6487261
          ],
          [
            126.5594045,
            37.649613
          ],
          [
            126.5571104,
            37.6530818
          ],
          [
            126.555463,
            37.6551851
          ],
          [
            126.5524128,
            37.6588541
          ],
          [
            126.5483235,
            37.6600343
          ],
          [
            126.5478155,
            37.6632673
          ],
          [
            126.5463252,
            37.665568
          ],
          [
            126.5430615,
            37.6673957
          ],
          [
            126.5393096,
            37.670674
          ],
          [
            126.5362462,
            37.6735787
          ],
          [
            126.5351281,
            37.6733154
          ],
          [
            126.5331819,
            37.672591
          ],
          [
            126.5208077,
            37.6677328
          ],
          [
            126.5162502,
            37.6659097
          ],
          [
            126.5127334,
            37.6648865
          ],
          [
            126.5097302,
            37.664013
          ],
          [
            126.5066135,
            37.6644992
          ],
          [
            126.5036915,
            37.6663668
          ],
          [
            126.5006188,
            37.6681596
          ],
          [
            126.4975375,
            37.6703134
          ],
          [
            126.4955913,
            37.6704875
          ],
          [
            126.4918104,
            37.670667
          ],
          [
            126.4873928,
            37.6718092
          ],
          [
            126.4845191,
            37.6724183
          ],
          [
            126.482496,
            37.6759506
          ],
          [
            126.4830243,
            37.6783781
          ],
          [
            126.4821018,
            37.6799901
          ],
          [
            126.4812672,
            37.6812446
          ],
          [
            126.4814705,
            37.6815895
          ]
        ]
      },
      "properties": {
        "osm_type": "way",
        "osm_id": 1020533732,
        "sido": "인천광역시",
        "power_type": "line",
        "name": "",
        "description": "",
        "voltage": "154000",
        "cables": "6",
        "circuits": "2",
        "frequency": "60",
        "operator": "",
        "wires": ""
      }
    },
    {
      "type": "Feature",
      "geometry": {
        "type": "LineString",
        "coordinates": [
          [
            126.3202077,
            37.6844065
          ],
          [
            126.3176259,
            37.683039
          ],
          [
            126.3085293,
            37.6783965
          ],
          [
            126.3007797,
            37.6745646
          ],
          [
            126.291666,
            37.6701241
          ],
          [
            126.2823951,
            37.6655849
          ],
          [
            126.2646585,
            37.6569608
          ],
          [
            126.2544981,
            37.6520482
          ]
        ]
      },
      "properties": {
        "osm_type": "way",
        "osm_id": 1025157906,
        "sido": "인천광역시",
        "power_type": "minor_line",
        "name": "",
        "description": "",
        "voltage": "22900",
        "cables": "",
        "circuits": "",
        "frequency": "60",
        "operator": "",
        "wires": ""
      }
    },
    {
      "type": "Feature",
      "geometry": {
        "type": "LineString",
        "coordinates": [
          [
            126.2925968,
            37.7690465
          ],
          [
            126.2949153,
            37.76652
          ],
          [
            126.3026157,
            37.7580406
          ],
          [
            126.3117528,
            37.7481155
          ],
          [
            126.3129778,
            37.7467885
          ]
        ]
      },
      "properties": {
        "osm_type": "way",
        "osm_id": 1046525855,
        "sido": "인천광역시",
        "power_type": "minor_line",
        "name": "",
        "description": "",
        "voltage": "22900",
        "cables": "4",
        "circuits": "",
        "frequency": "60",
        "operator": "",
        "wires": ""
      }
    },
    {
      "type": "Feature",
      "geometry": {
        "type": "LineString",
        "coordinates": [
          [
            126.5331282,
            37.6742884
          ],
          [
            126.5299702,
            37.6731947
          ],
          [
            126.519354,
            37.66927
          ],
          [
            126.5144561,
            37.6675341
          ],
          [
            126.5139515,
            37.6674213
          ]
        ]
      },
      "properties": {
        "osm_type": "way",
        "osm_id": 1046525856,
        "sido": "인천광역시",
        "power_type": "line",
        "name": "",
        "description": "",
        "voltage": "22900",
        "cables": "",
        "circuits": "",
        "frequency": "60",
        "operator": "",
        "wires": ""
      }
    },
    {
      "type": "Feature",
      "geometry": {
        "type": "LineString",
        "coordinates": [
          [
            126.7361526,
            37.415469
          ],
          [
            126.7377692,
            37.4157659
          ],
          [
            126.7395062,
            37.4144194
          ]
        ]
      },
      "properties": {
        "osm_type": "way",
        "osm_id": 1046828986,
        "sido": "인천광역시",
        "power_type": "line",
        "name": "",
        "description": "",
        "voltage": "154000",
        "cables": "3",
        "circuits": "1",
        "frequency": "60",
        "operator": "",
        "wires": ""
      }
    },
    {
      "type": "Feature",
      "geometry": {
        "type": "LineString",
        "coordinates": [
          [
            126.6231828,
            37.5750678
          ],
          [
            126.6239634,
            37.5750707
          ],
          [
            126.6240062,
            37.5731425
          ],
          [
            126.6240481,
            37.5704604
          ],
          [
            126.6276509,
            37.5704094
          ],
          [
            126.6310834,
            37.5703699
          ],
          [
            126.6340058,
            37.5703353
          ],
          [
            126.6378788,
            37.5714102
          ],
          [
            126.6419701,
            37.5725311
          ],
          [
            126.6445914,
            37.5741258
          ],
          [
            126.6474429,
            37.5738701
          ],
          [
            126.6510816,
            37.5737902
          ],
          [
            126.6536417,
            37.5737116
          ],
          [
            126.6569943,
            37.5728708
          ],
          [
            126.660229,
            37.5732448
          ],
          [
            126.6640804,
            37.5736524
          ],
          [
            126.6667082,
            37.5734582
          ],
          [
            126.6691583,
            37.5732428
          ],
          [
            126.6718105,
            37.5728133
          ],
          [
            126.6749645,
            37.5735021
          ],
          [
            126.6779715,
            37.5736056
          ],
          [
            126.6813432,
            37.5741697
          ],
          [
            126.6828654,
            37.5758608
          ],
          [
            126.6868269,
            37.5761328
          ],
          [
            126.6896367,
            37.5766789
          ],
          [
            126.6921504,
            37.5777476
          ],
          [
            126.6932274,
            37.5782618
          ],
          [
            126.6950089,
            37.5786214
          ],
          [
            126.6956025,
            37.5806578
          ],
          [
            126.6967851,
            37.5822929
          ]
        ]
      },
      "properties": {
        "osm_type": "way",
        "osm_id": 1046828987,
        "sido": "인천광역시",
        "power_type": "line",
        "name": "",
        "description": "",
        "voltage": "154000",
        "cables": "3",
        "circuits": "1",
        "frequency": "60",
        "operator": "",
        "wires": ""
      }
    },
    {
      "type": "Feature",
      "geometry": {
        "type": "LineString",
        "coordinates": [
          [
            126.5238601,
            37.7462692
          ],
          [
            126.5249652,
            37.7461564
          ],
          [
            126.5302001,
            37.7462612
          ]
        ]
      },
      "properties": {
        "osm_type": "way",
        "osm_id": 1046828988,
        "sido": "인천광역시",
        "power_type": "minor_line",
        "name": "",
        "description": "",
        "voltage": "22900",
        "cables": "",
        "circuits": "",
        "frequency": "60",
        "operator": "",
        "wires": ""
      }
    },
    {
      "type": "Feature",
      "geometry": {
        "type": "LineString",
        "coordinates": [
          [
            126.1589319,
            37.6749197
          ],
          [
            126.1555064,
            37.6766075
          ],
          [
            126.1433018,
            37.682529
          ],
          [
            126.1405,
            37.6838715
          ]
        ]
      },
      "properties": {
        "osm_type": "way",
        "osm_id": 1082449529,
        "sido": "인천광역시",
        "power_type": "minor_line",
        "name": "",
        "description": "",
        "voltage": "22900",
        "cables": "",
        "circuits": "",
        "frequency": "60",
        "operator": "",
        "wires": ""
      }
    },
    {
      "type": "Feature",
      "geometry": {
        "type": "LineString",
        "coordinates": [
          [
            126.8063041,
            37.5350861
          ],
          [
            126.8040517,
            37.5351861
          ],
          [
            126.8020276,
            37.5352736
          ],
          [
            126.797589,
            37.5354693
          ],
          [
            126.7953429,
            37.5353627
          ],
          [
            126.7916181,
            37.5351502
          ],
          [
            126.7886844,
            37.5349802
          ],
          [
            126.7857282,
            37.5348091
          ],
          [
            126.7822063,
            37.534605
          ],
          [
            126.7781596,
            37.5343735
          ],
          [
            126.7754507,
            37.5342149
          ],
          [
            126.7727523,
            37.5340525
          ],
          [
            126.77013,
            37.5329622
          ],
          [
            126.7681952,
            37.5321831
          ],
          [
            126.7664764,
            37.5314877
          ],
          [
            126.7641824,
            37.5305038
          ],
          [
            126.7612694,
            37.5304754
          ],
          [
            126.7612629,
            37.5297419
          ],
          [
            126.7584279,
            37.5279509
          ],
          [
            126.7558782,
            37.5267598
          ],
          [
            126.7546445,
            37.5250327
          ],
          [
            126.7531558,
            37.5227842
          ],
          [
            126.7520096,
            37.5209725
          ],
          [
            126.7509797,
            37.5188288
          ]
        ]
      },
      "properties": {
        "osm_type": "way",
        "osm_id": 1083162686,
        "sido": "인천광역시",
        "power_type": "line",
        "name": "154kV신부평-고강T/L",
        "description": "",
        "voltage": "154000",
        "cables": "6",
        "circuits": "2",
        "frequency": "60",
        "operator": "",
        "wires": ""
      }
    },
    {
      "type": "Feature",
      "geometry": {
        "type": "LineString",
        "coordinates": [
          [
            126.4415574,
            37.2505636
          ],
          [
            126.4406075,
            37.2509916
          ]
        ]
      },
      "properties": {
        "osm_type": "way",
        "osm_id": 1093106967,
        "sido": "인천광역시",
        "power_type": "line",
        "name": "",
        "description": "",
        "voltage": "345000",
        "cables": "",
        "circuits": "",
        "frequency": "60",
        "operator": "",
        "wires": ""
      }
    },
    {
      "type": "Feature",
      "geometry": {
        "type": "LineString",
        "coordinates": [
          [
            126.4415574,
            37.2505636
          ],
          [
            126.4405668,
            37.2504858
          ]
        ]
      },
      "properties": {
        "osm_type": "way",
        "osm_id": 1093106968,
        "sido": "인천광역시",
        "power_type": "line",
        "name": "",
        "description": "",
        "voltage": "345000",
        "cables": "",
        "circuits": "",
        "frequency": "60",
        "operator": "",
        "wires": ""
      }
    },
    {
      "type": "Feature",
      "geometry": {
        "type": "LineString",
        "coordinates": [
          [
            126.6808873,
            37.5285256
          ],
          [
            126.6827621,
            37.528808
          ],
          [
            126.6845515,
            37.5282575
          ]
        ]
      },
      "properties": {
        "osm_type": "way",
        "osm_id": 1095918275,
        "sido": "인천광역시",
        "power_type": "line",
        "name": "",
        "description": "",
        "voltage": "345000;345000;154000;154000",
        "cables": "12",
        "circuits": "4",
        "frequency": "60",
        "operator": "",
        "wires": ""
      }
    },
    {
      "type": "Feature",
      "geometry": {
        "type": "LineString",
        "coordinates": [
          [
            126.6825556,
            37.5301316
          ],
          [
            126.6808873,
            37.5285256
          ]
        ]
      },
      "properties": {
        "osm_type": "way",
        "osm_id": 1095918276,
        "sido": "인천광역시",
        "power_type": "line",
        "name": "",
        "description": "",
        "voltage": "345000",
        "cables": "6",
        "circuits": "2",
        "frequency": "60",
        "operator": "",
        "wires": ""
      }
    },
    {
      "type": "Feature",
      "geometry": {
        "type": "LineString",
        "coordinates": [
          [
            126.6808873,
            37.5285256
          ],
          [
            126.680713,
            37.5281427
          ]
        ]
      },
      "properties": {
        "osm_type": "way",
        "osm_id": 1095918277,
        "sido": "인천광역시",
        "power_type": "line",
        "name": "",
        "description": "",
        "voltage": "154000",
        "cables": "6",
        "circuits": "2",
        "frequency": "60",
        "operator": "",
        "wires": ""
      }
    },
    {
      "type": "Feature",
      "geometry": {
        "type": "LineString",
        "coordinates": [
          [
            126.6845515,
            37.5282575
          ],
          [
            126.6873477,
            37.5279502
          ],
          [
            126.6944903,
            37.5296503
          ],
          [
            126.6971926,
            37.5314724
          ],
          [
            126.7002869,
            37.5335963
          ],
          [
            126.7040263,
            37.5361068
          ],
          [
            126.7058823,
            37.5373582
          ],
          [
            126.7043546,
            37.5379104
          ],
          [
            126.7008781,
            37.5406223
          ],
          [
            126.7005663,
            37.5426324
          ],
          [
            126.7001771,
            37.545061
          ],
          [
            126.7011255,
            37.5482578
          ],
          [
            126.7026025,
            37.5511789
          ],
          [
            126.7047676,
            37.5536552
          ],
          [
            126.7073491,
            37.556567
          ]
        ]
      },
      "properties": {
        "osm_type": "way",
        "osm_id": 1095918278,
        "sido": "인천광역시",
        "power_type": "line",
        "name": "",
        "description": "",
        "voltage": "154000",
        "cables": "6",
        "circuits": "2",
        "frequency": "60",
        "operator": "",
        "wires": ""
      }
    },
    {
      "type": "Feature",
      "geometry": {
        "type": "LineString",
        "coordinates": [
          [
            126.5139515,
            37.6674213
          ],
          [
            126.5136159,
            37.667374
          ]
        ]
      },
      "properties": {
        "osm_type": "way",
        "osm_id": 1103180216,
        "sido": "인천광역시",
        "power_type": "minor_line",
        "name": "",
        "description": "",
        "voltage": "22900",
        "cables": "",
        "circuits": "",
        "frequency": "60",
        "operator": "",
        "wires": ""
      }
    },
    {
      "type": "Feature",
      "geometry": {
        "type": "LineString",
        "coordinates": [
          [
            126.5139515,
            37.6674213
          ],
          [
            126.5135769,
            37.6671584
          ]
        ]
      },
      "properties": {
        "osm_type": "way",
        "osm_id": 1103180217,
        "sido": "인천광역시",
        "power_type": "minor_line",
        "name": "",
        "description": "",
        "voltage": "22900",
        "cables": "",
        "circuits": "",
        "frequency": "60",
        "operator": "",
        "wires": ""
      }
    },
    {
      "type": "Feature",
      "geometry": {
        "type": "LineString",
        "coordinates": [
          [
            126.3754508,
            37.7020966
          ],
          [
            126.3741241,
            37.7009996
          ],
          [
            126.3654546,
            37.6939719
          ],
          [
            126.3627649,
            37.6919264
          ]
        ]
      },
      "properties": {
        "osm_type": "way",
        "osm_id": 1103376656,
        "sido": "인천광역시",
        "power_type": "minor_line",
        "name": "",
        "description": "",
        "voltage": "22900",
        "cables": "4",
        "circuits": "",
        "frequency": "60",
        "operator": "",
        "wires": ""
      }
    },
    {
      "type": "Feature",
      "geometry": {
        "type": "LineString",
        "coordinates": [
          [
            126.273672,
            37.7093797
          ],
          [
            126.2703818,
            37.7104024
          ],
          [
            126.2581398,
            37.714201
          ],
          [
            126.2479095,
            37.7177049
          ],
          [
            126.2424833,
            37.7170875
          ]
        ]
      },
      "properties": {
        "osm_type": "way",
        "osm_id": 1103376657,
        "sido": "인천광역시",
        "power_type": "minor_line",
        "name": "",
        "description": "",
        "voltage": "22900",
        "cables": "",
        "circuits": "",
        "frequency": "60",
        "operator": "",
        "wires": ""
      }
    },
    {
      "type": "Feature",
      "geometry": {
        "type": "LineString",
        "coordinates": [
          [
            126.2452164,
            37.7184934
          ],
          [
            126.2588734,
            37.7254789
          ],
          [
            126.2615134,
            37.726809
          ]
        ]
      },
      "properties": {
        "osm_type": "way",
        "osm_id": 1103376658,
        "sido": "인천광역시",
        "power_type": "minor_line",
        "name": "",
        "description": "",
        "voltage": "22900",
        "cables": "",
        "circuits": "",
        "frequency": "60",
        "operator": "",
        "wires": ""
      }
    },
    {
      "type": "Feature",
      "geometry": {
        "type": "LineString",
        "coordinates": [
          [
            126.3232271,
            37.7080995
          ],
          [
            126.3269408,
            37.7116314
          ]
        ]
      },
      "properties": {
        "osm_type": "way",
        "osm_id": 1103376659,
        "sido": "인천광역시",
        "power_type": "minor_line",
        "name": "",
        "description": "",
        "voltage": "22900",
        "cables": "1",
        "circuits": "1",
        "frequency": "60",
        "operator": "",
        "wires": ""
      }
    },
    {
      "type": "Feature",
      "geometry": {
        "type": "LineString",
        "coordinates": [
          [
            126.2334497,
            37.6552222
          ],
          [
            126.2333537,
            37.660284
          ]
        ]
      },
      "properties": {
        "osm_type": "way",
        "osm_id": 1103376660,
        "sido": "인천광역시",
        "power_type": "minor_line",
        "name": "",
        "description": "",
        "voltage": "22900",
        "cables": "",
        "circuits": "",
        "frequency": "60",
        "operator": "",
        "wires": ""
      }
    },
    {
      "type": "Feature",
      "geometry": {
        "type": "LineString",
        "coordinates": [
          [
            126.2259089,
            37.6624033
          ],
          [
            126.2236071,
            37.6629006
          ],
          [
            126.2103127,
            37.6660538
          ],
          [
            126.2075101,
            37.6667187
          ]
        ]
      },
      "properties": {
        "osm_type": "way",
        "osm_id": 1103376661,
        "sido": "인천광역시",
        "power_type": "minor_line",
        "name": "",
        "description": "",
        "voltage": "22900",
        "cables": "",
        "circuits": "",
        "frequency": "60",
        "operator": "",
        "wires": ""
      }
    },
    {
      "type": "Feature",
      "geometry": {
        "type": "LineString",
        "coordinates": [
          [
            126.662864,
            37.6520689
          ],
          [
            126.6642396,
            37.651268
          ],
          [
            126.6654084,
            37.6525095
          ],
          [
            126.6677308,
            37.6531519
          ],
          [
            126.6688897,
            37.6520879
          ],
          [
            126.6709349,
            37.6512401
          ],
          [
            126.6722418,
            37.6521065
          ],
          [
            126.6812979,
            37.6432739
          ],
          [
            126.685937,
            37.6407909
          ],
          [
            126.6873719,
            37.6400229
          ],
          [
            126.6894475,
            37.6385811
          ],
          [
            126.6846483,
            37.6346322
          ],
          [
            126.6841264,
            37.6276113
          ],
          [
            126.6895799,
            37.6239762
          ],
          [
            126.68879,
            37.6221425
          ],
          [
            126.6899629,
            37.618543
          ]
        ]
      },
      "properties": {
        "osm_type": "way",
        "osm_id": 1103376666,
        "sido": "인천광역시",
        "power_type": "cable",
        "name": "",
        "description": "",
        "voltage": "154000",
        "cables": "",
        "circuits": "2",
        "frequency": "60",
        "operator": "",
        "wires": ""
      }
    },
    {
      "type": "Feature",
      "geometry": {
        "type": "LineString",
        "coordinates": [
          [
            126.6967608,
            37.6196128
          ],
          [
            126.6966619,
            37.6198733
          ],
          [
            126.6964923,
            37.619746
          ],
          [
            126.6961976,
            37.6195883
          ],
          [
            126.6956806,
            37.619399
          ],
          [
            126.6949536,
            37.6193209
          ],
          [
            126.693023,
            37.6192438
          ],
          [
            126.6917693,
            37.6191147
          ],
          [
            126.6908583,
            37.6189276
          ],
          [
            126.6901513,
            37.6186439
          ],
          [
            126.6899629,
            37.618543
          ],
          [
            126.6896912,
            37.6183975
          ],
          [
            126.6893816,
            37.6181019
          ],
          [
            126.68798,
            37.6165198
          ],
          [
            126.6901813,
            37.6154608
          ],
          [
            126.6903356,
            37.6135034
          ],
          [
            126.6904575,
            37.6119569
          ]
        ]
      },
      "properties": {
        "osm_type": "way",
        "osm_id": 1103996637,
        "sido": "인천광역시",
        "power_type": "cable",
        "name": "",
        "description": "",
        "voltage": "154000",
        "cables": "",
        "circuits": "2",
        "frequency": "60",
        "operator": "",
        "wires": ""
      }
    },
    {
      "type": "Feature",
      "geometry": {
        "type": "LineString",
        "coordinates": [
          [
            126.6904575,
            37.6119569
          ],
          [
            126.6917847,
            37.6120732
          ],
          [
            126.6918834,
            37.6112447
          ],
          [
            126.6920469,
            37.6098721
          ],
          [
            126.6908385,
            37.6070013
          ],
          [
            126.692877,
            37.6039241
          ],
          [
            126.6953321,
            37.6019583
          ],
          [
            126.6953645,
            37.5998009
          ],
          [
            126.6945339,
            37.5981755
          ],
          [
            126.6914207,
            37.5973018
          ],
          [
            126.6906105,
            37.5967152
          ],
          [
            126.6887845,
            37.5952982
          ],
          [
            126.6891656,
            37.5927754
          ],
          [
            126.6910892,
            37.5899526
          ],
          [
            126.6892876,
            37.5881338
          ]
        ]
      },
      "properties": {
        "osm_type": "way",
        "osm_id": 1103996638,
        "sido": "인천광역시",
        "power_type": "line",
        "name": "",
        "description": "",
        "voltage": "154000",
        "cables": "6",
        "circuits": "2",
        "frequency": "60",
        "operator": "",
        "wires": ""
      }
    },
    {
      "type": "Feature",
      "geometry": {
        "type": "LineString",
        "coordinates": [
          [
            126.6892876,
            37.5881338
          ],
          [
            126.689206,
            37.5878431
          ],
          [
            126.6898218,
            37.5877304
          ],
          [
            126.690309,
            37.5875874
          ],
          [
            126.6908178,
            37.5873415
          ],
          [
            126.691283,
            37.5869941
          ],
          [
            126.6919418,
            37.5864658
          ],
          [
            126.6920815,
            37.5863613
          ],
          [
            126.6930988,
            37.5856005
          ],
          [
            126.6939838,
            37.5850406
          ],
          [
            126.6947741,
            37.5846459
          ],
          [
            126.6959266,
            37.5841847
          ],
          [
            126.697458,
            37.5835904
          ],
          [
            126.6967448,
            37.5833332
          ],
          [
            126.6965838,
            37.5832379
          ],
          [
            126.6966457,
            37.5831051
          ]
        ]
      },
      "properties": {
        "osm_type": "way",
        "osm_id": 1103996639,
        "sido": "인천광역시",
        "power_type": "cable",
        "name": "",
        "description": "",
        "voltage": "154000",
        "cables": "",
        "circuits": "2",
        "frequency": "60",
        "operator": "",
        "wires": ""
      }
    },
    {
      "type": "Feature",
      "geometry": {
        "type": "LineString",
        "coordinates": [
          [
            126.7073491,
            37.556567
          ],
          [
            126.7117822,
            37.5564152
          ],
          [
            126.7144373,
            37.5561249
          ],
          [
            126.7176092,
            37.5557947
          ],
          [
            126.7195467,
            37.5546873
          ],
          [
            126.7236523,
            37.5536681
          ],
          [
            126.7266748,
            37.5532277
          ],
          [
            126.7315788,
            37.5518818
          ],
          [
            126.7349297,
            37.5505302
          ],
          [
            126.7353512,
            37.5507418
          ]
        ]
      },
      "properties": {
        "osm_type": "way",
        "osm_id": 1103996640,
        "sido": "인천광역시",
        "power_type": "line",
        "name": "",
        "description": "",
        "voltage": "154000",
        "cables": "6",
        "circuits": "2",
        "frequency": "60",
        "operator": "",
        "wires": ""
      }
    },
    {
      "type": "Feature",
      "geometry": {
        "type": "LineString",
        "coordinates": [
          [
            126.6169429,
            37.5988178
          ],
          [
            126.6199084,
            37.600102
          ],
          [
            126.6222856,
            37.6018941
          ],
          [
            126.6218903,
            37.6049127
          ],
          [
            126.6212943,
            37.6076559
          ]
        ]
      },
      "properties": {
        "osm_type": "way",
        "osm_id": 1104011782,
        "sido": "인천광역시",
        "power_type": "line",
        "name": "",
        "description": "",
        "voltage": "154000",
        "cables": "6",
        "circuits": "2",
        "frequency": "60",
        "operator": "",
        "wires": ""
      }
    },
    {
      "type": "Feature",
      "geometry": {
        "type": "LineString",
        "coordinates": [
          [
            126.6224479,
            37.5873762
          ],
          [
            126.6224704,
            37.5862119
          ],
          [
            126.6195315,
            37.5861284
          ],
          [
            126.6165475,
            37.5860605
          ],
          [
            126.6135788,
            37.5859775
          ],
          [
            126.6103805,
            37.5876396
          ],
          [
            126.6065202,
            37.5880224
          ],
          [
            126.6037462,
            37.5865455
          ],
          [
            126.6030737,
            37.5837331
          ],
          [
            126.6040168,
            37.5807955
          ]
        ]
      },
      "properties": {
        "osm_type": "way",
        "osm_id": 1104011783,
        "sido": "인천광역시",
        "power_type": "line",
        "name": "",
        "description": "",
        "voltage": "154000",
        "cables": "6",
        "circuits": "2",
        "frequency": "60",
        "operator": "",
        "wires": ""
      }
    },
    {
      "type": "Feature",
      "geometry": {
        "type": "LineString",
        "coordinates": [
          [
            126.6113175,
            37.508587
          ],
          [
            126.6119911,
            37.5107495
          ]
        ]
      },
      "properties": {
        "osm_type": "way",
        "osm_id": 1104011784,
        "sido": "인천광역시",
        "power_type": "line",
        "name": "",
        "description": "",
        "voltage": "154000",
        "cables": "6",
        "circuits": "2",
        "frequency": "60",
        "operator": "",
        "wires": ""
      }
    },
    {
      "type": "Feature",
      "geometry": {
        "type": "LineString",
        "coordinates": [
          [
            126.6113175,
            37.508587
          ],
          [
            126.6133475,
            37.508673
          ],
          [
            126.6155694,
            37.5096202
          ]
        ]
      },
      "properties": {
        "osm_type": "way",
        "osm_id": 1104011785,
        "sido": "인천광역시",
        "power_type": "line",
        "name": "",
        "description": "",
        "voltage": "154000",
        "cables": "6",
        "circuits": "2",
        "frequency": "60",
        "operator": "",
        "wires": ""
      }
    },
    {
      "type": "Feature",
      "geometry": {
        "type": "LineString",
        "coordinates": [
          [
            126.6155694,
            37.5096202
          ],
          [
            126.6169113,
            37.509428
          ]
        ]
      },
      "properties": {
        "osm_type": "way",
        "osm_id": 1104011786,
        "sido": "인천광역시",
        "power_type": "line",
        "name": "",
        "description": "",
        "voltage": "154000",
        "cables": "3",
        "circuits": "1",
        "frequency": "60",
        "operator": "",
        "wires": ""
      }
    },
    {
      "type": "Feature",
      "geometry": {
        "type": "LineString",
        "coordinates": [
          [
            126.6155694,
            37.5096202
          ],
          [
            126.6178733,
            37.5093581
          ]
        ]
      },
      "properties": {
        "osm_type": "way",
        "osm_id": 1104011787,
        "sido": "인천광역시",
        "power_type": "line",
        "name": "",
        "description": "",
        "voltage": "154000",
        "cables": "3",
        "circuits": "1",
        "frequency": "60",
        "operator": "",
        "wires": ""
      }
    },
    {
      "type": "Feature",
      "geometry": {
        "type": "LineString",
        "coordinates": [
          [
            126.6332789,
            37.4932567
          ],
          [
            126.6343332,
            37.4905561
          ],
          [
            126.6372329,
            37.488639
          ],
          [
            126.6353636,
            37.4868735
          ],
          [
            126.6385779,
            37.4847745
          ],
          [
            126.6388474,
            37.4845881
          ]
        ]
      },
      "properties": {
        "osm_type": "way",
        "osm_id": 1104011788,
        "sido": "인천광역시",
        "power_type": "line",
        "name": "",
        "description": "",
        "voltage": "154000",
        "cables": "6",
        "circuits": "2",
        "frequency": "60",
        "operator": "",
        "wires": ""
      }
    },
    {
      "type": "Feature",
      "geometry": {
        "type": "LineString",
        "coordinates": [
          [
            126.6332789,
            37.4932567
          ],
          [
            126.6348454,
            37.4921593
          ],
          [
            126.6372084,
            37.4903505
          ],
          [
            126.6388134,
            37.4893391
          ],
          [
            126.6405319,
            37.4881861
          ],
          [
            126.642135,
            37.4871305
          ]
        ]
      },
      "properties": {
        "osm_type": "way",
        "osm_id": 1104011789,
        "sido": "인천광역시",
        "power_type": "line",
        "name": "",
        "description": "",
        "voltage": "154000",
        "cables": "6",
        "circuits": "2",
        "frequency": "60",
        "operator": "",
        "wires": ""
      }
    },
    {
      "type": "Feature",
      "geometry": {
        "type": "LineString",
        "coordinates": [
          [
            126.6698243,
            37.5678989
          ],
          [
            126.6706254,
            37.5705216
          ],
          [
            126.67162,
            37.5730197
          ],
          [
            126.6729205,
            37.5762135
          ]
        ]
      },
      "properties": {
        "osm_type": "way",
        "osm_id": 1104015416,
        "sido": "인천광역시",
        "power_type": "line",
        "name": "",
        "description": "",
        "voltage": "154000",
        "cables": "6",
        "circuits": "2",
        "frequency": "60",
        "operator": "",
        "wires": ""
      }
    },
    {
      "type": "Feature",
      "geometry": {
        "type": "LineString",
        "coordinates": [
          [
            126.6729205,
            37.5762135
          ],
          [
            126.672919,
            37.5763306
          ],
          [
            126.6735033,
            37.5763366
          ],
          [
            126.6735366,
            37.5783873
          ],
          [
            126.6735828,
            37.5812359
          ],
          [
            126.6735896,
            37.5816572
          ],
          [
            126.6733503,
            37.582162
          ],
          [
            126.6725987,
            37.5822457
          ],
          [
            126.6717776,
            37.5823514
          ],
          [
            126.6713425,
            37.582986
          ]
        ]
      },
      "properties": {
        "osm_type": "way",
        "osm_id": 1104021194,
        "sido": "인천광역시",
        "power_type": "cable",
        "name": "",
        "description": "",
        "voltage": "154000",
        "cables": "",
        "circuits": "2",
        "frequency": "60",
        "operator": "",
        "wires": ""
      }
    },
    {
      "type": "Feature",
      "geometry": {
        "type": "LineString",
        "coordinates": [
          [
            126.4922445,
            37.5043791
          ],
          [
            126.4792211,
            37.5091103
          ],
          [
            126.4697053,
            37.5127606
          ]
        ]
      },
      "properties": {
        "osm_type": "way",
        "osm_id": 1104423442,
        "sido": "인천광역시",
        "power_type": "minor_line",
        "name": "",
        "description": "",
        "voltage": "22900",
        "cables": "4",
        "circuits": "",
        "frequency": "60",
        "operator": "",
        "wires": ""
      }
    },
    {
      "type": "Feature",
      "geometry": {
        "type": "LineString",
        "coordinates": [
          [
            126.4063599,
            37.5333206
          ],
          [
            126.4047188,
            37.5334116
          ],
          [
            126.396016,
            37.5336699
          ],
          [
            126.3821764,
            37.5344307
          ],
          [
            126.3800249,
            37.5344481
          ]
        ]
      },
      "properties": {
        "osm_type": "way",
        "osm_id": 1104423443,
        "sido": "인천광역시",
        "power_type": "minor_line",
        "name": "",
        "description": "",
        "voltage": "22900",
        "cables": "",
        "circuits": "",
        "frequency": "60",
        "operator": "",
        "wires": ""
      }
    },
    {
      "type": "Feature",
      "geometry": {
        "type": "LineString",
        "coordinates": [
          [
            126.4103135,
            37.5368476
          ],
          [
            126.4131581,
            37.5367179
          ],
          [
            126.4209199,
            37.5363768
          ],
          [
            126.4226043,
            37.5362863
          ]
        ]
      },
      "properties": {
        "osm_type": "way",
        "osm_id": 1104423444,
        "sido": "인천광역시",
        "power_type": "minor_line",
        "name": "",
        "description": "",
        "voltage": "22900",
        "cables": "",
        "circuits": "",
        "frequency": "60",
        "operator": "",
        "wires": ""
      }
    },
    {
      "type": "Feature",
      "geometry": {
        "type": "LineString",
        "coordinates": [
          [
            126.6901512,
            37.4118087
          ],
          [
            126.6903782,
            37.411734
          ]
        ]
      },
      "properties": {
        "osm_type": "way",
        "osm_id": 1106253534,
        "sido": "인천광역시",
        "power_type": "line",
        "name": "",
        "description": "",
        "voltage": "154000",
        "cables": "3",
        "circuits": "1",
        "frequency": "60",
        "operator": "",
        "wires": ""
      }
    },
    {
      "type": "Feature",
      "geometry": {
        "type": "LineString",
        "coordinates": [
          [
            126.6901512,
            37.4118087
          ],
          [
            126.6902733,
            37.411645
          ]
        ]
      },
      "properties": {
        "osm_type": "way",
        "osm_id": 1106253535,
        "sido": "인천광역시",
        "power_type": "line",
        "name": "",
        "description": "",
        "voltage": "154000",
        "cables": "3",
        "circuits": "1",
        "frequency": "60",
        "operator": "",
        "wires": ""
      }
    },
    {
      "type": "Feature",
      "geometry": {
        "type": "LineString",
        "coordinates": [
          [
            126.6901512,
            37.4118087
          ],
          [
            126.6929667,
            37.4140749
          ],
          [
            126.695091,
            37.4156613
          ],
          [
            126.6972346,
            37.4172342
          ],
          [
            126.6993241,
            37.4188512
          ],
          [
            126.7012059,
            37.4207214
          ],
          [
            126.7029904,
            37.4225204
          ],
          [
            126.7048629,
            37.4243785
          ],
          [
            126.7067932,
            37.4265016
          ],
          [
            126.7085892,
            37.4284231
          ],
          [
            126.7081941,
            37.4302162
          ],
          [
            126.7081241,
            37.4308426
          ]
        ]
      },
      "properties": {
        "osm_type": "way",
        "osm_id": 1106253536,
        "sido": "인천광역시",
        "power_type": "line",
        "name": "",
        "description": "",
        "voltage": "154000",
        "cables": "6",
        "circuits": "2",
        "frequency": "60",
        "operator": "",
        "wires": ""
      }
    },
    {
      "type": "Feature",
      "geometry": {
        "type": "LineString",
        "coordinates": [
          [
            126.7267525,
            37.410955
          ],
          [
            126.7254871,
            37.4109423
          ]
        ]
      },
      "properties": {
        "osm_type": "way",
        "osm_id": 1106253537,
        "sido": "인천광역시",
        "power_type": "line",
        "name": "",
        "description": "",
        "voltage": "154000",
        "cables": "6",
        "circuits": "2",
        "frequency": "60",
        "operator": "",
        "wires": ""
      }
    },
    {
      "type": "Feature",
      "geometry": {
        "type": "LineString",
        "coordinates": [
          [
            126.7267525,
            37.410955
          ],
          [
            126.7244173,
            37.412534
          ],
          [
            126.7229089,
            37.4137904
          ],
          [
            126.7199634,
            37.4161607
          ],
          [
            126.716743,
            37.4170709
          ],
          [
            126.7131996,
            37.4181729
          ]
        ]
      },
      "properties": {
        "osm_type": "way",
        "osm_id": 1106253538,
        "sido": "인천광역시",
        "power_type": "line",
        "name": "",
        "description": "",
        "voltage": "154000",
        "cables": "6",
        "circuits": "2",
        "frequency": "60",
        "operator": "",
        "wires": ""
      }
    },
    {
      "type": "Feature",
      "geometry": {
        "type": "LineString",
        "coordinates": [
          [
            126.7131996,
            37.4181729
          ],
          [
            126.7127763,
            37.4180861
          ]
        ]
      },
      "properties": {
        "osm_type": "way",
        "osm_id": 1106253542,
        "sido": "인천광역시",
        "power_type": "line",
        "name": "",
        "description": "",
        "voltage": "154000",
        "cables": "3",
        "circuits": "1",
        "frequency": "60",
        "operator": "",
        "wires": ""
      }
    },
    {
      "type": "Feature",
      "geometry": {
        "type": "LineString",
        "coordinates": [
          [
            126.7131996,
            37.4181729
          ],
          [
            126.7127688,
            37.4182028
          ]
        ]
      },
      "properties": {
        "osm_type": "way",
        "osm_id": 1106253543,
        "sido": "인천광역시",
        "power_type": "line",
        "name": "",
        "description": "",
        "voltage": "154000",
        "cables": "3",
        "circuits": "1",
        "frequency": "60",
        "operator": "",
        "wires": ""
      }
    },
    {
      "type": "Feature",
      "geometry": {
        "type": "LineString",
        "coordinates": [
          [
            126.7361526,
            37.415469
          ],
          [
            126.734479,
            37.4143694
          ],
          [
            126.7322087,
            37.4133658
          ],
          [
            126.7300465,
            37.4124093
          ],
          [
            126.7267525,
            37.410955
          ]
        ]
      },
      "properties": {
        "osm_type": "way",
        "osm_id": 1106253544,
        "sido": "인천광역시",
        "power_type": "line",
        "name": "",
        "description": "",
        "voltage": "154000",
        "cables": "12",
        "circuits": "4",
        "frequency": "60",
        "operator": "",
        "wires": ""
      }
    },
    {
      "type": "Feature",
      "geometry": {
        "type": "LineString",
        "coordinates": [
          [
            126.7395062,
            37.4144194
          ],
          [
            126.7361526,
            37.415469
          ]
        ]
      },
      "properties": {
        "osm_type": "way",
        "osm_id": 1106253545,
        "sido": "인천광역시",
        "power_type": "line",
        "name": "",
        "description": "",
        "voltage": "154000",
        "cables": "9",
        "circuits": "3",
        "frequency": "60",
        "operator": "",
        "wires": ""
      }
    },
    {
      "type": "Feature",
      "geometry": {
        "type": "LineString",
        "coordinates": [
          [
            126.6945959,
            37.4922975
          ],
          [
            126.6918457,
            37.4942542
          ]
        ]
      },
      "properties": {
        "osm_type": "way",
        "osm_id": 1106317618,
        "sido": "인천광역시",
        "power_type": "line",
        "name": "",
        "description": "",
        "voltage": "154000",
        "cables": "6",
        "circuits": "2",
        "frequency": "60",
        "operator": "",
        "wires": ""
      }
    },
    {
      "type": "Feature",
      "geometry": {
        "type": "LineString",
        "coordinates": [
          [
            126.1533628,
            37.2258148
          ],
          [
            126.1600871,
            37.224043
          ]
        ]
      },
      "properties": {
        "osm_type": "way",
        "osm_id": 1106553221,
        "sido": "인천광역시",
        "power_type": "minor_line",
        "name": "",
        "description": "",
        "voltage": "22900",
        "cables": "4",
        "circuits": "",
        "frequency": "60",
        "operator": "",
        "wires": ""
      }
    },
    {
      "type": "Feature",
      "geometry": {
        "type": "LineString",
        "coordinates": [
          [
            126.2463374,
            37.1777085
          ],
          [
            126.2416194,
            37.1826235
          ]
        ]
      },
      "properties": {
        "osm_type": "way",
        "osm_id": 1106553222,
        "sido": "인천광역시",
        "power_type": "minor_line",
        "name": "",
        "description": "",
        "voltage": "22900",
        "cables": "4",
        "circuits": "",
        "frequency": "60",
        "operator": "",
        "wires": ""
      }
    },
    {
      "type": "Feature",
      "geometry": {
        "type": "LineString",
        "coordinates": [
          [
            126.3016409,
            37.1665786
          ],
          [
            126.2967176,
            37.1656107
          ],
          [
            126.2823587,
            37.1625929
          ],
          [
            126.27885,
            37.1616838
          ]
        ]
      },
      "properties": {
        "osm_type": "way",
        "osm_id": 1106553223,
        "sido": "인천광역시",
        "power_type": "minor_line",
        "name": "",
        "description": "",
        "voltage": "22900",
        "cables": "4",
        "circuits": "",
        "frequency": "60",
        "operator": "",
        "wires": ""
      }
    },
    {
      "type": "Feature",
      "geometry": {
        "type": "LineString",
        "coordinates": [
          [
            126.2176351,
            37.7762425
          ],
          [
            126.2178995,
            37.7759402
          ],
          [
            126.2182182,
            37.7757216
          ],
          [
            126.2183704,
            37.7756183
          ],
          [
            126.2187052,
            37.7753684
          ],
          [
            126.2190772,
            37.7750857
          ],
          [
            126.2195654,
            37.7747004
          ],
          [
            126.2196522,
            37.774637
          ]
        ]
      },
      "properties": {
        "osm_type": "way",
        "osm_id": 1266428083,
        "sido": "인천광역시",
        "power_type": "line",
        "name": "",
        "description": "",
        "voltage": "",
        "cables": "",
        "circuits": "",
        "frequency": "",
        "operator": "",
        "wires": ""
      }
    },
    {
      "type": "Feature",
      "geometry": {
        "type": "LineString",
        "coordinates": [
          [
            126.2199168,
            37.7748547
          ],
          [
            126.2196522,
            37.774637
          ],
          [
            126.2194548,
            37.7744604
          ],
          [
            126.219045,
            37.7741022
          ]
        ]
      },
      "properties": {
        "osm_type": "way",
        "osm_id": 1266428084,
        "sido": "인천광역시",
        "power_type": "line",
        "name": "",
        "description": "",
        "voltage": "",
        "cables": "",
        "circuits": "",
        "frequency": "",
        "operator": "",
        "wires": ""
      }
    },
    {
      "type": "Feature",
      "geometry": {
        "type": "LineString",
        "coordinates": [
          [
            126.2171199,
            37.7749995
          ],
          [
            126.2174205,
            37.7748584
          ],
          [
            126.2179189,
            37.7752837
          ],
          [
            126.2183704,
            37.7756183
          ],
          [
            126.2184167,
            37.7756982
          ],
          [
            126.2187848,
            37.775984
          ],
          [
            126.2190048,
            37.776166
          ],
          [
            126.2193773,
            37.776543
          ]
        ]
      },
      "properties": {
        "osm_type": "way",
        "osm_id": 1266428085,
        "sido": "인천광역시",
        "power_type": "line",
        "name": "",
        "description": "",
        "voltage": "",
        "cables": "",
        "circuits": "",
        "frequency": "",
        "operator": "",
        "wires": ""
      }
    },
    {
      "type": "Feature",
      "geometry": {
        "type": "LineString",
        "coordinates": [
          [
            126.4804481,
            37.7480681
          ],
          [
            126.4801823,
            37.7481029
          ],
          [
            126.4801251,
            37.7478438
          ]
        ]
      },
      "properties": {
        "osm_type": "way",
        "osm_id": 1283529940,
        "sido": "인천광역시",
        "power_type": "minor_line",
        "name": "",
        "description": "",
        "voltage": "",
        "cables": "",
        "circuits": "",
        "frequency": "",
        "operator": "",
        "wires": ""
      }
    },
    {
      "type": "Feature",
      "geometry": {
        "type": "LineString",
        "coordinates": [
          [
            126.4804481,
            37.7480681
          ],
          [
            126.4803826,
            37.7478427
          ],
          [
            126.4803236,
            37.7477059
          ],
          [
            126.4802646,
            37.7474779
          ]
        ]
      },
      "properties": {
        "osm_type": "way",
        "osm_id": 1283529941,
        "sido": "인천광역시",
        "power_type": "minor_line",
        "name": "",
        "description": "",
        "voltage": "",
        "cables": "",
        "circuits": "",
        "frequency": "",
        "operator": "",
        "wires": ""
      }
    },
    {
      "type": "Feature",
      "geometry": {
        "type": "LineString",
        "coordinates": [
          [
            126.4801823,
            37.7481029
          ],
          [
            126.4798462,
            37.7481386
          ],
          [
            126.4791757,
            37.7481197
          ],
          [
            126.4790448,
            37.7481477
          ],
          [
            126.4783411,
            37.7481884
          ],
          [
            126.4778441,
            37.7480678
          ],
          [
            126.4774375,
            37.7480477
          ]
        ]
      },
      "properties": {
        "osm_type": "way",
        "osm_id": 1283529947,
        "sido": "인천광역시",
        "power_type": "minor_line",
        "name": "",
        "description": "",
        "voltage": "",
        "cables": "",
        "circuits": "",
        "frequency": "",
        "operator": "",
        "wires": ""
      }
    },
    {
      "type": "Feature",
      "geometry": {
        "type": "LineString",
        "coordinates": [
          [
            126.480582,
            37.7488006
          ],
          [
            126.4803153,
            37.7489354
          ],
          [
            126.4802453,
            37.7491329
          ],
          [
            126.4798872,
            37.749339
          ],
          [
            126.479826,
            37.7493705
          ],
          [
            126.4796222,
            37.7494809
          ],
          [
            126.4792413,
            37.7497709
          ],
          [
            126.4790964,
            37.750057
          ],
          [
            126.4790641,
            37.7505467
          ],
          [
            126.4790641,
            37.7509024
          ],
          [
            126.4790533,
            37.7514371
          ],
          [
            126.4789329,
            37.7517603
          ],
          [
            126.4788798,
            37.7520493
          ],
          [
            126.4787416,
            37.752561
          ]
        ]
      },
      "properties": {
        "osm_type": "way",
        "osm_id": 1283536635,
        "sido": "인천광역시",
        "power_type": "minor_line",
        "name": "",
        "description": "",
        "voltage": "",
        "cables": "",
        "circuits": "",
        "frequency": "",
        "operator": "",
        "wires": ""
      }
    },
    {
      "type": "Feature",
      "geometry": {
        "type": "LineString",
        "coordinates": [
          [
            126.479826,
            37.7493705
          ],
          [
            126.4797611,
            37.749336
          ]
        ]
      },
      "properties": {
        "osm_type": "way",
        "osm_id": 1283536637,
        "sido": "인천광역시",
        "power_type": "minor_line",
        "name": "",
        "description": "",
        "voltage": "",
        "cables": "",
        "circuits": "",
        "frequency": "",
        "operator": "",
        "wires": ""
      }
    },
    {
      "type": "Feature",
      "geometry": {
        "type": "LineString",
        "coordinates": [
          [
            126.4766216,
            37.7480951
          ],
          [
            126.4766637,
            37.7479778
          ],
          [
            126.4764477,
            37.747892
          ],
          [
            126.4763321,
            37.7479686
          ],
          [
            126.4762434,
            37.7479861
          ],
          [
            126.4759836,
            37.7482372
          ],
          [
            126.4757859,
            37.7483894
          ],
          [
            126.4756272,
            37.7485221
          ],
          [
            126.4753567,
            37.7488162
          ],
          [
            126.4751408,
            37.749243
          ],
          [
            126.4750693,
            37.7493951
          ],
          [
            126.4749078,
            37.7497387
          ],
          [
            126.4750138,
            37.7501627
          ],
          [
            126.4747964,
            37.7504513
          ]
        ]
      },
      "properties": {
        "osm_type": "way",
        "osm_id": 1283549891,
        "sido": "인천광역시",
        "power_type": "minor_line",
        "name": "",
        "description": "",
        "voltage": "",
        "cables": "",
        "circuits": "",
        "frequency": "",
        "operator": "",
        "wires": ""
      }
    },
    {
      "type": "Feature",
      "geometry": {
        "type": "LineString",
        "coordinates": [
          [
            126.4762434,
            37.7479861
          ],
          [
            126.4766216,
            37.7480951
          ],
          [
            126.4768776,
            37.7483194
          ],
          [
            126.4771059,
            37.7486174
          ]
        ]
      },
      "properties": {
        "osm_type": "way",
        "osm_id": 1283549892,
        "sido": "인천광역시",
        "power_type": "minor_line",
        "name": "",
        "description": "",
        "voltage": "",
        "cables": "",
        "circuits": "",
        "frequency": "",
        "operator": "",
        "wires": ""
      }
    },
    {
      "type": "Feature",
      "geometry": {
        "type": "LineString",
        "coordinates": [
          [
            126.476943,
            37.7487489
          ],
          [
            126.4771059,
            37.7486174
          ]
        ]
      },
      "properties": {
        "osm_type": "way",
        "osm_id": 1283549893,
        "sido": "인천광역시",
        "power_type": "minor_line",
        "name": "",
        "description": "",
        "voltage": "",
        "cables": "",
        "circuits": "",
        "frequency": "",
        "operator": "",
        "wires": ""
      }
    },
    {
      "type": "Feature",
      "geometry": {
        "type": "LineString",
        "coordinates": [
          [
            126.4783411,
            37.7481884
          ],
          [
            126.4783904,
            37.748147
          ],
          [
            126.4787278,
            37.7481592
          ],
          [
            126.4788102,
            37.7481525
          ]
        ]
      },
      "properties": {
        "osm_type": "way",
        "osm_id": 1283556085,
        "sido": "인천광역시",
        "power_type": "minor_line",
        "name": "",
        "description": "",
        "voltage": "",
        "cables": "",
        "circuits": "",
        "frequency": "",
        "operator": "",
        "wires": ""
      }
    },
    {
      "type": "Feature",
      "geometry": {
        "type": "LineString",
        "coordinates": [
          [
            126.4774375,
            37.7480477
          ],
          [
            126.4770653,
            37.7478354
          ]
        ]
      },
      "properties": {
        "osm_type": "way",
        "osm_id": 1283556086,
        "sido": "인천광역시",
        "power_type": "minor_line",
        "name": "",
        "description": "",
        "voltage": "",
        "cables": "",
        "circuits": "",
        "frequency": "",
        "operator": "",
        "wires": ""
      }
    },
    {
      "type": "Feature",
      "geometry": {
        "type": "LineString",
        "coordinates": [
          [
            126.4801823,
            37.7481029
          ],
          [
            126.4804368,
            37.7482661
          ],
          [
            126.4805133,
            37.748562
          ],
          [
            126.480582,
            37.7488006
          ],
          [
            126.4806385,
            37.7490009
          ],
          [
            126.4807288,
            37.7492849
          ]
        ]
      },
      "properties": {
        "osm_type": "way",
        "osm_id": 1286978096,
        "sido": "인천광역시",
        "power_type": "minor_line",
        "name": "",
        "description": "",
        "voltage": "",
        "cables": "",
        "circuits": "",
        "frequency": "",
        "operator": "",
        "wires": ""
      }
    },
    {
      "type": "Feature",
      "geometry": {
        "type": "LineString",
        "coordinates": [
          [
            126.4790533,
            37.7514371
          ],
          [
            126.4786007,
            37.7514464
          ],
          [
            126.4782417,
            37.7514423
          ],
          [
            126.4779465,
            37.7514978
          ],
          [
            126.4778229,
            37.7514464
          ],
          [
            126.4774926,
            37.7514083
          ],
          [
            126.4771063,
            37.7513847
          ],
          [
            126.4765146,
            37.7511533
          ],
          [
            126.4762172,
            37.7510324
          ],
          [
            126.4759965,
            37.7508945
          ],
          [
            126.4755493,
            37.751172
          ],
          [
            126.4752934,
            37.7508882
          ],
          [
            126.47505,
            37.7506116
          ],
          [
            126.4747964,
            37.7504513
          ]
        ]
      },
      "properties": {
        "osm_type": "way",
        "osm_id": 1287944178,
        "sido": "인천광역시",
        "power_type": "minor_line",
        "name": "",
        "description": "",
        "voltage": "",
        "cables": "",
        "circuits": "",
        "frequency": "",
        "operator": "",
        "wires": ""
      }
    },
    {
      "type": "Feature",
      "geometry": {
        "type": "LineString",
        "coordinates": [
          [
            126.477767,
            37.7514906
          ],
          [
            126.4778229,
            37.7514464
          ]
        ]
      },
      "properties": {
        "osm_type": "way",
        "osm_id": 1287944179,
        "sido": "인천광역시",
        "power_type": "minor_line",
        "name": "",
        "description": "",
        "voltage": "",
        "cables": "",
        "circuits": "",
        "frequency": "",
        "operator": "",
        "wires": ""
      }
    },
    {
      "type": "Feature",
      "geometry": {
        "type": "LineString",
        "coordinates": [
          [
            126.6713425,
            37.582986
          ],
          [
            126.66947,
            37.586511
          ],
          [
            126.6658243,
            37.5880756
          ],
          [
            126.662188,
            37.5895538
          ],
          [
            126.6601667,
            37.5902603
          ],
          [
            126.657836,
            37.5910355
          ]
        ]
      },
      "properties": {
        "osm_type": "way",
        "osm_id": 1419595816,
        "sido": "인천광역시",
        "power_type": "line",
        "name": "",
        "description": "",
        "voltage": "154000",
        "cables": "6",
        "circuits": "2",
        "frequency": "60",
        "operator": "",
        "wires": ""
      }
    },
    {
      "type": "Feature",
      "geometry": {
        "type": "LineString",
        "coordinates": [
          [
            126.6930779,
            37.4888633
          ],
          [
            126.6939463,
            37.4883268
          ]
        ]
      },
      "properties": {
        "osm_type": "way",
        "osm_id": 1433038426,
        "sido": "인천광역시",
        "power_type": "line",
        "name": "",
        "description": "",
        "voltage": "345000",
        "cables": "3",
        "circuits": "",
        "frequency": "60",
        "operator": "",
        "wires": ""
      }
    },
    {
      "type": "Feature",
      "geometry": {
        "type": "LineString",
        "coordinates": [
          [
            126.6942742,
            37.4885356
          ],
          [
            126.6937459,
            37.4890942
          ]
        ]
      },
      "properties": {
        "osm_type": "way",
        "osm_id": 1433038427,
        "sido": "인천광역시",
        "power_type": "line",
        "name": "",
        "description": "",
        "voltage": "345000",
        "cables": "3",
        "circuits": "2",
        "frequency": "60",
        "operator": "",
        "wires": ""
      }
    },
    {
      "type": "Feature",
      "geometry": {
        "type": "LineString",
        "coordinates": [
          [
            126.6935289,
            37.4890192
          ],
          [
            126.6942742,
            37.4885356
          ]
        ]
      },
      "properties": {
        "osm_type": "way",
        "osm_id": 1433038428,
        "sido": "인천광역시",
        "power_type": "line",
        "name": "",
        "description": "",
        "voltage": "345000",
        "cables": "3",
        "circuits": "",
        "frequency": "60",
        "operator": "",
        "wires": ""
      }
    },
    {
      "type": "Feature",
      "geometry": {
        "type": "LineString",
        "coordinates": [
          [
            126.693314,
            37.4889449
          ],
          [
            126.6939463,
            37.4883268
          ]
        ]
      },
      "properties": {
        "osm_type": "way",
        "osm_id": 1433038429,
        "sido": "인천광역시",
        "power_type": "line",
        "name": "",
        "description": "",
        "voltage": "345000",
        "cables": "3",
        "circuits": "",
        "frequency": "60",
        "operator": "",
        "wires": ""
      }
    }
  ]
}