{
  "type": "FeatureCollection",
  "features": [
    {
      "type": "Feature",
      "geometry": {
        "type": "Point",
        "coordinates": [
          129.4405294,
          36.7074943
        ]
      },
      "properties": {
        "osm_type": "node",
        "osm_id": 7885077990,
        "sido": "경상북도",
        "name": "",
        "name_en": "",
        "substation_type": "",
        "voltage": "",
        "frequency": "",
        "operator": "",
        "location": ""
      }
    },
    {
      "type": "Feature",
      "geometry": {
        "type": "Point",
        "coordinates": [
          129.4073356,
          35.9393258
        ]
      },
      "properties": {
        "osm_type": "way",
        "osm_id": 143605191,
        "sido": "경상북도",
        "name": "신포항 변전소",
        "name_en": "New Pohang Substation",
        "substation_type": "transmission",
        "voltage": "345000",
        "frequency": "60",
        "operator": "",
        "location": "outdoor"
      }
    },
    {
      "type": "Feature",
      "geometry": {
        "type": "Point",
        "coordinates": [
          129.3813723,
          37.0899706
        ]
      },
      "properties": {
        "osm_type": "way",
        "osm_id": 143993310,
        "sido": "경상북도",
        "name": "",
        "name_en": "",
        "substation_type": "transmission",
        "voltage": "345000",
        "frequency": "60",
        "operator": "",
        "location": "outdoor"
      }
    },
    {
      "type": "Feature",
      "geometry": {
        "type": "Point",
        "coordinates": [
          128.8347894,
          35.8720446
        ]
      },
      "properties": {
        "osm_type": "way",
        "osm_id": 308765055,
        "sido": "경상북도",
        "name": "신경산변전소",
        "name_en": "Shin-Gyeongsan Substation",
        "substation_type": "transmission",
        "voltage": "345000",
        "frequency": "60",
        "operator": "",
        "location": "outdoor"
      }
    },
    {
      "type": "Feature",
      "geometry": {
        "type": "Point",
        "coordinates": [
          128.4051738,
          35.7336762
        ]
      },
      "properties": {
        "osm_type": "way",
        "osm_id": 308770040,
        "sido": "경상북도",
        "name": "고령변전소",
        "name_en": "Goryeong Substation",
        "substation_type": "transmission",
        "voltage": "345000",
        "frequency": "60",
        "operator": "",
        "location": "outdoor"
      }
    },
    {
      "type": "Feature",
      "geometry": {
        "type": "Point",
        "coordinates": [
          129.4787399,
          35.719981
        ]
      },
      "properties": {
        "osm_type": "way",
        "osm_id": 308775743,
        "sido": "경상북도",
        "name": "",
        "name_en": "",
        "substation_type": "transmission",
        "voltage": "345000",
        "frequency": "60",
        "operator": "",
        "location": "outdoor"
      }
    },
    {
      "type": "Feature",
      "geometry": {
        "type": "Point",
        "coordinates": [
          128.4061712,
          35.97082
        ]
      },
      "properties": {
        "osm_type": "way",
        "osm_id": 308786013,
        "sido": "경상북도",
        "name": "서대구 변전소",
        "name_en": "West Daegu Substation",
        "substation_type": "transmission",
        "voltage": "345000",
        "frequency": "60",
        "operator": "",
        "location": "outdoor"
      }
    },
    {
      "type": "Feature",
      "geometry": {
        "type": "Point",
        "coordinates": [
          128.9631936,
          35.9874324
        ]
      },
      "properties": {
        "osm_type": "way",
        "osm_id": 308953835,
        "sido": "경상북도",
        "name": "영천변전소",
        "name_en": "Yeongcheon Substation",
        "substation_type": "transmission",
        "voltage": "154000",
        "frequency": "60",
        "operator": "",
        "location": "outdoor"
      }
    },
    {
      "type": "Feature",
      "geometry": {
        "type": "Point",
        "coordinates": [
          128.565534,
          36.7753392
        ]
      },
      "properties": {
        "osm_type": "way",
        "osm_id": 310995902,
        "sido": "경상북도",
        "name": "신영주변전소",
        "name_en": "New Yeongju Substation",
        "substation_type": "transmission",
        "voltage": "345000",
        "frequency": "60",
        "operator": "",
        "location": "outdoor"
      }
    },
    {
      "type": "Feature",
      "geometry": {
        "type": "Point",
        "coordinates": [
          129.3662902,
          35.9584068
        ]
      },
      "properties": {
        "osm_type": "way",
        "osm_id": 311144458,
        "sido": "경상북도",
        "name": "영일변전소",
        "name_en": "Yeongil Substation",
        "substation_type": "distribution",
        "voltage": "154000",
        "frequency": "60",
        "operator": "",
        "location": "outdoor"
      }
    },
    {
      "type": "Feature",
      "geometry": {
        "type": "Point",
        "coordinates": [
          128.7928512,
          35.9180442
        ]
      },
      "properties": {
        "osm_type": "way",
        "osm_id": 311144494,
        "sido": "경상북도",
        "name": "하양변전소",
        "name_en": "Hayang Substation",
        "substation_type": "distribution",
        "voltage": "154000",
        "frequency": "60",
        "operator": "",
        "location": "indoor"
      }
    },
    {
      "type": "Feature",
      "geometry": {
        "type": "Point",
        "coordinates": [
          129.3758876,
          35.9485414
        ]
      },
      "properties": {
        "osm_type": "way",
        "osm_id": 311144498,
        "sido": "경상북도",
        "name": "대송변전소",
        "name_en": "",
        "substation_type": "distribution",
        "voltage": "154000",
        "frequency": "60",
        "operator": "",
        "location": "outdoor"
      }
    },
    {
      "type": "Feature",
      "geometry": {
        "type": "Point",
        "coordinates": [
          129.2441472,
          35.9145103
        ]
      },
      "properties": {
        "osm_type": "way",
        "osm_id": 311144501,
        "sido": "경상북도",
        "name": "천북변전소",
        "name_en": "Cheonbuk Substation",
        "substation_type": "distribution",
        "voltage": "154000",
        "frequency": "60",
        "operator": "",
        "location": "indoor"
      }
    },
    {
      "type": "Feature",
      "geometry": {
        "type": "Point",
        "coordinates": [
          129.4061308,
          35.9411052
        ]
      },
      "properties": {
        "osm_type": "way",
        "osm_id": 311149683,
        "sido": "경상북도",
        "name": "",
        "name_en": "",
        "substation_type": "",
        "voltage": "",
        "frequency": "",
        "operator": "",
        "location": ""
      }
    },
    {
      "type": "Feature",
      "geometry": {
        "type": "Point",
        "coordinates": [
          128.3906711,
          35.7857459
        ]
      },
      "properties": {
        "osm_type": "way",
        "osm_id": 312375501,
        "sido": "경상북도",
        "name": "다산변전소",
        "name_en": "Dasan Substation",
        "substation_type": "distribution",
        "voltage": "154000",
        "frequency": "60",
        "operator": "",
        "location": "outdoor"
      }
    },
    {
      "type": "Feature",
      "geometry": {
        "type": "Point",
        "coordinates": [
          128.4221493,
          35.9709463
        ]
      },
      "properties": {
        "osm_type": "way",
        "osm_id": 312895039,
        "sido": "경상북도",
        "name": "칠곡변전소",
        "name_en": "",
        "substation_type": "distribution",
        "voltage": "154000",
        "frequency": "60",
        "operator": "",
        "location": "outdoor"
      }
    },
    {
      "type": "Feature",
      "geometry": {
        "type": "Point",
        "coordinates": [
          128.6984664,
          35.6520186
        ]
      },
      "properties": {
        "osm_type": "way",
        "osm_id": 313355123,
        "sido": "경상북도",
        "name": "청도변전소",
        "name_en": "",
        "substation_type": "distribution",
        "voltage": "154000",
        "frequency": "60",
        "operator": "",
        "location": "indoor"
      }
    },
    {
      "type": "Feature",
      "geometry": {
        "type": "Point",
        "coordinates": [
          129.484125,
          35.9781457
        ]
      },
      "properties": {
        "osm_type": "way",
        "osm_id": 313357457,
        "sido": "경상북도",
        "name": "상정변전소",
        "name_en": "Sangjeong Substation",
        "substation_type": "distribution",
        "voltage": "154000",
        "frequency": "60",
        "operator": "",
        "location": "indoor"
      }
    },
    {
      "type": "Feature",
      "geometry": {
        "type": "Point",
        "coordinates": [
          129.3755658,
          35.9938397
        ]
      },
      "properties": {
        "osm_type": "way",
        "osm_id": 313357459,
        "sido": "경상북도",
        "name": "",
        "name_en": "",
        "substation_type": "distribution",
        "voltage": "154000",
        "frequency": "60",
        "operator": "",
        "location": "outdoor"
      }
    },
    {
      "type": "Feature",
      "geometry": {
        "type": "Point",
        "coordinates": [
          129.3242226,
          35.6679445
        ]
      },
      "properties": {
        "osm_type": "way",
        "osm_id": 313367321,
        "sido": "경상북도",
        "name": "외동변전소",
        "name_en": "",
        "substation_type": "distribution",
        "voltage": "154000",
        "frequency": "60",
        "operator": "",
        "location": "indoor"
      }
    },
    {
      "type": "Feature",
      "geometry": {
        "type": "Point",
        "coordinates": [
          128.1713383,
          36.6034847
        ]
      },
      "properties": {
        "osm_type": "way",
        "osm_id": 316124756,
        "sido": "경상북도",
        "name": "점촌변전소",
        "name_en": "Jeomchon Substation",
        "substation_type": "distribution",
        "voltage": "154000",
        "frequency": "60",
        "operator": "",
        "location": "outdoor"
      }
    },
    {
      "type": "Feature",
      "geometry": {
        "type": "Point",
        "coordinates": [
          128.1478203,
          36.419367
        ]
      },
      "properties": {
        "osm_type": "way",
        "osm_id": 316124760,
        "sido": "경상북도",
        "name": "상주변전소",
        "name_en": "Sangju Substation",
        "substation_type": "distribution",
        "voltage": "154000",
        "frequency": "60",
        "operator": "",
        "location": "indoor"
      }
    },
    {
      "type": "Feature",
      "geometry": {
        "type": "Point",
        "coordinates": [
          128.9343836,
          36.9170888
        ]
      },
      "properties": {
        "osm_type": "way",
        "osm_id": 330322048,
        "sido": "경상북도",
        "name": "",
        "name_en": "",
        "substation_type": "",
        "voltage": "154000",
        "frequency": "60",
        "operator": "",
        "location": ""
      }
    },
    {
      "type": "Feature",
      "geometry": {
        "type": "Point",
        "coordinates": [
          128.8563927,
          36.9128084
        ]
      },
      "properties": {
        "osm_type": "way",
        "osm_id": 472316050,
        "sido": "경상북도",
        "name": "봉화변전소",
        "name_en": "Ponghwa Subtation",
        "substation_type": "",
        "voltage": "154000",
        "frequency": "",
        "operator": "",
        "location": ""
      }
    },
    {
      "type": "Feature",
      "geometry": {
        "type": "Point",
        "coordinates": [
          128.8366482,
          35.8714917
        ]
      },
      "properties": {
        "osm_type": "way",
        "osm_id": 680438276,
        "sido": "경상북도",
        "name": "경산변전소",
        "name_en": "Gyeongsan Substation",
        "substation_type": "distribution",
        "voltage": "154000",
        "frequency": "60",
        "operator": "",
        "location": "outdoor"
      }
    },
    {
      "type": "Feature",
      "geometry": {
        "type": "Point",
        "coordinates": [
          128.9457903,
          35.9069134
        ]
      },
      "properties": {
        "osm_type": "way",
        "osm_id": 680438291,
        "sido": "경상북도",
        "name": "금호변전소",
        "name_en": "Geumho Substation",
        "substation_type": "distribution",
        "voltage": "154000",
        "frequency": "60",
        "operator": "",
        "location": "outdoor"
      }
    },
    {
      "type": "Feature",
      "geometry": {
        "type": "Point",
        "coordinates": [
          128.316615,
          36.1344489
        ]
      },
      "properties": {
        "osm_type": "way",
        "osm_id": 762852356,
        "sido": "경상북도",
        "name": "",
        "name_en": "",
        "substation_type": "traction",
        "voltage": "55000;27500",
        "frequency": "",
        "operator": "",
        "location": ""
      }
    },
    {
      "type": "Feature",
      "geometry": {
        "type": "Point",
        "coordinates": [
          128.5399317,
          36.5932959
        ]
      },
      "properties": {
        "osm_type": "way",
        "osm_id": 814635252,
        "sido": "경상북도",
        "name": "",
        "name_en": "",
        "substation_type": "",
        "voltage": "",
        "frequency": "",
        "operator": "",
        "location": ""
      }
    },
    {
      "type": "Feature",
      "geometry": {
        "type": "Point",
        "coordinates": [
          128.430318,
          36.1776806
        ]
      },
      "properties": {
        "osm_type": "way",
        "osm_id": 880532874,
        "sido": "경상북도",
        "name": "선산변전소",
        "name_en": "Shin-Sanbyeon Substation",
        "substation_type": "transmission",
        "voltage": "345000",
        "frequency": "60",
        "operator": "",
        "location": "outdoor"
      }
    },
    {
      "type": "Feature",
      "geometry": {
        "type": "Point",
        "coordinates": [
          129.392554,
          35.9976105
        ]
      },
      "properties": {
        "osm_type": "way",
        "osm_id": 883725331,
        "sido": "경상북도",
        "name": "포스코변전소",
        "name_en": "POSCO Substation",
        "substation_type": "transmission",
        "voltage": "345000",
        "frequency": "60",
        "operator": "",
        "location": "outdoor"
      }
    },
    {
      "type": "Feature",
      "geometry": {
        "type": "Point",
        "coordinates": [
          129.2379151,
          36.0820529
        ]
      },
      "properties": {
        "osm_type": "way",
        "osm_id": 883725334,
        "sido": "경상북도",
        "name": "신영일변전소",
        "name_en": "Shin-Yeongil Substation",
        "substation_type": "transmission",
        "voltage": "345000",
        "frequency": "60",
        "operator": "",
        "location": "outdoor"
      }
    },
    {
      "type": "Feature",
      "geometry": {
        "type": "Point",
        "coordinates": [
          128.6701342,
          36.3418649
        ]
      },
      "properties": {
        "osm_type": "way",
        "osm_id": 884033661,
        "sido": "경상북도",
        "name": "의성변전소",
        "name_en": "Uiseong Substation",
        "substation_type": "transmission",
        "voltage": "154000",
        "frequency": "60",
        "operator": "",
        "location": "outdoor"
      }
    },
    {
      "type": "Feature",
      "geometry": {
        "type": "Point",
        "coordinates": [
          128.4166977,
          36.1162167
        ]
      },
      "properties": {
        "osm_type": "way",
        "osm_id": 884033665,
        "sido": "경상북도",
        "name": "인동변전소",
        "name_en": "Indong Substation",
        "substation_type": "distribution",
        "voltage": "154000",
        "frequency": "60",
        "operator": "",
        "location": "outdoor"
      }
    },
    {
      "type": "Feature",
      "geometry": {
        "type": "Point",
        "coordinates": [
          129.3890903,
          37.0812365
        ]
      },
      "properties": {
        "osm_type": "way",
        "osm_id": 884263043,
        "sido": "경상북도",
        "name": "",
        "name_en": "",
        "substation_type": "transmission",
        "voltage": "765000",
        "frequency": "60",
        "operator": "",
        "location": "outdoor"
      }
    },
    {
      "type": "Feature",
      "geometry": {
        "type": "Point",
        "coordinates": [
          129.016099,
          36.4059494
        ]
      },
      "properties": {
        "osm_type": "way",
        "osm_id": 884641930,
        "sido": "경상북도",
        "name": "청송양수변전소",
        "name_en": "Cheongsong Pumped Water Substation",
        "substation_type": "transmission",
        "voltage": "345000",
        "frequency": "60",
        "operator": "",
        "location": "outdoor"
      }
    },
    {
      "type": "Feature",
      "geometry": {
        "type": "Point",
        "coordinates": [
          128.743624,
          36.5870708
        ]
      },
      "properties": {
        "osm_type": "way",
        "osm_id": 888330017,
        "sido": "경상북도",
        "name": "안동변전소",
        "name_en": "Andong Substation",
        "substation_type": "distribution",
        "voltage": "154000",
        "frequency": "60",
        "operator": "",
        "location": "indoor"
      }
    },
    {
      "type": "Feature",
      "geometry": {
        "type": "Point",
        "coordinates": [
          129.3743616,
          36.421884
        ]
      },
      "properties": {
        "osm_type": "way",
        "osm_id": 888564838,
        "sido": "경상북도",
        "name": "영덕변전소",
        "name_en": "Yeongdeok Substation",
        "substation_type": "distribution",
        "voltage": "154000",
        "frequency": "60",
        "operator": "",
        "location": "outdoor"
      }
    },
    {
      "type": "Feature",
      "geometry": {
        "type": "Point",
        "coordinates": [
          129.0769047,
          36.5362111
        ]
      },
      "properties": {
        "osm_type": "way",
        "osm_id": 888564845,
        "sido": "경상북도",
        "name": "진보변전소",
        "name_en": "Jinbo Substation",
        "substation_type": "distribution",
        "voltage": "154000",
        "frequency": "60",
        "operator": "",
        "location": "indoor"
      }
    },
    {
      "type": "Feature",
      "geometry": {
        "type": "Point",
        "coordinates": [
          128.7775807,
          36.528831
        ]
      },
      "properties": {
        "osm_type": "way",
        "osm_id": 888564849,
        "sido": "경상북도",
        "name": "동안동변전소",
        "name_en": "East-Andong Substation",
        "substation_type": "distribution",
        "voltage": "154000",
        "frequency": "60",
        "operator": "",
        "location": "indoor"
      }
    },
    {
      "type": "Feature",
      "geometry": {
        "type": "Point",
        "coordinates": [
          128.862645,
          35.9499839
        ]
      },
      "properties": {
        "osm_type": "way",
        "osm_id": 891179671,
        "sido": "경상북도",
        "name": "청통변전소",
        "name_en": "",
        "substation_type": "distribution",
        "voltage": "154000",
        "frequency": "60",
        "operator": "",
        "location": "indoor"
      }
    },
    {
      "type": "Feature",
      "geometry": {
        "type": "Point",
        "coordinates": [
          129.4460638,
          35.7690656
        ]
      },
      "properties": {
        "osm_type": "way",
        "osm_id": 891179675,
        "sido": "경상북도",
        "name": "양북변전소",
        "name_en": "Yangbuk Substation",
        "substation_type": "distribution",
        "voltage": "154000",
        "frequency": "60",
        "operator": "",
        "location": "indoor"
      }
    },
    {
      "type": "Feature",
      "geometry": {
        "type": "Point",
        "coordinates": [
          129.0333429,
          35.9033574
        ]
      },
      "properties": {
        "osm_type": "way",
        "osm_id": 891179678,
        "sido": "경상북도",
        "name": "아화변전소",
        "name_en": "Ahwa Substation",
        "substation_type": "distribution",
        "voltage": "154000",
        "frequency": "60",
        "operator": "",
        "location": "indoor"
      }
    },
    {
      "type": "Feature",
      "geometry": {
        "type": "Point",
        "coordinates": [
          129.3571166,
          36.0516213
        ]
      },
      "properties": {
        "osm_type": "way",
        "osm_id": 891179683,
        "sido": "경상북도",
        "name": "북포항변전소",
        "name_en": "North-Pohang Substation",
        "substation_type": "distribution",
        "voltage": "154000",
        "frequency": "60",
        "operator": "",
        "location": "indoor"
      }
    },
    {
      "type": "Feature",
      "geometry": {
        "type": "Point",
        "coordinates": [
          129.3468477,
          36.0107781
        ]
      },
      "properties": {
        "osm_type": "way",
        "osm_id": 891179687,
        "sido": "경상북도",
        "name": "남포항변전소",
        "name_en": "",
        "substation_type": "distribution",
        "voltage": "154000",
        "frequency": "60",
        "operator": "",
        "location": "indoor"
      }
    },
    {
      "type": "Feature",
      "geometry": {
        "type": "Point",
        "coordinates": [
          129.2426755,
          35.8472818
        ]
      },
      "properties": {
        "osm_type": "way",
        "osm_id": 891179698,
        "sido": "경상북도",
        "name": "경주변전소",
        "name_en": "",
        "substation_type": "distribution",
        "voltage": "154000",
        "frequency": "60",
        "operator": "",
        "location": "outdoor"
      }
    },
    {
      "type": "Feature",
      "geometry": {
        "type": "Point",
        "coordinates": [
          129.125971,
          35.8274265
        ]
      },
      "properties": {
        "osm_type": "way",
        "osm_id": 891179699,
        "sido": "경상북도",
        "name": "건천변전소",
        "name_en": "Geoncheon Substation",
        "substation_type": "traction",
        "voltage": "154000;25000",
        "frequency": "60",
        "operator": "",
        "location": "indoor"
      }
    },
    {
      "type": "Feature",
      "geometry": {
        "type": "Point",
        "coordinates": [
          129.3461542,
          36.1551499
        ]
      },
      "properties": {
        "osm_type": "way",
        "osm_id": 891196915,
        "sido": "경상북도",
        "name": "청하변전소",
        "name_en": "Cheongha Substation",
        "substation_type": "distribution",
        "voltage": "154000",
        "frequency": "60",
        "operator": "",
        "location": "indoor"
      }
    },
    {
      "type": "Feature",
      "geometry": {
        "type": "Point",
        "coordinates": [
          128.1258221,
          36.1599911
        ]
      },
      "properties": {
        "osm_type": "way",
        "osm_id": 891430001,
        "sido": "경상북도",
        "name": "어모변전소",
        "name_en": "",
        "substation_type": "distribution",
        "voltage": "154000",
        "frequency": "60",
        "operator": "",
        "location": "outdoor"
      }
    },
    {
      "type": "Feature",
      "geometry": {
        "type": "Point",
        "coordinates": [
          128.1827406,
          36.1312406
        ]
      },
      "properties": {
        "osm_type": "way",
        "osm_id": 891430006,
        "sido": "경상북도",
        "name": "농소변전소",
        "name_en": "",
        "substation_type": "distribution",
        "voltage": "154000",
        "frequency": "60",
        "operator": "",
        "location": "indoor"
      }
    },
    {
      "type": "Feature",
      "geometry": {
        "type": "Point",
        "coordinates": [
          128.3575393,
          36.0813178
        ]
      },
      "properties": {
        "osm_type": "way",
        "osm_id": 891430008,
        "sido": "경상북도",
        "name": "남구미변전소",
        "name_en": "South-Gumi Substation",
        "substation_type": "distribution",
        "voltage": "154000",
        "frequency": "60",
        "operator": "",
        "location": "indoor"
      }
    },
    {
      "type": "Feature",
      "geometry": {
        "type": "Point",
        "coordinates": [
          128.0975189,
          36.08105
        ]
      },
      "properties": {
        "osm_type": "way",
        "osm_id": 891430010,
        "sido": "경상북도",
        "name": "금릉변전소",
        "name_en": "Geumneung Substation",
        "substation_type": "distribution",
        "voltage": "154000",
        "frequency": "60",
        "operator": "",
        "location": "indoor"
      }
    },
    {
      "type": "Feature",
      "geometry": {
        "type": "Point",
        "coordinates": [
          128.1350416,
          36.132927
        ]
      },
      "properties": {
        "osm_type": "way",
        "osm_id": 891430013,
        "sido": "경상북도",
        "name": "김천변전소",
        "name_en": "Gimcheon Substation",
        "substation_type": "distribution",
        "voltage": "154000",
        "frequency": "60",
        "operator": "",
        "location": "outdoor"
      }
    },
    {
      "type": "Feature",
      "geometry": {
        "type": "Point",
        "coordinates": [
          128.3716862,
          36.0990293
        ]
      },
      "properties": {
        "osm_type": "way",
        "osm_id": 891430015,
        "sido": "경상북도",
        "name": "광평변전소",
        "name_en": "",
        "substation_type": "distribution",
        "voltage": "154000",
        "frequency": "60",
        "operator": "",
        "location": "outdoor"
      }
    },
    {
      "type": "Feature",
      "geometry": {
        "type": "Point",
        "coordinates": [
          128.2514213,
          35.6653921
        ]
      },
      "properties": {
        "osm_type": "way",
        "osm_id": 891430209,
        "sido": "경상북도",
        "name": "쌍림변전소",
        "name_en": "Ssangnim Substation",
        "substation_type": "distribution",
        "voltage": "154000",
        "frequency": "60",
        "operator": "",
        "location": "indoor"
      }
    },
    {
      "type": "Feature",
      "geometry": {
        "type": "Point",
        "coordinates": [
          129.4110991,
          36.0929428
        ]
      },
      "properties": {
        "osm_type": "way",
        "osm_id": 891430239,
        "sido": "경상북도",
        "name": "흥해변전소",
        "name_en": "Heunghae Substation",
        "substation_type": "distribution",
        "voltage": "154000",
        "frequency": "60",
        "operator": "",
        "location": "indoor"
      }
    },
    {
      "type": "Feature",
      "geometry": {
        "type": "Point",
        "coordinates": [
          129.3700407,
          35.9829282
        ]
      },
      "properties": {
        "osm_type": "way",
        "osm_id": 891430240,
        "sido": "경상북도",
        "name": "포항변전소",
        "name_en": "Pohang Substation",
        "substation_type": "distribution",
        "voltage": "154000",
        "frequency": "60",
        "operator": "",
        "location": "indoor"
      }
    },
    {
      "type": "Feature",
      "geometry": {
        "type": "Point",
        "coordinates": [
          129.285029,
          35.7098629
        ]
      },
      "properties": {
        "osm_type": "way",
        "osm_id": 891430242,
        "sido": "경상북도",
        "name": "입실변전소",
        "name_en": "Ibsil Substation",
        "substation_type": "distribution",
        "voltage": "154000",
        "frequency": "60",
        "operator": "",
        "location": "indoor"
      }
    },
    {
      "type": "Feature",
      "geometry": {
        "type": "Point",
        "coordinates": [
          129.3053306,
          35.9597086
        ]
      },
      "properties": {
        "osm_type": "way",
        "osm_id": 891430244,
        "sido": "경상북도",
        "name": "왕신변전소",
        "name_en": "Wangshin Substation",
        "substation_type": "distribution",
        "voltage": "154000",
        "frequency": "60",
        "operator": "",
        "location": "indoor"
      }
    },
    {
      "type": "Feature",
      "geometry": {
        "type": "Point",
        "coordinates": [
          128.7979348,
          35.866966
        ]
      },
      "properties": {
        "osm_type": "way",
        "osm_id": 891682036,
        "sido": "경상북도",
        "name": "진량변전소",
        "name_en": "Jinyang Substation",
        "substation_type": "distribution",
        "voltage": "154000",
        "frequency": "60",
        "operator": "",
        "location": "outdoor"
      }
    },
    {
      "type": "Feature",
      "geometry": {
        "type": "Point",
        "coordinates": [
          128.7612626,
          35.8010403
        ]
      },
      "properties": {
        "osm_type": "way",
        "osm_id": 891682037,
        "sido": "경상북도",
        "name": "자인변전소",
        "name_en": "Jain Substation",
        "substation_type": "distribution",
        "voltage": "154000",
        "frequency": "60",
        "operator": "",
        "location": "indoor"
      }
    },
    {
      "type": "Feature",
      "geometry": {
        "type": "Point",
        "coordinates": [
          128.8252101,
          35.9416853
        ]
      },
      "properties": {
        "osm_type": "way",
        "osm_id": 891682042,
        "sido": "경상북도",
        "name": "와촌변전소",
        "name_en": "",
        "substation_type": "distribution",
        "voltage": "154000",
        "frequency": "60",
        "operator": "",
        "location": "indoor"
      }
    },
    {
      "type": "Feature",
      "geometry": {
        "type": "Point",
        "coordinates": [
          128.4201148,
          35.9329466
        ]
      },
      "properties": {
        "osm_type": "way",
        "osm_id": 891682044,
        "sido": "경상북도",
        "name": "왜관변전소",
        "name_en": "Waegwan Substation",
        "substation_type": "distribution",
        "voltage": "154000",
        "frequency": "60",
        "operator": "",
        "location": "outdoor"
      }
    },
    {
      "type": "Feature",
      "geometry": {
        "type": "Point",
        "coordinates": [
          128.5476678,
          36.5962252
        ]
      },
      "properties": {
        "osm_type": "way",
        "osm_id": 891818224,
        "sido": "경상북도",
        "name": "풍산변전소",
        "name_en": "Pungsan Substation",
        "substation_type": "distribution",
        "voltage": "154000",
        "frequency": "60",
        "operator": "",
        "location": "outdoor"
      }
    },
    {
      "type": "Feature",
      "geometry": {
        "type": "Point",
        "coordinates": [
          129.4405623,
          36.7074625
        ]
      },
      "properties": {
        "osm_type": "way",
        "osm_id": 891818225,
        "sido": "경상북도",
        "name": "평해변전소",
        "name_en": "",
        "substation_type": "distribution",
        "voltage": "154000",
        "frequency": "60",
        "operator": "",
        "location": "indoor"
      }
    },
    {
      "type": "Feature",
      "geometry": {
        "type": "Point",
        "coordinates": [
          129.3732876,
          37.0927494
        ]
      },
      "properties": {
        "osm_type": "way",
        "osm_id": 891818226,
        "sido": "경상북도",
        "name": "울진변전소",
        "name_en": "Uljin Substation",
        "substation_type": "distribution",
        "voltage": "154000",
        "frequency": "60",
        "operator": "",
        "location": "outdoor"
      }
    },
    {
      "type": "Feature",
      "geometry": {
        "type": "Point",
        "coordinates": [
          128.4335783,
          36.6472271
        ]
      },
      "properties": {
        "osm_type": "way",
        "osm_id": 891818233,
        "sido": "경상북도",
        "name": "예천변전소",
        "name_en": "Yecheon Substation",
        "substation_type": "distribution",
        "voltage": "154000",
        "frequency": "60",
        "operator": "",
        "location": "outdoor"
      }
    },
    {
      "type": "Feature",
      "geometry": {
        "type": "Point",
        "coordinates": [
          128.6391014,
          36.8132689
        ]
      },
      "properties": {
        "osm_type": "way",
        "osm_id": 891818234,
        "sido": "경상북도",
        "name": "영주변전소",
        "name_en": "Yeongju Substation",
        "substation_type": "distribution",
        "voltage": "154000",
        "frequency": "60",
        "operator": "",
        "location": "outdoor"
      }
    },
    {
      "type": "Feature",
      "geometry": {
        "type": "Point",
        "coordinates": [
          128.1457555,
          36.6899693
        ]
      },
      "properties": {
        "osm_type": "way",
        "osm_id": 891818236,
        "sido": "경상북도",
        "name": "문경변전소",
        "name_en": "Mungyeon Substation",
        "substation_type": "distribution",
        "voltage": "154000",
        "frequency": "60",
        "operator": "",
        "location": "outdoor"
      }
    },
    {
      "type": "Feature",
      "geometry": {
        "type": "Point",
        "coordinates": [
          128.1195046,
          36.3123148
        ]
      },
      "properties": {
        "osm_type": "way",
        "osm_id": 891818237,
        "sido": "경상북도",
        "name": "청리변전소",
        "name_en": "Cheongni Substation",
        "substation_type": "distribution",
        "voltage": "154000",
        "frequency": "60",
        "operator": "",
        "location": "indoor"
      }
    },
    {
      "type": "Feature",
      "geometry": {
        "type": "Point",
        "coordinates": [
          128.4141001,
          36.0845112
        ]
      },
      "properties": {
        "osm_type": "way",
        "osm_id": 891818240,
        "sido": "경상북도",
        "name": "남인동변전소",
        "name_en": "South-Indong Substation",
        "substation_type": "distribution",
        "voltage": "154000",
        "frequency": "60",
        "operator": "",
        "location": "indoor"
      }
    },
    {
      "type": "Feature",
      "geometry": {
        "type": "Point",
        "coordinates": [
          128.4849953,
          36.3715379
        ]
      },
      "properties": {
        "osm_type": "way",
        "osm_id": 891818242,
        "sido": "경상북도",
        "name": "안계변전소",
        "name_en": "Angye Substation",
        "substation_type": "distribution",
        "voltage": "154000",
        "frequency": "60",
        "operator": "",
        "location": "indoor"
      }
    },
    {
      "type": "Feature",
      "geometry": {
        "type": "Point",
        "coordinates": [
          128.442999,
          36.1322213
        ]
      },
      "properties": {
        "osm_type": "way",
        "osm_id": 891818243,
        "sido": "경상북도",
        "name": "금전변전소",
        "name_en": "Geumjeon Substation",
        "substation_type": "distribution",
        "voltage": "154000",
        "frequency": "60",
        "operator": "",
        "location": "outdoor"
      }
    },
    {
      "type": "Feature",
      "geometry": {
        "type": "Point",
        "coordinates": [
          128.4524794,
          36.1525177
        ]
      },
      "properties": {
        "osm_type": "way",
        "osm_id": 891818248,
        "sido": "경상북도",
        "name": "산동변전소",
        "name_en": "Sandong Substation",
        "substation_type": "distribution",
        "voltage": "154000",
        "frequency": "60",
        "operator": "",
        "location": "indoor"
      }
    },
    {
      "type": "Feature",
      "geometry": {
        "type": "Point",
        "coordinates": [
          128.3766878,
          36.1181819
        ]
      },
      "properties": {
        "osm_type": "way",
        "osm_id": 891818258,
        "sido": "경상북도",
        "name": "구미변전소",
        "name_en": "",
        "substation_type": "distribution",
        "voltage": "154000",
        "frequency": "60",
        "operator": "",
        "location": "indoor"
      }
    },
    {
      "type": "Feature",
      "geometry": {
        "type": "Point",
        "coordinates": [
          128.3528323,
          36.1712475
        ]
      },
      "properties": {
        "osm_type": "way",
        "osm_id": 891818259,
        "sido": "경상북도",
        "name": "고아변전소",
        "name_en": "",
        "substation_type": "distribution",
        "voltage": "154000",
        "frequency": "60",
        "operator": "",
        "location": "indoor"
      }
    },
    {
      "type": "Feature",
      "geometry": {
        "type": "Point",
        "coordinates": [
          129.3760215,
          35.9738186
        ]
      },
      "properties": {
        "osm_type": "way",
        "osm_id": 1047117443,
        "sido": "경상북도",
        "name": "",
        "name_en": "",
        "substation_type": "",
        "voltage": "",
        "frequency": "",
        "operator": "",
        "location": ""
      }
    },
    {
      "type": "Feature",
      "geometry": {
        "type": "Point",
        "coordinates": [
          129.384811,
          35.9716009
        ]
      },
      "properties": {
        "osm_type": "way",
        "osm_id": 1047117445,
        "sido": "경상북도",
        "name": "",
        "name_en": "",
        "substation_type": "",
        "voltage": "",
        "frequency": "",
        "operator": "",
        "location": ""
      }
    },
    {
      "type": "Feature",
      "geometry": {
        "type": "Point",
        "coordinates": [
          129.2310083,
          36.5752301
        ]
      },
      "properties": {
        "osm_type": "way",
        "osm_id": 1047117451,
        "sido": "경상북도",
        "name": "영양풍력발전공사",
        "name_en": "",
        "substation_type": "",
        "voltage": "",
        "frequency": "",
        "operator": "",
        "location": ""
      }
    },
    {
      "type": "Feature",
      "geometry": {
        "type": "Point",
        "coordinates": [
          128.2979153,
          35.9312515
        ]
      },
      "properties": {
        "osm_type": "way",
        "osm_id": 1094065806,
        "sido": "경상북도",
        "name": "",
        "name_en": "",
        "substation_type": "",
        "voltage": "",
        "frequency": "",
        "operator": "",
        "location": ""
      }
    },
    {
      "type": "Feature",
      "geometry": {
        "type": "Point",
        "coordinates": [
          129.1353849,
          35.8135773
        ]
      },
      "properties": {
        "osm_type": "way",
        "osm_id": 1094333892,
        "sido": "경상북도",
        "name": "",
        "name_en": "",
        "substation_type": "",
        "voltage": "",
        "frequency": "",
        "operator": "",
        "location": ""
      }
    },
    {
      "type": "Feature",
      "geometry": {
        "type": "Point",
        "coordinates": [
          129.4734982,
          35.7141793
        ]
      },
      "properties": {
        "osm_type": "way",
        "osm_id": 1094336370,
        "sido": "경상북도",
        "name": "",
        "name_en": "",
        "substation_type": "transmission",
        "voltage": "345000",
        "frequency": "60",
        "operator": "",
        "location": "outdoor"
      }
    },
    {
      "type": "Feature",
      "geometry": {
        "type": "Point",
        "coordinates": [
          129.4720678,
          35.7122501
        ]
      },
      "properties": {
        "osm_type": "way",
        "osm_id": 1094336380,
        "sido": "경상북도",
        "name": "",
        "name_en": "",
        "substation_type": "transmission",
        "voltage": "345000",
        "frequency": "60",
        "operator": "",
        "location": "outdoor"
      }
    },
    {
      "type": "Feature",
      "geometry": {
        "type": "Point",
        "coordinates": [
          129.3889899,
          37.0894254
        ]
      },
      "properties": {
        "osm_type": "way",
        "osm_id": 1094339201,
        "sido": "경상북도",
        "name": "",
        "name_en": "",
        "substation_type": "transmission",
        "voltage": "345000",
        "frequency": "60",
        "operator": "",
        "location": "outdoor"
      }
    },
    {
      "type": "Feature",
      "geometry": {
        "type": "Point",
        "coordinates": [
          129.3787818,
          37.0974267
        ]
      },
      "properties": {
        "osm_type": "way",
        "osm_id": 1094339210,
        "sido": "경상북도",
        "name": "",
        "name_en": "",
        "substation_type": "transmission",
        "voltage": "345000",
        "frequency": "60",
        "operator": "",
        "location": "outdoor"
      }
    },
    {
      "type": "Feature",
      "geometry": {
        "type": "Point",
        "coordinates": [
          128.3993478,
          36.0828427
        ]
      },
      "properties": {
        "osm_type": "way",
        "osm_id": 1094774814,
        "sido": "경상북도",
        "name": "",
        "name_en": "",
        "substation_type": "industrial",
        "voltage": "",
        "frequency": "",
        "operator": "",
        "location": "outdoor"
      }
    },
    {
      "type": "Feature",
      "geometry": {
        "type": "Point",
        "coordinates": [
          128.8812476,
          36.5382416
        ]
      },
      "properties": {
        "osm_type": "way",
        "osm_id": 1095094769,
        "sido": "경상북도",
        "name": "",
        "name_en": "",
        "substation_type": "transmission",
        "voltage": "",
        "frequency": "",
        "operator": "",
        "location": ""
      }
    },
    {
      "type": "Feature",
      "geometry": {
        "type": "Point",
        "coordinates": [
          128.5421439,
          36.5964167
        ]
      },
      "properties": {
        "osm_type": "way",
        "osm_id": 1098797537,
        "sido": "경상북도",
        "name": "",
        "name_en": "",
        "substation_type": "transmission",
        "voltage": "",
        "frequency": "",
        "operator": "",
        "location": ""
      }
    },
    {
      "type": "Feature",
      "geometry": {
        "type": "Point",
        "coordinates": [
          128.1865467,
          36.1119871
        ]
      },
      "properties": {
        "osm_type": "way",
        "osm_id": 1153730352,
        "sido": "경상북도",
        "name": "",
        "name_en": "",
        "substation_type": "",
        "voltage": "",
        "frequency": "",
        "operator": "",
        "location": ""
      }
    },
    {
      "type": "Feature",
      "geometry": {
        "type": "Point",
        "coordinates": [
          129.3447855,
          36.0741851
        ]
      },
      "properties": {
        "osm_type": "way",
        "osm_id": 1193555359,
        "sido": "경상북도",
        "name": "",
        "name_en": "",
        "substation_type": "traction",
        "voltage": "55000;27500",
        "frequency": "",
        "operator": "",
        "location": ""
      }
    },
    {
      "type": "Feature",
      "geometry": {
        "type": "Point",
        "coordinates": [
          129.3034028,
          36.0232758
        ]
      },
      "properties": {
        "osm_type": "way",
        "osm_id": 1193555360,
        "sido": "경상북도",
        "name": "",
        "name_en": "",
        "substation_type": "traction",
        "voltage": "55000;27500",
        "frequency": "",
        "operator": "",
        "location": ""
      }
    },
    {
      "type": "Feature",
      "geometry": {
        "type": "Point",
        "coordinates": [
          129.2355726,
          35.975255
        ]
      },
      "properties": {
        "osm_type": "way",
        "osm_id": 1193555361,
        "sido": "경상북도",
        "name": "",
        "name_en": "",
        "substation_type": "traction",
        "voltage": "55000;27500",
        "frequency": "",
        "operator": "",
        "location": ""
      }
    },
    {
      "type": "Feature",
      "geometry": {
        "type": "Point",
        "coordinates": [
          129.1850124,
          35.8894988
        ]
      },
      "properties": {
        "osm_type": "way",
        "osm_id": 1193555362,
        "sido": "경상북도",
        "name": "",
        "name_en": "",
        "substation_type": "traction",
        "voltage": "154000;25000",
        "frequency": "",
        "operator": "",
        "location": ""
      }
    },
    {
      "type": "Feature",
      "geometry": {
        "type": "Point",
        "coordinates": [
          128.6671275,
          36.4815076
        ]
      },
      "properties": {
        "osm_type": "way",
        "osm_id": 1193756692,
        "sido": "경상북도",
        "name": "",
        "name_en": "",
        "substation_type": "traction",
        "voltage": "55000;27500",
        "frequency": "",
        "operator": "",
        "location": ""
      }
    },
    {
      "type": "Feature",
      "geometry": {
        "type": "Point",
        "coordinates": [
          128.6752217,
          36.5901031
        ]
      },
      "properties": {
        "osm_type": "way",
        "osm_id": 1193756693,
        "sido": "경상북도",
        "name": "",
        "name_en": "",
        "substation_type": "traction",
        "voltage": "55000;27500",
        "frequency": "",
        "operator": "",
        "location": ""
      }
    },
    {
      "type": "Feature",
      "geometry": {
        "type": "Point",
        "coordinates": [
          128.636219,
          36.7920794
        ]
      },
      "properties": {
        "osm_type": "way",
        "osm_id": 1193756694,
        "sido": "경상북도",
        "name": "",
        "name_en": "",
        "substation_type": "traction",
        "voltage": "55000;27500",
        "frequency": "",
        "operator": "",
        "location": ""
      }
    },
    {
      "type": "Feature",
      "geometry": {
        "type": "Point",
        "coordinates": [
          128.6137945,
          36.8390884
        ]
      },
      "properties": {
        "osm_type": "way",
        "osm_id": 1193756695,
        "sido": "경상북도",
        "name": "",
        "name_en": "",
        "substation_type": "traction",
        "voltage": "55000;27500",
        "frequency": "",
        "operator": "",
        "location": ""
      }
    },
    {
      "type": "Feature",
      "geometry": {
        "type": "Point",
        "coordinates": [
          128.5469055,
          36.8692325
        ]
      },
      "properties": {
        "osm_type": "way",
        "osm_id": 1193756696,
        "sido": "경상북도",
        "name": "",
        "name_en": "",
        "substation_type": "traction",
        "voltage": "55000;27500",
        "frequency": "",
        "operator": "",
        "location": ""
      }
    },
    {
      "type": "Feature",
      "geometry": {
        "type": "Point",
        "coordinates": [
          128.4962825,
          35.9065413
        ]
      },
      "properties": {
        "osm_type": "way",
        "osm_id": 1194151285,
        "sido": "경상북도",
        "name": "",
        "name_en": "",
        "substation_type": "traction",
        "voltage": "55000;27500",
        "frequency": "",
        "operator": "",
        "location": ""
      }
    },
    {
      "type": "Feature",
      "geometry": {
        "type": "Point",
        "coordinates": [
          128.7239316,
          35.7616047
        ]
      },
      "properties": {
        "osm_type": "way",
        "osm_id": 1194151289,
        "sido": "경상북도",
        "name": "",
        "name_en": "",
        "substation_type": "traction",
        "voltage": "55000;27500",
        "frequency": "",
        "operator": "",
        "location": ""
      }
    },
    {
      "type": "Feature",
      "geometry": {
        "type": "Point",
        "coordinates": [
          128.7170132,
          35.6878922
        ]
      },
      "properties": {
        "osm_type": "way",
        "osm_id": 1194151290,
        "sido": "경상북도",
        "name": "",
        "name_en": "",
        "substation_type": "traction",
        "voltage": "55000;27500",
        "frequency": "",
        "operator": "",
        "location": ""
      }
    },
    {
      "type": "Feature",
      "geometry": {
        "type": "Point",
        "coordinates": [
          128.7585352,
          35.6305305
        ]
      },
      "properties": {
        "osm_type": "way",
        "osm_id": 1194151291,
        "sido": "경상북도",
        "name": "",
        "name_en": "",
        "substation_type": "traction",
        "voltage": "55000;27500",
        "frequency": "",
        "operator": "",
        "location": ""
      }
    },
    {
      "type": "Feature",
      "geometry": {
        "type": "Point",
        "coordinates": [
          128.2082913,
          36.1563006
        ]
      },
      "properties": {
        "osm_type": "way",
        "osm_id": 1195121230,
        "sido": "경상북도",
        "name": "",
        "name_en": "",
        "substation_type": "traction",
        "voltage": "154000",
        "frequency": "",
        "operator": "",
        "location": ""
      }
    },
    {
      "type": "Feature",
      "geometry": {
        "type": "Point",
        "coordinates": [
          128.1089055,
          36.1286935
        ]
      },
      "properties": {
        "osm_type": "way",
        "osm_id": 1195121231,
        "sido": "경상북도",
        "name": "",
        "name_en": "",
        "substation_type": "traction",
        "voltage": "",
        "frequency": "",
        "operator": "",
        "location": ""
      }
    },
    {
      "type": "Feature",
      "geometry": {
        "type": "Point",
        "coordinates": [
          128.0281268,
          36.127176
        ]
      },
      "properties": {
        "osm_type": "way",
        "osm_id": 1195121232,
        "sido": "경상북도",
        "name": "",
        "name_en": "",
        "substation_type": "traction",
        "voltage": "154000;55000;27500",
        "frequency": "",
        "operator": "",
        "location": ""
      }
    },
    {
      "type": "Feature",
      "geometry": {
        "type": "Point",
        "coordinates": [
          128.028116,
          36.1385831
        ]
      },
      "properties": {
        "osm_type": "way",
        "osm_id": 1195121238,
        "sido": "경상북도",
        "name": "",
        "name_en": "",
        "substation_type": "traction",
        "voltage": "55000;27500",
        "frequency": "",
        "operator": "",
        "location": ""
      }
    },
    {
      "type": "Feature",
      "geometry": {
        "type": "Point",
        "coordinates": [
          128.1099764,
          36.1300459
        ]
      },
      "properties": {
        "osm_type": "way",
        "osm_id": 1195121239,
        "sido": "경상북도",
        "name": "",
        "name_en": "",
        "substation_type": "traction",
        "voltage": "55000;27500",
        "frequency": "",
        "operator": "",
        "location": ""
      }
    },
    {
      "type": "Feature",
      "geometry": {
        "type": "Point",
        "coordinates": [
          128.2622849,
          36.0887613
        ]
      },
      "properties": {
        "osm_type": "way",
        "osm_id": 1195121240,
        "sido": "경상북도",
        "name": "",
        "name_en": "",
        "substation_type": "traction",
        "voltage": "55000;27500",
        "frequency": "",
        "operator": "",
        "location": ""
      }
    },
    {
      "type": "Feature",
      "geometry": {
        "type": "Point",
        "coordinates": [
          128.3567349,
          36.0773225
        ]
      },
      "properties": {
        "osm_type": "way",
        "osm_id": 1195121241,
        "sido": "경상북도",
        "name": "",
        "name_en": "",
        "substation_type": "traction",
        "voltage": "55000;27500",
        "frequency": "",
        "operator": "",
        "location": ""
      }
    },
    {
      "type": "Feature",
      "geometry": {
        "type": "Point",
        "coordinates": [
          128.3807547,
          36.0336272
        ]
      },
      "properties": {
        "osm_type": "way",
        "osm_id": 1195121242,
        "sido": "경상북도",
        "name": "",
        "name_en": "",
        "substation_type": "traction",
        "voltage": "55000;27500",
        "frequency": "",
        "operator": "",
        "location": ""
      }
    },
    {
      "type": "Feature",
      "geometry": {
        "type": "Point",
        "coordinates": [
          128.3906508,
          36.0045151
        ]
      },
      "properties": {
        "osm_type": "way",
        "osm_id": 1195121243,
        "sido": "경상북도",
        "name": "",
        "name_en": "",
        "substation_type": "traction",
        "voltage": "55000;27500",
        "frequency": "",
        "operator": "",
        "location": ""
      }
    },
    {
      "type": "Feature",
      "geometry": {
        "type": "Point",
        "coordinates": [
          128.4460203,
          35.9924375
        ]
      },
      "properties": {
        "osm_type": "way",
        "osm_id": 1195121244,
        "sido": "경상북도",
        "name": "",
        "name_en": "",
        "substation_type": "traction",
        "voltage": "55000;27500",
        "frequency": "",
        "operator": "",
        "location": ""
      }
    },
    {
      "type": "Feature",
      "geometry": {
        "type": "Point",
        "coordinates": [
          128.5046785,
          35.9541381
        ]
      },
      "properties": {
        "osm_type": "way",
        "osm_id": 1195121245,
        "sido": "경상북도",
        "name": "",
        "name_en": "",
        "substation_type": "traction",
        "voltage": "55000;27500",
        "frequency": "",
        "operator": "",
        "location": ""
      }
    },
    {
      "type": "Feature",
      "geometry": {
        "type": "Point",
        "coordinates": [
          128.4586125,
          35.9643028
        ]
      },
      "properties": {
        "osm_type": "way",
        "osm_id": 1195121246,
        "sido": "경상북도",
        "name": "",
        "name_en": "",
        "substation_type": "traction",
        "voltage": "55000;27500",
        "frequency": "",
        "operator": "",
        "location": ""
      }
    },
    {
      "type": "Feature",
      "geometry": {
        "type": "Point",
        "coordinates": [
          128.4608609,
          36.6609512
        ]
      },
      "properties": {
        "osm_type": "way",
        "osm_id": 1292838457,
        "sido": "경상북도",
        "name": "한국전력공사 예천지사",
        "name_en": "",
        "substation_type": "yes",
        "voltage": "",
        "frequency": "",
        "operator": "한국전력공사",
        "location": ""
      }
    },
    {
      "type": "Feature",
      "geometry": {
        "type": "Point",
        "coordinates": [
          129.4798717,
          35.7217829
        ]
      },
      "properties": {
        "osm_type": "way",
        "osm_id": 1294777997,
        "sido": "경상북도",
        "name": "",
        "name_en": "",
        "substation_type": "",
        "voltage": "",
        "frequency": "",
        "operator": "",
        "location": ""
      }
    },
    {
      "type": "Feature",
      "geometry": {
        "type": "Point",
        "coordinates": [
          129.4795176,
          35.7207521
        ]
      },
      "properties": {
        "osm_type": "way",
        "osm_id": 1294778004,
        "sido": "경상북도",
        "name": "",
        "name_en": "",
        "substation_type": "",
        "voltage": "",
        "frequency": "",
        "operator": "",
        "location": ""
      }
    },
    {
      "type": "Feature",
      "geometry": {
        "type": "Point",
        "coordinates": [
          129.3904073,
          37.0854787
        ]
      },
      "properties": {
        "osm_type": "way",
        "osm_id": 1305128329,
        "sido": "경상북도",
        "name": "",
        "name_en": "",
        "substation_type": "",
        "voltage": "",
        "frequency": "",
        "operator": "",
        "location": ""
      }
    },
    {
      "type": "Feature",
      "geometry": {
        "type": "Point",
        "coordinates": [
          129.3916779,
          37.0843318
        ]
      },
      "properties": {
        "osm_type": "way",
        "osm_id": 1305128335,
        "sido": "경상북도",
        "name": "",
        "name_en": "",
        "substation_type": "",
        "voltage": "",
        "frequency": "",
        "operator": "",
        "location": ""
      }
    },
    {
      "type": "Feature",
      "geometry": {
        "type": "Point",
        "coordinates": [
          129.3835616,
          37.091031
        ]
      },
      "properties": {
        "osm_type": "way",
        "osm_id": 1305128868,
        "sido": "경상북도",
        "name": "",
        "name_en": "",
        "substation_type": "",
        "voltage": "",
        "frequency": "",
        "operator": "",
        "location": ""
      }
    },
    {
      "type": "Feature",
      "geometry": {
        "type": "Point",
        "coordinates": [
          128.1278502,
          36.6974051
        ]
      },
      "properties": {
        "osm_type": "way",
        "osm_id": 1389472915,
        "sido": "경상북도",
        "name": "",
        "name_en": "",
        "substation_type": "yes",
        "voltage": "25000",
        "frequency": "",
        "operator": "",
        "location": ""
      }
    },
    {
      "type": "Feature",
      "geometry": {
        "type": "Point",
        "coordinates": [
          128.0975035,
          36.7333375
        ]
      },
      "properties": {
        "osm_type": "way",
        "osm_id": 1389518131,
        "sido": "경상북도",
        "name": "",
        "name_en": "",
        "substation_type": "",
        "voltage": "25000",
        "frequency": "",
        "operator": "",
        "location": ""
      }
    },
    {
      "type": "Feature",
      "geometry": {
        "type": "Point",
        "coordinates": [
          128.105638,
          36.7252009
        ]
      },
      "properties": {
        "osm_type": "way",
        "osm_id": 1389518137,
        "sido": "경상북도",
        "name": "",
        "name_en": "",
        "substation_type": "",
        "voltage": "25000",
        "frequency": "",
        "operator": "",
        "location": ""
      }
    },
    {
      "type": "Feature",
      "geometry": {
        "type": "Point",
        "coordinates": [
          128.0950701,
          36.73587
        ]
      },
      "properties": {
        "osm_type": "way",
        "osm_id": 1389518143,
        "sido": "경상북도",
        "name": "",
        "name_en": "",
        "substation_type": "",
        "voltage": "25000",
        "frequency": "",
        "operator": "",
        "location": ""
      }
    }
  ]
}