{
  "type": "FeatureCollection",
  "features": [
    {
      "type": "Feature",
      "geometry": {
        "type": "Point",
        "coordinates": [
          127.0849255,
          36.8697053
        ]
      },
      "properties": {
        "osm_type": "node",
        "osm_id": 13432789777,
        "sido": "충청남도",
        "name": "용와북배전소",
        "name_en": "",
        "substation_type": "minor_distribution",
        "voltage": "",
        "frequency": "",
        "operator": "",
        "location": ""
      }
    },
    {
      "type": "Feature",
      "geometry": {
        "type": "Point",
        "coordinates": [
          126.7882884,
          36.4666918
        ]
      },
      "properties": {
        "osm_type": "way",
        "osm_id": 119001902,
        "sido": "충청남도",
        "name": "청양변전소",
        "name_en": "Cheongyang Substation",
        "substation_type": "transmission",
        "voltage": "345000",
        "frequency": "60",
        "operator": "",
        "location": "outdoor"
      }
    },
    {
      "type": "Feature",
      "geometry": {
        "type": "Point",
        "coordinates": [
          127.0602349,
          36.8271878
        ]
      },
      "properties": {
        "osm_type": "way",
        "osm_id": 119180549,
        "sido": "충청남도",
        "name": "탕정변전소",
        "name_en": "Tangjeong Substation",
        "substation_type": "distribution",
        "voltage": "154000",
        "frequency": "60",
        "operator": "",
        "location": "indoor"
      }
    },
    {
      "type": "Feature",
      "geometry": {
        "type": "Point",
        "coordinates": [
          127.1167837,
          36.8595743
        ]
      },
      "properties": {
        "osm_type": "way",
        "osm_id": 125839751,
        "sido": "충청남도",
        "name": "서천안변전소",
        "name_en": "",
        "substation_type": "distribution",
        "voltage": "154000",
        "frequency": "60",
        "operator": "",
        "location": "outdoor"
      }
    },
    {
      "type": "Feature",
      "geometry": {
        "type": "Point",
        "coordinates": [
          127.1663018,
          36.7919721
        ]
      },
      "properties": {
        "osm_type": "way",
        "osm_id": 125840986,
        "sido": "충청남도",
        "name": "천안변전소",
        "name_en": "",
        "substation_type": "distribution",
        "voltage": "154000",
        "frequency": "60",
        "operator": "",
        "location": "indoor"
      }
    },
    {
      "type": "Feature",
      "geometry": {
        "type": "Point",
        "coordinates": [
          127.209499,
          36.8841625
        ]
      },
      "properties": {
        "osm_type": "way",
        "osm_id": 126047655,
        "sido": "충청남도",
        "name": "성거변전소",
        "name_en": "Seonggeo Substation",
        "substation_type": "distribution",
        "voltage": "154000",
        "frequency": "60",
        "operator": "",
        "location": "outdoor"
      }
    },
    {
      "type": "Feature",
      "geometry": {
        "type": "Point",
        "coordinates": [
          126.8789264,
          36.8467148
        ]
      },
      "properties": {
        "osm_type": "way",
        "osm_id": 172009221,
        "sido": "충청남도",
        "name": "인주변전소",
        "name_en": "Inju Substation",
        "substation_type": "distribution",
        "voltage": "154000",
        "frequency": "60",
        "operator": "",
        "location": "indoor"
      }
    },
    {
      "type": "Feature",
      "geometry": {
        "type": "Point",
        "coordinates": [
          127.3299,
          36.769469
        ]
      },
      "properties": {
        "osm_type": "way",
        "osm_id": 231045732,
        "sido": "충청남도",
        "name": "동천안변전소",
        "name_en": "",
        "substation_type": "distribution",
        "voltage": "154000",
        "frequency": "60",
        "operator": "",
        "location": "indoor"
      }
    },
    {
      "type": "Feature",
      "geometry": {
        "type": "Point",
        "coordinates": [
          127.2759273,
          36.2464662
        ]
      },
      "properties": {
        "osm_type": "way",
        "osm_id": 307934521,
        "sido": "충청남도",
        "name": "신계룡변전소",
        "name_en": "",
        "substation_type": "transmission",
        "voltage": "345000",
        "frequency": "60",
        "operator": "",
        "location": "outdoor"
      }
    },
    {
      "type": "Feature",
      "geometry": {
        "type": "Point",
        "coordinates": [
          126.5818393,
          36.3818221
        ]
      },
      "properties": {
        "osm_type": "way",
        "osm_id": 308733208,
        "sido": "충청남도",
        "name": "관창변전소",
        "name_en": "Gwanchang Substation",
        "substation_type": "distribution",
        "voltage": "154000",
        "frequency": "60",
        "operator": "",
        "location": "indoor"
      }
    },
    {
      "type": "Feature",
      "geometry": {
        "type": "Point",
        "coordinates": [
          127.1607224,
          36.4815074
        ]
      },
      "properties": {
        "osm_type": "way",
        "osm_id": 310378772,
        "sido": "충청남도",
        "name": "공주변전소",
        "name_en": "",
        "substation_type": "distribution",
        "voltage": "154000",
        "frequency": "60",
        "operator": "",
        "location": "outdoor"
      }
    },
    {
      "type": "Feature",
      "geometry": {
        "type": "Point",
        "coordinates": [
          127.0074289,
          36.8790519
        ]
      },
      "properties": {
        "osm_type": "way",
        "osm_id": 310421632,
        "sido": "충청남도",
        "name": "신온양변전소",
        "name_en": "Shin-Onyang Substation",
        "substation_type": "transmission",
        "voltage": "345000",
        "frequency": "60",
        "operator": "",
        "location": "outdoor"
      }
    },
    {
      "type": "Feature",
      "geometry": {
        "type": "Point",
        "coordinates": [
          126.9243047,
          36.7910803
        ]
      },
      "properties": {
        "osm_type": "way",
        "osm_id": 310689427,
        "sido": "충청남도",
        "name": "아산변전소",
        "name_en": "Asan Substation",
        "substation_type": "transmission",
        "voltage": "345000",
        "frequency": "60",
        "operator": "",
        "location": "outdoor"
      }
    },
    {
      "type": "Feature",
      "geometry": {
        "type": "Point",
        "coordinates": [
          127.0404942,
          36.7654415
        ]
      },
      "properties": {
        "osm_type": "way",
        "osm_id": 310920204,
        "sido": "충청남도",
        "name": "온양변전소",
        "name_en": "Onyang Substaton",
        "substation_type": "distribution",
        "voltage": "154000",
        "frequency": "60",
        "operator": "",
        "location": "outdoor"
      }
    },
    {
      "type": "Feature",
      "geometry": {
        "type": "Point",
        "coordinates": [
          126.6387479,
          36.7713399
        ]
      },
      "properties": {
        "osm_type": "way",
        "osm_id": 310921768,
        "sido": "충청남도",
        "name": "신서산변전소",
        "name_en": "Shin-Seosan Substation",
        "substation_type": "transmission",
        "voltage": "765000",
        "frequency": "60",
        "operator": "",
        "location": "outdoor"
      }
    },
    {
      "type": "Feature",
      "geometry": {
        "type": "Point",
        "coordinates": [
          127.2311434,
          36.2986355
        ]
      },
      "properties": {
        "osm_type": "way",
        "osm_id": 311068708,
        "sido": "충청남도",
        "name": "두마변전소",
        "name_en": "",
        "substation_type": "distribution",
        "voltage": "154000",
        "frequency": "60",
        "operator": "",
        "location": "indoor"
      }
    },
    {
      "type": "Feature",
      "geometry": {
        "type": "Point",
        "coordinates": [
          127.1102568,
          36.1776964
        ]
      },
      "properties": {
        "osm_type": "way",
        "osm_id": 311068710,
        "sido": "충청남도",
        "name": "은진변전소",
        "name_en": "Eunjin Substation",
        "substation_type": "transmission",
        "voltage": "154000",
        "frequency": "60",
        "operator": "",
        "location": "outdoor"
      }
    },
    {
      "type": "Feature",
      "geometry": {
        "type": "Point",
        "coordinates": [
          127.1123992,
          36.8642589
        ]
      },
      "properties": {
        "osm_type": "way",
        "osm_id": 313264823,
        "sido": "충청남도",
        "name": "한샘변전소",
        "name_en": "Hansaem Substation",
        "substation_type": "distribution",
        "voltage": "154000",
        "frequency": "60",
        "operator": "",
        "location": "outdoor"
      }
    },
    {
      "type": "Feature",
      "geometry": {
        "type": "Point",
        "coordinates": [
          127.0506786,
          36.2215889
        ]
      },
      "properties": {
        "osm_type": "way",
        "osm_id": 411718989,
        "sido": "충청남도",
        "name": "논산변전소",
        "name_en": "Nonsan Substation",
        "substation_type": "distribution",
        "voltage": "154000",
        "frequency": "60",
        "operator": "",
        "location": "indoor"
      }
    },
    {
      "type": "Feature",
      "geometry": {
        "type": "Point",
        "coordinates": [
          127.0868191,
          36.9196459
        ]
      },
      "properties": {
        "osm_type": "way",
        "osm_id": 472351006,
        "sido": "충청남도",
        "name": "둔포변전소",
        "name_en": "Dunpo Substation",
        "substation_type": "distribution",
        "voltage": "154000",
        "frequency": "60",
        "operator": "",
        "location": "indoor"
      }
    },
    {
      "type": "Feature",
      "geometry": {
        "type": "Point",
        "coordinates": [
          127.144065,
          36.4720027
        ]
      },
      "properties": {
        "osm_type": "way",
        "osm_id": 555925535,
        "sido": "충청남도",
        "name": "",
        "name_en": "",
        "substation_type": "",
        "voltage": "",
        "frequency": "",
        "operator": "",
        "location": ""
      }
    },
    {
      "type": "Feature",
      "geometry": {
        "type": "Point",
        "coordinates": [
          126.9453898,
          36.7678134
        ]
      },
      "properties": {
        "osm_type": "way",
        "osm_id": 634872124,
        "sido": "충청남도",
        "name": "",
        "name_en": "",
        "substation_type": "traction",
        "voltage": "55000;27500",
        "frequency": "",
        "operator": "",
        "location": ""
      }
    },
    {
      "type": "Feature",
      "geometry": {
        "type": "Point",
        "coordinates": [
          126.4645948,
          36.7966859
        ]
      },
      "properties": {
        "osm_type": "way",
        "osm_id": 642987968,
        "sido": "충청남도",
        "name": "서산변전소",
        "name_en": "Seosan Substation",
        "substation_type": "distribution",
        "voltage": "154000",
        "frequency": "60",
        "operator": "한국전력공사",
        "location": ""
      }
    },
    {
      "type": "Feature",
      "geometry": {
        "type": "Point",
        "coordinates": [
          126.5113891,
          37.0518717
        ]
      },
      "properties": {
        "osm_type": "way",
        "osm_id": 642987969,
        "sido": "충청남도",
        "name": "",
        "name_en": "Dangjin Thermal Power Plant",
        "substation_type": "transmission",
        "voltage": "",
        "frequency": "",
        "operator": "",
        "location": ""
      }
    },
    {
      "type": "Feature",
      "geometry": {
        "type": "Point",
        "coordinates": [
          126.506765,
          37.0533523
        ]
      },
      "properties": {
        "osm_type": "way",
        "osm_id": 720019162,
        "sido": "충청남도",
        "name": "",
        "name_en": "",
        "substation_type": "",
        "voltage": "",
        "frequency": "",
        "operator": "",
        "location": ""
      }
    },
    {
      "type": "Feature",
      "geometry": {
        "type": "Point",
        "coordinates": [
          126.6167375,
          36.9556998
        ]
      },
      "properties": {
        "osm_type": "way",
        "osm_id": 720019168,
        "sido": "충청남도",
        "name": "",
        "name_en": "",
        "substation_type": "industrial",
        "voltage": "154000",
        "frequency": "",
        "operator": "",
        "location": ""
      }
    },
    {
      "type": "Feature",
      "geometry": {
        "type": "Point",
        "coordinates": [
          127.1086869,
          36.7904565
        ]
      },
      "properties": {
        "osm_type": "way",
        "osm_id": 796446432,
        "sido": "충청남도",
        "name": "장재변전소",
        "name_en": "Jangjae Substation",
        "substation_type": "distribution",
        "voltage": "154000",
        "frequency": "60",
        "operator": "",
        "location": "indoor"
      }
    },
    {
      "type": "Feature",
      "geometry": {
        "type": "Point",
        "coordinates": [
          127.1157406,
          36.8155514
        ]
      },
      "properties": {
        "osm_type": "way",
        "osm_id": 799263823,
        "sido": "충청남도",
        "name": "불당변전소",
        "name_en": "",
        "substation_type": "distribution",
        "voltage": "154000",
        "frequency": "60",
        "operator": "",
        "location": "indoor"
      }
    },
    {
      "type": "Feature",
      "geometry": {
        "type": "Point",
        "coordinates": [
          127.1580755,
          36.7815527
        ]
      },
      "properties": {
        "osm_type": "way",
        "osm_id": 819483614,
        "sido": "충청남도",
        "name": "",
        "name_en": "",
        "substation_type": "",
        "voltage": "",
        "frequency": "",
        "operator": "",
        "location": ""
      }
    },
    {
      "type": "Feature",
      "geometry": {
        "type": "Point",
        "coordinates": [
          127.1039822,
          36.7352393
        ]
      },
      "properties": {
        "osm_type": "way",
        "osm_id": 871546805,
        "sido": "충청남도",
        "name": "풍세변전소",
        "name_en": "Pungse Substation",
        "substation_type": "distribution",
        "voltage": "154000",
        "frequency": "60",
        "operator": "",
        "location": "indoor"
      }
    },
    {
      "type": "Feature",
      "geometry": {
        "type": "Point",
        "coordinates": [
          126.7044749,
          36.9012885
        ]
      },
      "properties": {
        "osm_type": "way",
        "osm_id": 883725327,
        "sido": "충청남도",
        "name": "당진변전소",
        "name_en": "Dangjin Substation",
        "substation_type": "distribution",
        "voltage": "154000",
        "frequency": "60",
        "operator": "",
        "location": "outdoor"
      }
    },
    {
      "type": "Feature",
      "geometry": {
        "type": "Point",
        "coordinates": [
          126.5815918,
          36.852951
        ]
      },
      "properties": {
        "osm_type": "way",
        "osm_id": 883725328,
        "sido": "충청남도",
        "name": "신당진변전소",
        "name_en": "Shin-Dangjin Substation",
        "substation_type": "transmission",
        "voltage": "345000",
        "frequency": "60",
        "operator": "",
        "location": "outdoor"
      }
    },
    {
      "type": "Feature",
      "geometry": {
        "type": "Point",
        "coordinates": [
          126.7682991,
          36.9631317
        ]
      },
      "properties": {
        "osm_type": "way",
        "osm_id": 883725329,
        "sido": "충청남도",
        "name": "송악변전소",
        "name_en": "Songak Substation",
        "substation_type": "distribution",
        "voltage": "154000",
        "frequency": "60",
        "operator": "",
        "location": "indoor"
      }
    },
    {
      "type": "Feature",
      "geometry": {
        "type": "Point",
        "coordinates": [
          127.060403,
          36.8246483
        ]
      },
      "properties": {
        "osm_type": "way",
        "osm_id": 883725330,
        "sido": "충청남도",
        "name": "신탕정변전소",
        "name_en": "Shin-Tangjeong Substation",
        "substation_type": "transmission",
        "voltage": "345000",
        "frequency": "60",
        "operator": "",
        "location": "indoor"
      }
    },
    {
      "type": "Feature",
      "geometry": {
        "type": "Point",
        "coordinates": [
          126.592011,
          36.5212892
        ]
      },
      "properties": {
        "osm_type": "way",
        "osm_id": 886407200,
        "sido": "충청남도",
        "name": "은하변전소",
        "name_en": "",
        "substation_type": "distribution",
        "voltage": "154000",
        "frequency": "60",
        "operator": "",
        "location": "indoor"
      }
    },
    {
      "type": "Feature",
      "geometry": {
        "type": "Point",
        "coordinates": [
          126.554739,
          36.7266877
        ]
      },
      "properties": {
        "osm_type": "way",
        "osm_id": 886407202,
        "sido": "충청남도",
        "name": "해미변전소",
        "name_en": "Haemi Substation",
        "substation_type": "distribution",
        "voltage": "154000",
        "frequency": "60",
        "operator": "",
        "location": "indoor"
      }
    },
    {
      "type": "Feature",
      "geometry": {
        "type": "Point",
        "coordinates": [
          126.6006142,
          36.3092625
        ]
      },
      "properties": {
        "osm_type": "way",
        "osm_id": 886407206,
        "sido": "충청남도",
        "name": "대천변전소",
        "name_en": "Daecheon Substation",
        "substation_type": "distribution",
        "voltage": "154000",
        "frequency": "60",
        "operator": "",
        "location": "outdoor"
      }
    },
    {
      "type": "Feature",
      "geometry": {
        "type": "Point",
        "coordinates": [
          126.9365061,
          36.4878893
        ]
      },
      "properties": {
        "osm_type": "way",
        "osm_id": 886407207,
        "sido": "충청남도",
        "name": "신풍변전소",
        "name_en": "",
        "substation_type": "distribution",
        "voltage": "154000",
        "frequency": "60",
        "operator": "",
        "location": "outdoor"
      }
    },
    {
      "type": "Feature",
      "geometry": {
        "type": "Point",
        "coordinates": [
          126.6698849,
          36.6188108
        ]
      },
      "properties": {
        "osm_type": "way",
        "osm_id": 886407223,
        "sido": "충청남도",
        "name": "홍성변전소",
        "name_en": "Heungseong Substation",
        "substation_type": "distribution",
        "voltage": "154000",
        "frequency": "60",
        "operator": "",
        "location": "indoor"
      }
    },
    {
      "type": "Feature",
      "geometry": {
        "type": "Point",
        "coordinates": [
          126.8261692,
          36.7324549
        ]
      },
      "properties": {
        "osm_type": "way",
        "osm_id": 886407225,
        "sido": "충청남도",
        "name": "예산변전소",
        "name_en": "Yesan Substation",
        "substation_type": "distribution",
        "voltage": "154000",
        "frequency": "60",
        "operator": "",
        "location": "outdoor"
      }
    },
    {
      "type": "Feature",
      "geometry": {
        "type": "Point",
        "coordinates": [
          126.332542,
          36.5787718
        ]
      },
      "properties": {
        "osm_type": "way",
        "osm_id": 887782993,
        "sido": "충청남도",
        "name": "안면변전소",
        "name_en": "",
        "substation_type": "distribution",
        "voltage": "154000",
        "frequency": "60",
        "operator": "",
        "location": "indoor"
      }
    },
    {
      "type": "Feature",
      "geometry": {
        "type": "Point",
        "coordinates": [
          126.2877439,
          36.7423242
        ]
      },
      "properties": {
        "osm_type": "way",
        "osm_id": 887782998,
        "sido": "충청남도",
        "name": "태안변전소",
        "name_en": "Taean Substation",
        "substation_type": "distribution",
        "voltage": "154000",
        "frequency": "60",
        "operator": "",
        "location": "outdoor"
      }
    },
    {
      "type": "Feature",
      "geometry": {
        "type": "Point",
        "coordinates": [
          126.7526334,
          36.7865677
        ]
      },
      "properties": {
        "osm_type": "way",
        "osm_id": 889931851,
        "sido": "충청남도",
        "name": "합덕변전소",
        "name_en": "Habdeok Substation",
        "substation_type": "distribution",
        "voltage": "154000",
        "frequency": "60",
        "operator": "",
        "location": "indoor"
      }
    },
    {
      "type": "Feature",
      "geometry": {
        "type": "Point",
        "coordinates": [
          126.7782572,
          36.188853
        ]
      },
      "properties": {
        "osm_type": "way",
        "osm_id": 890073067,
        "sido": "충청남도",
        "name": "옥산변전소",
        "name_en": "Oksan Substation",
        "substation_type": "distribution",
        "voltage": "154000",
        "frequency": "60",
        "operator": "",
        "location": "indoor"
      }
    },
    {
      "type": "Feature",
      "geometry": {
        "type": "Point",
        "coordinates": [
          126.9448341,
          36.2978008
        ]
      },
      "properties": {
        "osm_type": "way",
        "osm_id": 890073068,
        "sido": "충청남도",
        "name": "부여변전소",
        "name_en": "Buyeo Substation",
        "substation_type": "distribution",
        "voltage": "154000",
        "frequency": "60",
        "operator": "",
        "location": "outdoor"
      }
    },
    {
      "type": "Feature",
      "geometry": {
        "type": "Point",
        "coordinates": [
          127.4948251,
          36.1090379
        ]
      },
      "properties": {
        "osm_type": "way",
        "osm_id": 890073069,
        "sido": "충청남도",
        "name": "금산변전소",
        "name_en": "Geumsan Substation",
        "substation_type": "distribution",
        "voltage": "154000",
        "frequency": "60",
        "operator": "",
        "location": "outdoor"
      }
    },
    {
      "type": "Feature",
      "geometry": {
        "type": "Point",
        "coordinates": [
          127.494881,
          36.2222765
        ]
      },
      "properties": {
        "osm_type": "way",
        "osm_id": 890073070,
        "sido": "충청남도",
        "name": "추부변전소",
        "name_en": "Chubu Substation",
        "substation_type": "distribution",
        "voltage": "154000",
        "frequency": "60",
        "operator": "",
        "location": "indoor"
      }
    },
    {
      "type": "Feature",
      "geometry": {
        "type": "Point",
        "coordinates": [
          126.5575227,
          37.007867
        ]
      },
      "properties": {
        "osm_type": "way",
        "osm_id": 890073073,
        "sido": "충청남도",
        "name": "석문변전소",
        "name_en": "Seokmun Substation",
        "substation_type": "distribution",
        "voltage": "154000",
        "frequency": "60",
        "operator": "",
        "location": "indoor"
      }
    },
    {
      "type": "Feature",
      "geometry": {
        "type": "Point",
        "coordinates": [
          126.4155134,
          36.9776762
        ]
      },
      "properties": {
        "osm_type": "way",
        "osm_id": 890073080,
        "sido": "충청남도",
        "name": "대산변전소",
        "name_en": "Daesan Substation",
        "substation_type": "distribution",
        "voltage": "154000",
        "frequency": "60",
        "operator": "",
        "location": "outdoor"
      }
    },
    {
      "type": "Feature",
      "geometry": {
        "type": "Point",
        "coordinates": [
          126.7466575,
          36.6702431
        ]
      },
      "properties": {
        "osm_type": "way",
        "osm_id": 890587127,
        "sido": "충청남도",
        "name": "응봉변전소",
        "name_en": "",
        "substation_type": "distribution",
        "voltage": "154000",
        "frequency": "60",
        "operator": "",
        "location": "indoor"
      }
    },
    {
      "type": "Feature",
      "geometry": {
        "type": "Point",
        "coordinates": [
          126.7118052,
          36.0357132
        ]
      },
      "properties": {
        "osm_type": "way",
        "osm_id": 890587128,
        "sido": "충청남도",
        "name": "장항변전소",
        "name_en": "Janghang Substation",
        "substation_type": "distribution",
        "voltage": "154000",
        "frequency": "60",
        "operator": "",
        "location": "outdoor"
      }
    },
    {
      "type": "Feature",
      "geometry": {
        "type": "Point",
        "coordinates": [
          126.7839242,
          36.9549462
        ]
      },
      "properties": {
        "osm_type": "way",
        "osm_id": 978811496,
        "sido": "충청남도",
        "name": "북당진변전소",
        "name_en": "North-Dangjin Substation",
        "substation_type": "transmission",
        "voltage": "345000",
        "frequency": "60",
        "operator": "",
        "location": ""
      }
    },
    {
      "type": "Feature",
      "geometry": {
        "type": "Point",
        "coordinates": [
          127.1411245,
          36.8892947
        ]
      },
      "properties": {
        "osm_type": "way",
        "osm_id": 983434607,
        "sido": "충청남도",
        "name": "직산 변전소",
        "name_en": "Jiksan Substation",
        "substation_type": "distribution",
        "voltage": "154000",
        "frequency": "60",
        "operator": "",
        "location": "indoor"
      }
    },
    {
      "type": "Feature",
      "geometry": {
        "type": "Point",
        "coordinates": [
          127.0649354,
          36.9077892
        ]
      },
      "properties": {
        "osm_type": "way",
        "osm_id": 987894548,
        "sido": "충청남도",
        "name": "석곡변전소",
        "name_en": "Seokgok Substation",
        "substation_type": "distribution",
        "voltage": "154000",
        "frequency": "60",
        "operator": "",
        "location": "indoor"
      }
    },
    {
      "type": "Feature",
      "geometry": {
        "type": "Point",
        "coordinates": [
          126.2245913,
          36.9007497
        ]
      },
      "properties": {
        "osm_type": "way",
        "osm_id": 1046514122,
        "sido": "충청남도",
        "name": "",
        "name_en": "",
        "substation_type": "transmission",
        "voltage": "",
        "frequency": "",
        "operator": "",
        "location": ""
      }
    },
    {
      "type": "Feature",
      "geometry": {
        "type": "Point",
        "coordinates": [
          126.4431981,
          36.8444565
        ]
      },
      "properties": {
        "osm_type": "way",
        "osm_id": 1093005827,
        "sido": "충청남도",
        "name": "성연변전소",
        "name_en": "Seongyeon Substation",
        "substation_type": "distribution",
        "voltage": "154000",
        "frequency": "60",
        "operator": "",
        "location": "indoor"
      }
    },
    {
      "type": "Feature",
      "geometry": {
        "type": "Point",
        "coordinates": [
          126.7225011,
          36.9819146
        ]
      },
      "properties": {
        "osm_type": "way",
        "osm_id": 1093106970,
        "sido": "충청남도",
        "name": "",
        "name_en": "Hyundai Steel",
        "substation_type": "",
        "voltage": "345000",
        "frequency": "60",
        "operator": "",
        "location": ""
      }
    },
    {
      "type": "Feature",
      "geometry": {
        "type": "Point",
        "coordinates": [
          127.0524216,
          36.2185749
        ]
      },
      "properties": {
        "osm_type": "way",
        "osm_id": 1135323473,
        "sido": "충청남도",
        "name": "논산변전소",
        "name_en": "Nonsan Substation",
        "substation_type": "traction",
        "voltage": "154000;55000;27500",
        "frequency": "",
        "operator": "한국철도시설공단",
        "location": "indoor"
      }
    },
    {
      "type": "Feature",
      "geometry": {
        "type": "Point",
        "coordinates": [
          127.0828704,
          36.3003006
        ]
      },
      "properties": {
        "osm_type": "way",
        "osm_id": 1135323478,
        "sido": "충청남도",
        "name": "호암병렬급전소",
        "name_en": "Hoam Parallel Post",
        "substation_type": "traction",
        "voltage": "55000;27500",
        "frequency": "",
        "operator": "한국철도시설공단",
        "location": "indoor"
      }
    },
    {
      "type": "Feature",
      "geometry": {
        "type": "Point",
        "coordinates": [
          127.0317137,
          36.1455013
        ]
      },
      "properties": {
        "osm_type": "way",
        "osm_id": 1135323481,
        "sido": "충청남도",
        "name": "장선병렬급전소",
        "name_en": "Jangseon Parallel Post",
        "substation_type": "traction",
        "voltage": "55000;27500",
        "frequency": "",
        "operator": "한국철도시설공단",
        "location": "indoor"
      }
    },
    {
      "type": "Feature",
      "geometry": {
        "type": "Point",
        "coordinates": [
          127.2611605,
          36.2752042
        ]
      },
      "properties": {
        "osm_type": "way",
        "osm_id": 1193544273,
        "sido": "충청남도",
        "name": "",
        "name_en": "",
        "substation_type": "traction",
        "voltage": "55000;27500",
        "frequency": "",
        "operator": "",
        "location": ""
      }
    },
    {
      "type": "Feature",
      "geometry": {
        "type": "Point",
        "coordinates": [
          127.203855,
          36.2134749
        ]
      },
      "properties": {
        "osm_type": "way",
        "osm_id": 1193544274,
        "sido": "충청남도",
        "name": "",
        "name_en": "",
        "substation_type": "traction",
        "voltage": "55000;27500",
        "frequency": "",
        "operator": "",
        "location": ""
      }
    },
    {
      "type": "Feature",
      "geometry": {
        "type": "Point",
        "coordinates": [
          127.1022094,
          36.2102044
        ]
      },
      "properties": {
        "osm_type": "way",
        "osm_id": 1193544275,
        "sido": "충청남도",
        "name": "",
        "name_en": "",
        "substation_type": "traction",
        "voltage": "55000;27500",
        "frequency": "",
        "operator": "",
        "location": ""
      }
    },
    {
      "type": "Feature",
      "geometry": {
        "type": "Point",
        "coordinates": [
          127.0341973,
          36.1621747
        ]
      },
      "properties": {
        "osm_type": "way",
        "osm_id": 1193544276,
        "sido": "충청남도",
        "name": "",
        "name_en": "",
        "substation_type": "traction",
        "voltage": "55000;27500",
        "frequency": "",
        "operator": "",
        "location": ""
      }
    },
    {
      "type": "Feature",
      "geometry": {
        "type": "Point",
        "coordinates": [
          127.1252636,
          36.7458947
        ]
      },
      "properties": {
        "osm_type": "way",
        "osm_id": 1193546757,
        "sido": "충청남도",
        "name": "",
        "name_en": "",
        "substation_type": "traction",
        "voltage": "55000;27500",
        "frequency": "",
        "operator": "",
        "location": ""
      }
    },
    {
      "type": "Feature",
      "geometry": {
        "type": "Point",
        "coordinates": [
          127.122961,
          36.9517791
        ]
      },
      "properties": {
        "osm_type": "way",
        "osm_id": 1193762352,
        "sido": "충청남도",
        "name": "",
        "name_en": "",
        "substation_type": "traction",
        "voltage": "55000;27500",
        "frequency": "",
        "operator": "",
        "location": ""
      }
    },
    {
      "type": "Feature",
      "geometry": {
        "type": "Point",
        "coordinates": [
          127.1472001,
          36.8622831
        ]
      },
      "properties": {
        "osm_type": "way",
        "osm_id": 1193762353,
        "sido": "충청남도",
        "name": "",
        "name_en": "",
        "substation_type": "traction",
        "voltage": "55000;27500",
        "frequency": "",
        "operator": "",
        "location": ""
      }
    },
    {
      "type": "Feature",
      "geometry": {
        "type": "Point",
        "coordinates": [
          127.1458758,
          36.8011325
        ]
      },
      "properties": {
        "osm_type": "way",
        "osm_id": 1193762354,
        "sido": "충청남도",
        "name": "",
        "name_en": "",
        "substation_type": "traction",
        "voltage": "154000;55000;27500",
        "frequency": "",
        "operator": "",
        "location": ""
      }
    },
    {
      "type": "Feature",
      "geometry": {
        "type": "Point",
        "coordinates": [
          127.0805466,
          36.8864255
        ]
      },
      "properties": {
        "osm_type": "way",
        "osm_id": 1193850042,
        "sido": "충청남도",
        "name": "",
        "name_en": "",
        "substation_type": "traction",
        "voltage": "55000;27500",
        "frequency": "",
        "operator": "",
        "location": ""
      }
    },
    {
      "type": "Feature",
      "geometry": {
        "type": "Point",
        "coordinates": [
          127.0954564,
          36.8286442
        ]
      },
      "properties": {
        "osm_type": "way",
        "osm_id": 1193850043,
        "sido": "충청남도",
        "name": "",
        "name_en": "",
        "substation_type": "traction",
        "voltage": "55000;27500",
        "frequency": "",
        "operator": "",
        "location": ""
      }
    },
    {
      "type": "Feature",
      "geometry": {
        "type": "Point",
        "coordinates": [
          127.1551203,
          36.7285731
        ]
      },
      "properties": {
        "osm_type": "way",
        "osm_id": 1193850045,
        "sido": "충청남도",
        "name": "",
        "name_en": "",
        "substation_type": "traction",
        "voltage": "55000;27500",
        "frequency": "",
        "operator": "",
        "location": ""
      }
    },
    {
      "type": "Feature",
      "geometry": {
        "type": "Point",
        "coordinates": [
          127.14608,
          36.3796373
        ]
      },
      "properties": {
        "osm_type": "way",
        "osm_id": 1193995774,
        "sido": "충청남도",
        "name": "봉명 급전구분소",
        "name_en": "Bongmyeon Sectioning Post",
        "substation_type": "traction",
        "voltage": "55000;27500",
        "frequency": "",
        "operator": "",
        "location": ""
      }
    },
    {
      "type": "Feature",
      "geometry": {
        "type": "Point",
        "coordinates": [
          127.2173802,
          36.4205941
        ]
      },
      "properties": {
        "osm_type": "way",
        "osm_id": 1193995775,
        "sido": "충청남도",
        "name": "마암병렬급전소",
        "name_en": "Maam Parallel Post",
        "substation_type": "traction",
        "voltage": "55000;27500",
        "frequency": "",
        "operator": "",
        "location": ""
      }
    },
    {
      "type": "Feature",
      "geometry": {
        "type": "Point",
        "coordinates": [
          126.9837338,
          36.7830102
        ]
      },
      "properties": {
        "osm_type": "way",
        "osm_id": 1195895336,
        "sido": "충청남도",
        "name": "",
        "name_en": "",
        "substation_type": "traction",
        "voltage": "55000;27500",
        "frequency": "",
        "operator": "",
        "location": ""
      }
    },
    {
      "type": "Feature",
      "geometry": {
        "type": "Point",
        "coordinates": [
          126.7332714,
          36.6804203
        ]
      },
      "properties": {
        "osm_type": "way",
        "osm_id": 1251844723,
        "sido": "충청남도",
        "name": "",
        "name_en": "",
        "substation_type": "traction",
        "voltage": "55000;27500",
        "frequency": "",
        "operator": "",
        "location": ""
      }
    },
    {
      "type": "Feature",
      "geometry": {
        "type": "Point",
        "coordinates": [
          127.1664816,
          36.7920265
        ]
      },
      "properties": {
        "osm_type": "way",
        "osm_id": 1321393784,
        "sido": "충청남도",
        "name": "",
        "name_en": "",
        "substation_type": "",
        "voltage": "",
        "frequency": "",
        "operator": "",
        "location": ""
      }
    }
  ]
}