{
  "type": "FeatureCollection",
  "features": [
    {
      "type": "Feature",
      "geometry": {
        "type": "Point",
        "coordinates": [
          126.4648934,
          37.439413
        ]
      },
      "properties": {
        "osm_type": "node",
        "osm_id": 4269890594,
        "sido": "인천광역시",
        "name": "주변전소B",
        "name_en": "",
        "substation_type": "",
        "voltage": "",
        "frequency": "",
        "operator": "",
        "location": ""
      }
    },
    {
      "type": "Feature",
      "geometry": {
        "type": "Point",
        "coordinates": [
          126.4654306,
          37.4608955
        ]
      },
      "properties": {
        "osm_type": "node",
        "osm_id": 5631611241,
        "sido": "인천광역시",
        "name": "화물배전변전소",
        "name_en": "",
        "substation_type": "",
        "voltage": "",
        "frequency": "",
        "operator": "",
        "location": ""
      }
    },
    {
      "type": "Feature",
      "geometry": {
        "type": "Point",
        "coordinates": [
          126.6907557,
          37.4744814
        ]
      },
      "properties": {
        "osm_type": "node",
        "osm_id": 10255410498,
        "sido": "인천광역시",
        "name": "",
        "name_en": "",
        "substation_type": "",
        "voltage": "",
        "frequency": "",
        "operator": "",
        "location": ""
      }
    },
    {
      "type": "Feature",
      "geometry": {
        "type": "Point",
        "coordinates": [
          126.7388309,
          37.5710574
        ]
      },
      "properties": {
        "osm_type": "way",
        "osm_id": 224161498,
        "sido": "인천광역시",
        "name": "계양변전소",
        "name_en": "",
        "substation_type": "distribution",
        "voltage": "154000",
        "frequency": "60",
        "operator": "",
        "location": "indoor"
      }
    },
    {
      "type": "Feature",
      "geometry": {
        "type": "Point",
        "coordinates": [
          126.7447653,
          37.5456038
        ]
      },
      "properties": {
        "osm_type": "way",
        "osm_id": 225141985,
        "sido": "인천광역시",
        "name": "임학변전소",
        "name_en": "",
        "substation_type": "",
        "voltage": "154000",
        "frequency": "",
        "operator": "한국전력공사",
        "location": "indoor"
      }
    },
    {
      "type": "Feature",
      "geometry": {
        "type": "Point",
        "coordinates": [
          126.7254914,
          37.4109464
        ]
      },
      "properties": {
        "osm_type": "way",
        "osm_id": 312319380,
        "sido": "인천광역시",
        "name": "",
        "name_en": "",
        "substation_type": "transition",
        "voltage": "154000",
        "frequency": "60",
        "operator": "",
        "location": "outdoor"
      }
    },
    {
      "type": "Feature",
      "geometry": {
        "type": "Point",
        "coordinates": [
          126.6499662,
          37.5199135
        ]
      },
      "properties": {
        "osm_type": "way",
        "osm_id": 312408983,
        "sido": "인천광역시",
        "name": "원창변전소",
        "name_en": "",
        "substation_type": "distribution",
        "voltage": "154000",
        "frequency": "60",
        "operator": "",
        "location": "indoor"
      }
    },
    {
      "type": "Feature",
      "geometry": {
        "type": "Point",
        "coordinates": [
          126.6967152,
          37.5828863
        ]
      },
      "properties": {
        "osm_type": "way",
        "osm_id": 373636455,
        "sido": "인천광역시",
        "name": "계양변전소",
        "name_en": "Gyeyang Substation",
        "substation_type": "distribution",
        "voltage": "154000",
        "frequency": "60",
        "operator": "한국전력공사",
        "location": "indoor"
      }
    },
    {
      "type": "Feature",
      "geometry": {
        "type": "Point",
        "coordinates": [
          126.7353853,
          37.5507484
        ]
      },
      "properties": {
        "osm_type": "way",
        "osm_id": 373636456,
        "sido": "인천광역시",
        "name": "",
        "name_en": "",
        "substation_type": "transition",
        "voltage": "154000",
        "frequency": "",
        "operator": "",
        "location": "outdoor"
      }
    },
    {
      "type": "Feature",
      "geometry": {
        "type": "Point",
        "coordinates": [
          126.6390466,
          37.3704679
        ]
      },
      "properties": {
        "osm_type": "way",
        "osm_id": 376783678,
        "sido": "인천광역시",
        "name": "송도변전소",
        "name_en": "",
        "substation_type": "distribution",
        "voltage": "154000",
        "frequency": "60",
        "operator": "",
        "location": "indoor"
      }
    },
    {
      "type": "Feature",
      "geometry": {
        "type": "Point",
        "coordinates": [
          126.667461,
          37.4253879
        ]
      },
      "properties": {
        "osm_type": "way",
        "osm_id": 407117093,
        "sido": "인천광역시",
        "name": "연수변전소",
        "name_en": "",
        "substation_type": "distribution",
        "voltage": "154000",
        "frequency": "60",
        "operator": "",
        "location": "indoor"
      }
    },
    {
      "type": "Feature",
      "geometry": {
        "type": "Point",
        "coordinates": [
          126.4263786,
          37.4735895
        ]
      },
      "properties": {
        "osm_type": "way",
        "osm_id": 450663582,
        "sido": "인천광역시",
        "name": "제4등화변전소",
        "name_en": "",
        "substation_type": "converter",
        "voltage": "",
        "frequency": "",
        "operator": "",
        "location": ""
      }
    },
    {
      "type": "Feature",
      "geometry": {
        "type": "Point",
        "coordinates": [
          126.692783,
          37.489196
        ]
      },
      "properties": {
        "osm_type": "way",
        "osm_id": 697599662,
        "sido": "인천광역시",
        "name": "신인천변전소",
        "name_en": "Shin-Incheon Substation",
        "substation_type": "transmission",
        "voltage": "345000",
        "frequency": "60",
        "operator": "",
        "location": "outdoor"
      }
    },
    {
      "type": "Feature",
      "geometry": {
        "type": "Point",
        "coordinates": [
          126.6651169,
          37.4832622
        ]
      },
      "properties": {
        "osm_type": "way",
        "osm_id": 697599673,
        "sido": "인천광역시",
        "name": "",
        "name_en": "",
        "substation_type": "",
        "voltage": "",
        "frequency": "",
        "operator": "",
        "location": ""
      }
    },
    {
      "type": "Feature",
      "geometry": {
        "type": "Point",
        "coordinates": [
          126.7303473,
          37.516065
        ]
      },
      "properties": {
        "osm_type": "way",
        "osm_id": 886116895,
        "sido": "인천광역시",
        "name": "신부평변전소",
        "name_en": "Shin-Bupyeong Substation",
        "substation_type": "transmission",
        "voltage": "345000",
        "frequency": "60",
        "operator": "",
        "location": "underground"
      }
    },
    {
      "type": "Feature",
      "geometry": {
        "type": "Point",
        "coordinates": [
          126.4814868,
          37.6816847
        ]
      },
      "properties": {
        "osm_type": "way",
        "osm_id": 888094920,
        "sido": "인천광역시",
        "name": "강화변전소",
        "name_en": "Ganghwa Substation",
        "substation_type": "distribution",
        "voltage": "154000",
        "frequency": "60",
        "operator": "한국전력공사",
        "location": "indoor"
      }
    },
    {
      "type": "Feature",
      "geometry": {
        "type": "Point",
        "coordinates": [
          126.6473088,
          37.4372012
        ]
      },
      "properties": {
        "osm_type": "way",
        "osm_id": 892213718,
        "sido": "인천광역시",
        "name": "학익변전소",
        "name_en": "",
        "substation_type": "distribution",
        "voltage": "154000",
        "frequency": "60",
        "operator": "",
        "location": "indoor"
      }
    },
    {
      "type": "Feature",
      "geometry": {
        "type": "Point",
        "coordinates": [
          126.6988957,
          37.4721503
        ]
      },
      "properties": {
        "osm_type": "way",
        "osm_id": 892213719,
        "sido": "인천광역시",
        "name": "주안변전소",
        "name_en": "",
        "substation_type": "distribution",
        "voltage": "154000",
        "frequency": "60",
        "operator": "",
        "location": "indoor"
      }
    },
    {
      "type": "Feature",
      "geometry": {
        "type": "Point",
        "coordinates": [
          126.655632,
          37.4618009
        ]
      },
      "properties": {
        "osm_type": "way",
        "osm_id": 892213720,
        "sido": "인천광역시",
        "name": "인천변전소",
        "name_en": "",
        "substation_type": "distribution",
        "voltage": "154000",
        "frequency": "60",
        "operator": "",
        "location": "indoor"
      }
    },
    {
      "type": "Feature",
      "geometry": {
        "type": "Point",
        "coordinates": [
          126.6609864,
          37.4823823
        ]
      },
      "properties": {
        "osm_type": "way",
        "osm_id": 892213722,
        "sido": "인천광역시",
        "name": "신현변전소",
        "name_en": "",
        "substation_type": "distribution",
        "voltage": "154000",
        "frequency": "60",
        "operator": "",
        "location": "indoor"
      }
    },
    {
      "type": "Feature",
      "geometry": {
        "type": "Point",
        "coordinates": [
          126.6376797,
          37.4814598
        ]
      },
      "properties": {
        "osm_type": "way",
        "osm_id": 892213723,
        "sido": "인천광역시",
        "name": "송현변전소",
        "name_en": "",
        "substation_type": "distribution",
        "voltage": "154000",
        "frequency": "60",
        "operator": "",
        "location": "indoor"
      }
    },
    {
      "type": "Feature",
      "geometry": {
        "type": "Point",
        "coordinates": [
          126.675451,
          37.5284642
        ]
      },
      "properties": {
        "osm_type": "way",
        "osm_id": 892213724,
        "sido": "인천광역시",
        "name": "북인천변전소",
        "name_en": "",
        "substation_type": "distribution",
        "voltage": "154000",
        "frequency": "60",
        "operator": "",
        "location": "indoor"
      }
    },
    {
      "type": "Feature",
      "geometry": {
        "type": "Point",
        "coordinates": [
          126.7316093,
          37.4413606
        ]
      },
      "properties": {
        "osm_type": "way",
        "osm_id": 892213725,
        "sido": "인천광역시",
        "name": "만수변전소",
        "name_en": "",
        "substation_type": "distribution",
        "voltage": "154000",
        "frequency": "60",
        "operator": "",
        "location": "indoor"
      }
    },
    {
      "type": "Feature",
      "geometry": {
        "type": "Point",
        "coordinates": [
          126.4754216,
          37.4958123
        ]
      },
      "properties": {
        "osm_type": "way",
        "osm_id": 892213726,
        "sido": "인천광역시",
        "name": "영종변전소",
        "name_en": "",
        "substation_type": "distribution",
        "voltage": "154000",
        "frequency": "60",
        "operator": "",
        "location": "indoor"
      }
    },
    {
      "type": "Feature",
      "geometry": {
        "type": "Point",
        "coordinates": [
          126.6191181,
          37.481985
        ]
      },
      "properties": {
        "osm_type": "way",
        "osm_id": 892213728,
        "sido": "인천광역시",
        "name": "송월변전소",
        "name_en": "",
        "substation_type": "distribution",
        "voltage": "154000",
        "frequency": "60",
        "operator": "",
        "location": "indoor"
      }
    },
    {
      "type": "Feature",
      "geometry": {
        "type": "Point",
        "coordinates": [
          126.6341002,
          37.4620819
        ]
      },
      "properties": {
        "osm_type": "way",
        "osm_id": 892213729,
        "sido": "인천광역시",
        "name": "남인천변전소",
        "name_en": "",
        "substation_type": "distribution",
        "voltage": "154000",
        "frequency": "60",
        "operator": "",
        "location": "indoor"
      }
    },
    {
      "type": "Feature",
      "geometry": {
        "type": "Point",
        "coordinates": [
          126.7029189,
          37.4391813
        ]
      },
      "properties": {
        "osm_type": "way",
        "osm_id": 892213730,
        "sido": "인천광역시",
        "name": "관교변전소",
        "name_en": "",
        "substation_type": "distribution",
        "voltage": "154000",
        "frequency": "60",
        "operator": "",
        "location": "indoor"
      }
    },
    {
      "type": "Feature",
      "geometry": {
        "type": "Point",
        "coordinates": [
          126.6220227,
          37.5875047
        ]
      },
      "properties": {
        "osm_type": "way",
        "osm_id": 892213731,
        "sido": "인천광역시",
        "name": "왕길변전소",
        "name_en": "Wanggil Substation",
        "substation_type": "distribution",
        "voltage": "154000",
        "frequency": "60",
        "operator": "한국전력공사",
        "location": "outdoor"
      }
    },
    {
      "type": "Feature",
      "geometry": {
        "type": "Point",
        "coordinates": [
          126.6472136,
          37.5500108
        ]
      },
      "properties": {
        "osm_type": "way",
        "osm_id": 892213732,
        "sido": "인천광역시",
        "name": "경서변전소",
        "name_en": "",
        "substation_type": "distribution",
        "voltage": "154000",
        "frequency": "60",
        "operator": "",
        "location": "indoor"
      }
    },
    {
      "type": "Feature",
      "geometry": {
        "type": "Point",
        "coordinates": [
          126.6130221,
          37.529393
        ]
      },
      "properties": {
        "osm_type": "way",
        "osm_id": 892213733,
        "sido": "인천광역시",
        "name": "",
        "name_en": "",
        "substation_type": "distribution",
        "voltage": "154000",
        "frequency": "60",
        "operator": "",
        "location": "indoor"
      }
    },
    {
      "type": "Feature",
      "geometry": {
        "type": "Point",
        "coordinates": [
          126.6491461,
          37.5408555
        ]
      },
      "properties": {
        "osm_type": "way",
        "osm_id": 892213734,
        "sido": "인천광역시",
        "name": "청라변전소",
        "name_en": "",
        "substation_type": "distribution",
        "voltage": "154000",
        "frequency": "60",
        "operator": "",
        "location": "indoor"
      }
    },
    {
      "type": "Feature",
      "geometry": {
        "type": "Point",
        "coordinates": [
          126.7312929,
          37.485823
        ]
      },
      "properties": {
        "osm_type": "way",
        "osm_id": 892213735,
        "sido": "인천광역시",
        "name": "부개변전소",
        "name_en": "",
        "substation_type": "distribution",
        "voltage": "154000",
        "frequency": "60",
        "operator": "",
        "location": "indoor"
      }
    },
    {
      "type": "Feature",
      "geometry": {
        "type": "Point",
        "coordinates": [
          126.6955301,
          37.3961233
        ]
      },
      "properties": {
        "osm_type": "way",
        "osm_id": 892604031,
        "sido": "인천광역시",
        "name": "고잔변전소",
        "name_en": "",
        "substation_type": "distribution",
        "voltage": "154000",
        "frequency": "60",
        "operator": "",
        "location": "indoor"
      }
    },
    {
      "type": "Feature",
      "geometry": {
        "type": "Point",
        "coordinates": [
          126.7547153,
          37.4232927
        ]
      },
      "properties": {
        "osm_type": "way",
        "osm_id": 892604032,
        "sido": "인천광역시",
        "name": "도림변전소",
        "name_en": "",
        "substation_type": "distribution",
        "voltage": "154000",
        "frequency": "60",
        "operator": "",
        "location": "indoor"
      }
    },
    {
      "type": "Feature",
      "geometry": {
        "type": "Point",
        "coordinates": [
          126.630026,
          37.4065073
        ]
      },
      "properties": {
        "osm_type": "way",
        "osm_id": 892604033,
        "sido": "인천광역시",
        "name": "북송도변전소",
        "name_en": "",
        "substation_type": "distribution",
        "voltage": "154000",
        "frequency": "60",
        "operator": "",
        "location": "indoor"
      }
    },
    {
      "type": "Feature",
      "geometry": {
        "type": "Point",
        "coordinates": [
          126.6646665,
          37.3675138
        ]
      },
      "properties": {
        "osm_type": "way",
        "osm_id": 892604034,
        "sido": "인천광역시",
        "name": "동송도변전소",
        "name_en": "",
        "substation_type": "distribution",
        "voltage": "154000",
        "frequency": "60",
        "operator": "",
        "location": "indoor"
      }
    },
    {
      "type": "Feature",
      "geometry": {
        "type": "Point",
        "coordinates": [
          126.7178003,
          37.3992147
        ]
      },
      "properties": {
        "osm_type": "way",
        "osm_id": 892604035,
        "sido": "인천광역시",
        "name": "오봉변전소",
        "name_en": "",
        "substation_type": "distribution",
        "voltage": "154000",
        "frequency": "60",
        "operator": "",
        "location": "indoor"
      }
    },
    {
      "type": "Feature",
      "geometry": {
        "type": "Point",
        "coordinates": [
          126.6740255,
          37.3957882
        ]
      },
      "properties": {
        "osm_type": "way",
        "osm_id": 892604036,
        "sido": "인천광역시",
        "name": "동춘변전소",
        "name_en": "",
        "substation_type": "distribution",
        "voltage": "154000",
        "frequency": "60",
        "operator": "",
        "location": "indoor"
      }
    },
    {
      "type": "Feature",
      "geometry": {
        "type": "Point",
        "coordinates": [
          126.6904802,
          37.4116482
        ]
      },
      "properties": {
        "osm_type": "way",
        "osm_id": 892604037,
        "sido": "인천광역시",
        "name": "남동변전소",
        "name_en": "Namdong Substation",
        "substation_type": "distribution",
        "voltage": "154000",
        "frequency": "60",
        "operator": "한국전력공사",
        "location": "indoor"
      }
    },
    {
      "type": "Feature",
      "geometry": {
        "type": "Point",
        "coordinates": [
          126.5325531,
          37.4846226
        ]
      },
      "properties": {
        "osm_type": "way",
        "osm_id": 892604038,
        "sido": "인천광역시",
        "name": "중산변전소",
        "name_en": "",
        "substation_type": "distribution",
        "voltage": "154000",
        "frequency": "60",
        "operator": "",
        "location": "indoor"
      }
    },
    {
      "type": "Feature",
      "geometry": {
        "type": "Point",
        "coordinates": [
          126.3967822,
          37.7089124
        ]
      },
      "properties": {
        "osm_type": "way",
        "osm_id": 1046525854,
        "sido": "인천광역시",
        "name": "서강화변전소",
        "name_en": "Seoganghwa Substation",
        "substation_type": "distribution",
        "voltage": "154000",
        "frequency": "",
        "operator": "한국전력공사",
        "location": "indoor"
      }
    },
    {
      "type": "Feature",
      "geometry": {
        "type": "Point",
        "coordinates": [
          126.439827,
          37.2365974
        ]
      },
      "properties": {
        "osm_type": "way",
        "osm_id": 1093106965,
        "sido": "인천광역시",
        "name": "",
        "name_en": "",
        "substation_type": "transmission",
        "voltage": "345000",
        "frequency": "60",
        "operator": "",
        "location": ""
      }
    },
    {
      "type": "Feature",
      "geometry": {
        "type": "Point",
        "coordinates": [
          126.4405857,
          37.250751
        ]
      },
      "properties": {
        "osm_type": "way",
        "osm_id": 1093106969,
        "sido": "인천광역시",
        "name": "",
        "name_en": "",
        "substation_type": "transmission",
        "voltage": "345000",
        "frequency": "60",
        "operator": "",
        "location": ""
      }
    },
    {
      "type": "Feature",
      "geometry": {
        "type": "Point",
        "coordinates": [
          126.4405364,
          37.2480846
        ]
      },
      "properties": {
        "osm_type": "way",
        "osm_id": 1430648471,
        "sido": "인천광역시",
        "name": "",
        "name_en": "",
        "substation_type": "",
        "voltage": "",
        "frequency": "",
        "operator": "",
        "location": ""
      }
    },
    {
      "type": "Feature",
      "geometry": {
        "type": "Point",
        "coordinates": [
          126.437599,
          37.2405693
        ]
      },
      "properties": {
        "osm_type": "way",
        "osm_id": 1430770678,
        "sido": "인천광역시",
        "name": "",
        "name_en": "",
        "substation_type": "",
        "voltage": "",
        "frequency": "",
        "operator": "",
        "location": ""
      }
    },
    {
      "type": "Feature",
      "geometry": {
        "type": "Point",
        "coordinates": [
          126.4393446,
          37.2363979
        ]
      },
      "properties": {
        "osm_type": "way",
        "osm_id": 1430838230,
        "sido": "인천광역시",
        "name": "",
        "name_en": "",
        "substation_type": "transmission",
        "voltage": "345000",
        "frequency": "60",
        "operator": "",
        "location": ""
      }
    }
  ]
}