{
  "type": "FeatureCollection",
  "features": [
    {
      "type": "Feature",
      "geometry": {
        "type": "Point",
        "coordinates": [
          127.4391924,
          36.3235269
        ]
      },
      "properties": {
        "osm_type": "node",
        "osm_id": 12090067125,
        "sido": "대전광역시",
        "name": "동대전변전소",
        "name_en": "",
        "substation_type": "",
        "voltage": "154000",
        "frequency": "",
        "operator": "",
        "location": "underground"
      }
    },
    {
      "type": "Feature",
      "geometry": {
        "type": "Point",
        "coordinates": [
          127.3155231,
          36.3796007
        ]
      },
      "properties": {
        "osm_type": "way",
        "osm_id": 148847549,
        "sido": "대전광역시",
        "name": "유성변전소",
        "name_en": "Yuseong Substation",
        "substation_type": "distribution",
        "voltage": "154000",
        "frequency": "60",
        "operator": "",
        "location": "indoor"
      }
    },
    {
      "type": "Feature",
      "geometry": {
        "type": "Point",
        "coordinates": [
          127.3803411,
          36.4214145
        ]
      },
      "properties": {
        "osm_type": "way",
        "osm_id": 312319420,
        "sido": "대전광역시",
        "name": "덕진변전소",
        "name_en": "Deokjin Substation",
        "substation_type": "distribution",
        "voltage": "154000",
        "frequency": "60",
        "operator": "",
        "location": "outdoor"
      }
    },
    {
      "type": "Feature",
      "geometry": {
        "type": "Point",
        "coordinates": [
          127.4586312,
          36.3426381
        ]
      },
      "properties": {
        "osm_type": "way",
        "osm_id": 312319435,
        "sido": "대전광역시",
        "name": "용운변전소",
        "name_en": "Yongun Substation",
        "substation_type": "distribution",
        "voltage": "154000",
        "frequency": "60",
        "operator": "",
        "location": "indoor"
      }
    },
    {
      "type": "Feature",
      "geometry": {
        "type": "Point",
        "coordinates": [
          127.3779711,
          36.3799054
        ]
      },
      "properties": {
        "osm_type": "way",
        "osm_id": 312319436,
        "sido": "대전광역시",
        "name": "대덕변전소",
        "name_en": "Daedeok Substation",
        "substation_type": "distribution",
        "voltage": "154000",
        "frequency": "60",
        "operator": "",
        "location": "indoor"
      }
    },
    {
      "type": "Feature",
      "geometry": {
        "type": "Point",
        "coordinates": [
          127.3360126,
          36.2984988
        ]
      },
      "properties": {
        "osm_type": "way",
        "osm_id": 617558713,
        "sido": "대전광역시",
        "name": "가수원변전소",
        "name_en": "",
        "substation_type": "distribution",
        "voltage": "154000",
        "frequency": "60",
        "operator": "",
        "location": "indoor"
      }
    },
    {
      "type": "Feature",
      "geometry": {
        "type": "Point",
        "coordinates": [
          127.3911212,
          36.3175057
        ]
      },
      "properties": {
        "osm_type": "way",
        "osm_id": 754127178,
        "sido": "대전광역시",
        "name": "유천변전소",
        "name_en": "",
        "substation_type": "distribution",
        "voltage": "154000",
        "frequency": "60",
        "operator": "",
        "location": "indoor"
      }
    },
    {
      "type": "Feature",
      "geometry": {
        "type": "Point",
        "coordinates": [
          127.396172,
          36.4263402
        ]
      },
      "properties": {
        "osm_type": "way",
        "osm_id": 888332863,
        "sido": "대전광역시",
        "name": "송강변전소",
        "name_en": "",
        "substation_type": "distribution",
        "voltage": "154000",
        "frequency": "60",
        "operator": "",
        "location": "indoor"
      }
    },
    {
      "type": "Feature",
      "geometry": {
        "type": "Point",
        "coordinates": [
          127.3725019,
          36.3278274
        ]
      },
      "properties": {
        "osm_type": "way",
        "osm_id": 890587111,
        "sido": "대전광역시",
        "name": "서대전변전소",
        "name_en": "East-Daejeon Substation",
        "substation_type": "distribution",
        "voltage": "154000",
        "frequency": "60",
        "operator": "",
        "location": "indoor"
      }
    },
    {
      "type": "Feature",
      "geometry": {
        "type": "Point",
        "coordinates": [
          127.4548071,
          36.3039157
        ]
      },
      "properties": {
        "osm_type": "way",
        "osm_id": 890587112,
        "sido": "대전광역시",
        "name": "남대전변전소",
        "name_en": "South-Daejeon Substation",
        "substation_type": "distribution",
        "voltage": "154000",
        "frequency": "60",
        "operator": "",
        "location": "indoor"
      }
    },
    {
      "type": "Feature",
      "geometry": {
        "type": "Point",
        "coordinates": [
          127.4015972,
          36.4400446
        ]
      },
      "properties": {
        "osm_type": "way",
        "osm_id": 894528095,
        "sido": "대전광역시",
        "name": "신일변전소",
        "name_en": "",
        "substation_type": "distribution",
        "voltage": "154000",
        "frequency": "60",
        "operator": "",
        "location": "indoor"
      }
    },
    {
      "type": "Feature",
      "geometry": {
        "type": "Point",
        "coordinates": [
          127.3770915,
          36.3566673
        ]
      },
      "properties": {
        "osm_type": "way",
        "osm_id": 894528096,
        "sido": "대전광역시",
        "name": "둔산변전소",
        "name_en": "",
        "substation_type": "distribution",
        "voltage": "154000",
        "frequency": "60",
        "operator": "",
        "location": "indoor"
      }
    },
    {
      "type": "Feature",
      "geometry": {
        "type": "Point",
        "coordinates": [
          127.4149235,
          36.374836
        ]
      },
      "properties": {
        "osm_type": "way",
        "osm_id": 894528097,
        "sido": "대전광역시",
        "name": "대화변전소",
        "name_en": "Daehwa Substation",
        "substation_type": "distribution",
        "voltage": "154000",
        "frequency": "60",
        "operator": "",
        "location": "indoor"
      }
    },
    {
      "type": "Feature",
      "geometry": {
        "type": "Point",
        "coordinates": [
          127.4407236,
          36.3230969
        ]
      },
      "properties": {
        "osm_type": "way",
        "osm_id": 894736437,
        "sido": "대전광역시",
        "name": "신흥변전소",
        "name_en": "",
        "substation_type": "distribution",
        "voltage": "154000",
        "frequency": "60",
        "operator": "",
        "location": "indoor"
      }
    },
    {
      "type": "Feature",
      "geometry": {
        "type": "Point",
        "coordinates": [
          127.4348389,
          36.4448436
        ]
      },
      "properties": {
        "osm_type": "way",
        "osm_id": 894736439,
        "sido": "대전광역시",
        "name": "신탄진변전소",
        "name_en": "Shin-Tanjin Substation",
        "substation_type": "distribution",
        "voltage": "154000",
        "frequency": "60",
        "operator": "",
        "location": "outdoor"
      }
    },
    {
      "type": "Feature",
      "geometry": {
        "type": "Point",
        "coordinates": [
          127.416894,
          36.3553502
        ]
      },
      "properties": {
        "osm_type": "way",
        "osm_id": 1193544271,
        "sido": "대전광역시",
        "name": "",
        "name_en": "",
        "substation_type": "traction",
        "voltage": "55000;27500",
        "frequency": "",
        "operator": "",
        "location": ""
      }
    },
    {
      "type": "Feature",
      "geometry": {
        "type": "Point",
        "coordinates": [
          127.3959709,
          36.3086757
        ]
      },
      "properties": {
        "osm_type": "way",
        "osm_id": 1193544272,
        "sido": "대전광역시",
        "name": "",
        "name_en": "",
        "substation_type": "traction",
        "voltage": "55000;27500",
        "frequency": "",
        "operator": "",
        "location": ""
      }
    },
    {
      "type": "Feature",
      "geometry": {
        "type": "Point",
        "coordinates": [
          127.4269819,
          36.4377885
        ]
      },
      "properties": {
        "osm_type": "way",
        "osm_id": 1193850048,
        "sido": "대전광역시",
        "name": "",
        "name_en": "",
        "substation_type": "traction",
        "voltage": "55000;27500",
        "frequency": "",
        "operator": "",
        "location": ""
      }
    },
    {
      "type": "Feature",
      "geometry": {
        "type": "Point",
        "coordinates": [
          127.4147713,
          36.398336
        ]
      },
      "properties": {
        "osm_type": "way",
        "osm_id": 1193850049,
        "sido": "대전광역시",
        "name": "",
        "name_en": "",
        "substation_type": "traction",
        "voltage": "55000;27500",
        "frequency": "",
        "operator": "",
        "location": ""
      }
    },
    {
      "type": "Feature",
      "geometry": {
        "type": "Point",
        "coordinates": [
          127.461028,
          36.3138305
        ]
      },
      "properties": {
        "osm_type": "way",
        "osm_id": 1195121224,
        "sido": "대전광역시",
        "name": "",
        "name_en": "",
        "substation_type": "traction",
        "voltage": "55000;27500",
        "frequency": "",
        "operator": "",
        "location": ""
      }
    },
    {
      "type": "Feature",
      "geometry": {
        "type": "Point",
        "coordinates": [
          127.49532,
          36.3388871
        ]
      },
      "properties": {
        "osm_type": "way",
        "osm_id": 1195121225,
        "sido": "대전광역시",
        "name": "",
        "name_en": "",
        "substation_type": "traction",
        "voltage": "55000;27500",
        "frequency": "",
        "operator": "",
        "location": ""
      }
    },
    {
      "type": "Feature",
      "geometry": {
        "type": "Point",
        "coordinates": [
          127.4159743,
          36.4286437
        ]
      },
      "properties": {
        "osm_type": "way",
        "osm_id": 1196122078,
        "sido": "대전광역시",
        "name": "",
        "name_en": "",
        "substation_type": "traction",
        "voltage": "55000;27500",
        "frequency": "",
        "operator": "",
        "location": ""
      }
    },
    {
      "type": "Feature",
      "geometry": {
        "type": "Point",
        "coordinates": [
          127.3508491,
          36.4460906
        ]
      },
      "properties": {
        "osm_type": "way",
        "osm_id": 1432641512,
        "sido": "대전광역시",
        "name": "",
        "name_en": "",
        "substation_type": "",
        "voltage": "154000",
        "frequency": "60",
        "operator": "",
        "location": "indoor"
      }
    }
  ]
}