{
  "type": "FeatureCollection",
  "features": [
    {
      "type": "Feature",
      "geometry": {
        "type": "Point",
        "coordinates": [
          129.047242,
          35.3538473
        ]
      },
      "properties": {
        "osm_type": "node",
        "osm_id": 13051542125,
        "sido": "경상남도",
        "name": "한국전력공사 양산지사",
        "name_en": "",
        "substation_type": "",
        "voltage": "",
        "frequency": "",
        "operator": "한국전력공사",
        "location": ""
      }
    },
    {
      "type": "Feature",
      "geometry": {
        "type": "Point",
        "coordinates": [
          127.913442,
          35.6656024
        ]
      },
      "properties": {
        "osm_type": "way",
        "osm_id": 72987238,
        "sido": "경상남도",
        "name": "거창변전소",
        "name_en": "Geochang Substation",
        "substation_type": "distribution",
        "voltage": "154000",
        "frequency": "60",
        "operator": "KEPCO",
        "location": "indoor"
      }
    },
    {
      "type": "Feature",
      "geometry": {
        "type": "Point",
        "coordinates": [
          128.1292314,
          35.3413247
        ]
      },
      "properties": {
        "osm_type": "way",
        "osm_id": 310266398,
        "sido": "경상남도",
        "name": "의령변전소",
        "name_en": "Uiryeong Substation",
        "substation_type": "transmission",
        "voltage": "345000",
        "frequency": "60",
        "operator": "",
        "location": "outdoor"
      }
    },
    {
      "type": "Feature",
      "geometry": {
        "type": "Point",
        "coordinates": [
          128.5252752,
          35.2876184
        ]
      },
      "properties": {
        "osm_type": "way",
        "osm_id": 310266400,
        "sido": "경상남도",
        "name": "신마산변전소",
        "name_en": "Shin-Masan Substation",
        "substation_type": "transmission",
        "voltage": "345000",
        "frequency": "60",
        "operator": "",
        "location": "outdoor"
      }
    },
    {
      "type": "Feature",
      "geometry": {
        "type": "Point",
        "coordinates": [
          128.7826875,
          35.1190014
        ]
      },
      "properties": {
        "osm_type": "way",
        "osm_id": 310395601,
        "sido": "경상남도",
        "name": "마천변전소",
        "name_en": "Macheon Substation",
        "substation_type": "distribution",
        "voltage": "154000",
        "frequency": "60",
        "operator": "",
        "location": "indoor"
      }
    },
    {
      "type": "Feature",
      "geometry": {
        "type": "Point",
        "coordinates": [
          128.7974246,
          35.2064335
        ]
      },
      "properties": {
        "osm_type": "way",
        "osm_id": 310395610,
        "sido": "경상남도",
        "name": "장유변전소",
        "name_en": "Jangyu Substation",
        "substation_type": "distribution",
        "voltage": "154000",
        "frequency": "60",
        "operator": "",
        "location": "indoor"
      }
    },
    {
      "type": "Feature",
      "geometry": {
        "type": "Point",
        "coordinates": [
          129.1760163,
          35.4066038
        ]
      },
      "properties": {
        "osm_type": "way",
        "osm_id": 310574466,
        "sido": "경상남도",
        "name": "서창변전소",
        "name_en": "",
        "substation_type": "transition",
        "voltage": "345000",
        "frequency": "60",
        "operator": "",
        "location": "outdoor"
      }
    },
    {
      "type": "Feature",
      "geometry": {
        "type": "Point",
        "coordinates": [
          128.5315871,
          35.4447953
        ]
      },
      "properties": {
        "osm_type": "way",
        "osm_id": 312375473,
        "sido": "경상남도",
        "name": "창녕변전소",
        "name_en": "Changnyeong Substation",
        "substation_type": "distribution",
        "voltage": "154000",
        "frequency": "60",
        "operator": "",
        "location": "outdoor"
      }
    },
    {
      "type": "Feature",
      "geometry": {
        "type": "Point",
        "coordinates": [
          128.488655,
          35.3579892
        ]
      },
      "properties": {
        "osm_type": "way",
        "osm_id": 312375500,
        "sido": "경상남도",
        "name": "칠서변전소",
        "name_en": "Chilseo Substation",
        "substation_type": "distribution",
        "voltage": "154000",
        "frequency": "60",
        "operator": "",
        "location": "outdoor"
      }
    },
    {
      "type": "Feature",
      "geometry": {
        "type": "Point",
        "coordinates": [
          128.5009994,
          35.5654196
        ]
      },
      "properties": {
        "osm_type": "way",
        "osm_id": 312375505,
        "sido": "경상남도",
        "name": "",
        "name_en": "",
        "substation_type": "industrial",
        "voltage": "154000",
        "frequency": "60",
        "operator": "",
        "location": "outdoor"
      }
    },
    {
      "type": "Feature",
      "geometry": {
        "type": "Point",
        "coordinates": [
          128.9719841,
          35.3313691
        ]
      },
      "properties": {
        "osm_type": "way",
        "osm_id": 312424734,
        "sido": "경상남도",
        "name": "",
        "name_en": "",
        "substation_type": "transition",
        "voltage": "154000",
        "frequency": "60",
        "operator": "",
        "location": "outdoor"
      }
    },
    {
      "type": "Feature",
      "geometry": {
        "type": "Point",
        "coordinates": [
          129.03656,
          35.361264
        ]
      },
      "properties": {
        "osm_type": "way",
        "osm_id": 312424737,
        "sido": "경상남도",
        "name": "양산변전소",
        "name_en": "",
        "substation_type": "distribution",
        "voltage": "154000",
        "frequency": "60",
        "operator": "",
        "location": "outdoor"
      }
    },
    {
      "type": "Feature",
      "geometry": {
        "type": "Point",
        "coordinates": [
          128.8776312,
          35.4131096
        ]
      },
      "properties": {
        "osm_type": "way",
        "osm_id": 313355100,
        "sido": "경상남도",
        "name": "",
        "name_en": "",
        "substation_type": "transmission",
        "voltage": "154000",
        "frequency": "60",
        "operator": "",
        "location": "outdoor"
      }
    },
    {
      "type": "Feature",
      "geometry": {
        "type": "Point",
        "coordinates": [
          129.0341332,
          35.3299218
        ]
      },
      "properties": {
        "osm_type": "way",
        "osm_id": 313355104,
        "sido": "경상남도",
        "name": "",
        "name_en": "",
        "substation_type": "transition",
        "voltage": "154000",
        "frequency": "60",
        "operator": "",
        "location": "outdoor"
      }
    },
    {
      "type": "Feature",
      "geometry": {
        "type": "Point",
        "coordinates": [
          128.7458097,
          35.4858732
        ]
      },
      "properties": {
        "osm_type": "way",
        "osm_id": 313355118,
        "sido": "경상남도",
        "name": "밀양변전소",
        "name_en": "Miryang Substation",
        "substation_type": "distribution",
        "voltage": "154000",
        "frequency": "60",
        "operator": "",
        "location": "indoor"
      }
    },
    {
      "type": "Feature",
      "geometry": {
        "type": "Point",
        "coordinates": [
          127.77762,
          35.076709
        ]
      },
      "properties": {
        "osm_type": "way",
        "osm_id": 313388404,
        "sido": "경상남도",
        "name": "하동변전소",
        "name_en": "Hadong Substation",
        "substation_type": "distribution",
        "voltage": "154000",
        "frequency": "60",
        "operator": "",
        "location": "outdoor"
      }
    },
    {
      "type": "Feature",
      "geometry": {
        "type": "Point",
        "coordinates": [
          127.8946686,
          34.8524157
        ]
      },
      "properties": {
        "osm_type": "way",
        "osm_id": 313388489,
        "sido": "경상남도",
        "name": "남해변전소",
        "name_en": "Namhae Substation",
        "substation_type": "distribution",
        "voltage": "154000",
        "frequency": "60",
        "operator": "",
        "location": "outdoor"
      }
    },
    {
      "type": "Feature",
      "geometry": {
        "type": "Point",
        "coordinates": [
          127.7748199,
          35.5300273
        ]
      },
      "properties": {
        "osm_type": "way",
        "osm_id": 313397133,
        "sido": "경상남도",
        "name": "함양변전소",
        "name_en": "Hamyang Substation",
        "substation_type": "distribution",
        "voltage": "154000",
        "frequency": "60",
        "operator": "",
        "location": "outdoor"
      }
    },
    {
      "type": "Feature",
      "geometry": {
        "type": "Point",
        "coordinates": [
          128.3340127,
          34.9681463
        ]
      },
      "properties": {
        "osm_type": "way",
        "osm_id": 313654649,
        "sido": "경상남도",
        "name": "고성변전소",
        "name_en": "",
        "substation_type": "distribution",
        "voltage": "154000",
        "frequency": "60",
        "operator": "",
        "location": "indoor"
      }
    },
    {
      "type": "Feature",
      "geometry": {
        "type": "Point",
        "coordinates": [
          128.8273794,
          35.2232909
        ]
      },
      "properties": {
        "osm_type": "way",
        "osm_id": 415824138,
        "sido": "경상남도",
        "name": "주촌변전소",
        "name_en": "Juchon Substation",
        "substation_type": "distribution",
        "voltage": "154000",
        "frequency": "60",
        "operator": "",
        "location": "indoor"
      }
    },
    {
      "type": "Feature",
      "geometry": {
        "type": "Point",
        "coordinates": [
          128.7200249,
          35.1885235
        ]
      },
      "properties": {
        "osm_type": "way",
        "osm_id": 415918578,
        "sido": "경상남도",
        "name": "삼정변전소",
        "name_en": "Samjeong Substation",
        "substation_type": "distribution",
        "voltage": "154000",
        "frequency": "60",
        "operator": "",
        "location": "outdoor"
      }
    },
    {
      "type": "Feature",
      "geometry": {
        "type": "Point",
        "coordinates": [
          128.6301787,
          34.8717502
        ]
      },
      "properties": {
        "osm_type": "way",
        "osm_id": 461268914,
        "sido": "경상남도",
        "name": "거제변전소",
        "name_en": "Geoje Substation",
        "substation_type": "distribution",
        "voltage": "154000",
        "frequency": "60",
        "operator": "",
        "location": "indoor"
      }
    },
    {
      "type": "Feature",
      "geometry": {
        "type": "Point",
        "coordinates": [
          128.1112907,
          34.9129075
        ]
      },
      "properties": {
        "osm_type": "way",
        "osm_id": 814396959,
        "sido": "경상남도",
        "name": "신고성변전소",
        "name_en": "Shin-Goseong Substation",
        "substation_type": "transmission",
        "voltage": "345000",
        "frequency": "60",
        "operator": "",
        "location": "indoor"
      }
    },
    {
      "type": "Feature",
      "geometry": {
        "type": "Point",
        "coordinates": [
          128.0677852,
          35.5461008
        ]
      },
      "properties": {
        "osm_type": "way",
        "osm_id": 814808441,
        "sido": "경상남도",
        "name": "",
        "name_en": "",
        "substation_type": "distribution",
        "voltage": "154000",
        "frequency": "60",
        "operator": "",
        "location": ""
      }
    },
    {
      "type": "Feature",
      "geometry": {
        "type": "Point",
        "coordinates": [
          128.4774014,
          35.3617845
        ]
      },
      "properties": {
        "osm_type": "way",
        "osm_id": 832675253,
        "sido": "경상남도",
        "name": "",
        "name_en": "",
        "substation_type": "",
        "voltage": "",
        "frequency": "",
        "operator": "",
        "location": ""
      }
    },
    {
      "type": "Feature",
      "geometry": {
        "type": "Point",
        "coordinates": [
          128.5542065,
          35.6139288
        ]
      },
      "properties": {
        "osm_type": "way",
        "osm_id": 882280302,
        "sido": "경상남도",
        "name": "북경남변전소",
        "name_en": "North-Gyeongnam Substation",
        "substation_type": "transmission",
        "voltage": "765000;345000",
        "frequency": "60",
        "operator": "",
        "location": "outdoor"
      }
    },
    {
      "type": "Feature",
      "geometry": {
        "type": "Point",
        "coordinates": [
          127.776312,
          35.2562436
        ]
      },
      "properties": {
        "osm_type": "way",
        "osm_id": 884641932,
        "sido": "경상남도",
        "name": "산청양수변전소",
        "name_en": "Sancheong Yangsu Substation",
        "substation_type": "transmission",
        "voltage": "345000",
        "frequency": "60",
        "operator": "",
        "location": "outdoor"
      }
    },
    {
      "type": "Feature",
      "geometry": {
        "type": "Point",
        "coordinates": [
          128.7760144,
          35.2971429
        ]
      },
      "properties": {
        "osm_type": "way",
        "osm_id": 885007549,
        "sido": "경상남도",
        "name": "진영변전소",
        "name_en": "Jinyeong Substation",
        "substation_type": "distribution",
        "voltage": "154000",
        "frequency": "60",
        "operator": "",
        "location": "indoor"
      }
    },
    {
      "type": "Feature",
      "geometry": {
        "type": "Point",
        "coordinates": [
          128.2787919,
          35.3148801
        ]
      },
      "properties": {
        "osm_type": "way",
        "osm_id": 885403469,
        "sido": "경상남도",
        "name": "구룡변전소",
        "name_en": "Guryong Substation",
        "substation_type": "distribution",
        "voltage": "154000",
        "frequency": "60",
        "operator": "",
        "location": "outdoor"
      }
    },
    {
      "type": "Feature",
      "geometry": {
        "type": "Point",
        "coordinates": [
          128.1429968,
          35.183649
        ]
      },
      "properties": {
        "osm_type": "way",
        "osm_id": 885403470,
        "sido": "경상남도",
        "name": "동진주변전소",
        "name_en": "",
        "substation_type": "distribution",
        "voltage": "154000",
        "frequency": "60",
        "operator": "",
        "location": "indoor"
      }
    },
    {
      "type": "Feature",
      "geometry": {
        "type": "Point",
        "coordinates": [
          128.0563835,
          35.1950615
        ]
      },
      "properties": {
        "osm_type": "way",
        "osm_id": 885403471,
        "sido": "경상남도",
        "name": "이현변전소",
        "name_en": "Ihyeon Substation",
        "substation_type": "distribution",
        "voltage": "154000",
        "frequency": "60",
        "operator": "",
        "location": "indoor"
      }
    },
    {
      "type": "Feature",
      "geometry": {
        "type": "Point",
        "coordinates": [
          128.1660673,
          35.5816776
        ]
      },
      "properties": {
        "osm_type": "way",
        "osm_id": 885403472,
        "sido": "경상남도",
        "name": "합천변전소",
        "name_en": "Hapcheon Substation",
        "substation_type": "distribution",
        "voltage": "154000",
        "frequency": "60",
        "operator": "",
        "location": "outdoor"
      }
    },
    {
      "type": "Feature",
      "geometry": {
        "type": "Point",
        "coordinates": [
          127.9114033,
          35.3986963
        ]
      },
      "properties": {
        "osm_type": "way",
        "osm_id": 885403473,
        "sido": "경상남도",
        "name": "산청변전소",
        "name_en": "Sancheong Substation",
        "substation_type": "distribution",
        "voltage": "154000",
        "frequency": "60",
        "operator": "",
        "location": "indoor"
      }
    },
    {
      "type": "Feature",
      "geometry": {
        "type": "Point",
        "coordinates": [
          128.2740149,
          35.1913263
        ]
      },
      "properties": {
        "osm_type": "way",
        "osm_id": 885403475,
        "sido": "경상남도",
        "name": "사봉변전소",
        "name_en": "Sabong Substation",
        "substation_type": "distribution",
        "voltage": "154000",
        "frequency": "60",
        "operator": "",
        "location": "outdoor"
      }
    },
    {
      "type": "Feature",
      "geometry": {
        "type": "Point",
        "coordinates": [
          128.0524044,
          35.0644925
        ]
      },
      "properties": {
        "osm_type": "way",
        "osm_id": 885403477,
        "sido": "경상남도",
        "name": "사남변전소",
        "name_en": "",
        "substation_type": "distribution",
        "voltage": "154000",
        "frequency": "60",
        "operator": "",
        "location": "indoor"
      }
    },
    {
      "type": "Feature",
      "geometry": {
        "type": "Point",
        "coordinates": [
          128.1139258,
          35.1614648
        ]
      },
      "properties": {
        "osm_type": "way",
        "osm_id": 885403481,
        "sido": "경상남도",
        "name": "개양변전소",
        "name_en": "Gaeyang Substation",
        "substation_type": "distribution",
        "voltage": "154000",
        "frequency": "60",
        "operator": "",
        "location": "indoor"
      }
    },
    {
      "type": "Feature",
      "geometry": {
        "type": "Point",
        "coordinates": [
          128.0726075,
          35.0681625
        ]
      },
      "properties": {
        "osm_type": "way",
        "osm_id": 885403482,
        "sido": "경상남도",
        "name": "사천변전소",
        "name_en": "Sacheon Substation",
        "substation_type": "distribution",
        "voltage": "154000",
        "frequency": "60",
        "operator": "",
        "location": "indoor"
      }
    },
    {
      "type": "Feature",
      "geometry": {
        "type": "Point",
        "coordinates": [
          128.9881002,
          35.3214922
        ]
      },
      "properties": {
        "osm_type": "way",
        "osm_id": 887947427,
        "sido": "경상남도",
        "name": "",
        "name_en": "",
        "substation_type": "",
        "voltage": "",
        "frequency": "",
        "operator": "",
        "location": ""
      }
    },
    {
      "type": "Feature",
      "geometry": {
        "type": "Point",
        "coordinates": [
          128.6557447,
          35.2234164
        ]
      },
      "properties": {
        "osm_type": "way",
        "osm_id": 890587092,
        "sido": "경상남도",
        "name": "창공변전소",
        "name_en": "Changgong Substation",
        "substation_type": "distribution",
        "voltage": "154000",
        "frequency": "60",
        "operator": "",
        "location": "outdoor"
      }
    },
    {
      "type": "Feature",
      "geometry": {
        "type": "Point",
        "coordinates": [
          128.6288436,
          35.2457943
        ]
      },
      "properties": {
        "osm_type": "way",
        "osm_id": 890587099,
        "sido": "경상남도",
        "name": "차룡변전소",
        "name_en": "Charyong Substation",
        "substation_type": "distribution",
        "voltage": "154000",
        "frequency": "60",
        "operator": "",
        "location": "indoor"
      }
    },
    {
      "type": "Feature",
      "geometry": {
        "type": "Point",
        "coordinates": [
          128.7118694,
          35.1543671
        ]
      },
      "properties": {
        "osm_type": "way",
        "osm_id": 890587100,
        "sido": "경상남도",
        "name": "진해변전소",
        "name_en": "",
        "substation_type": "distribution",
        "voltage": "154000",
        "frequency": "60",
        "operator": "",
        "location": "outdoor"
      }
    },
    {
      "type": "Feature",
      "geometry": {
        "type": "Point",
        "coordinates": [
          128.6323518,
          35.2053264
        ]
      },
      "properties": {
        "osm_type": "way",
        "osm_id": 890587101,
        "sido": "경상남도",
        "name": "월림변전소",
        "name_en": "Wollim Substation",
        "substation_type": "distribution",
        "voltage": "154000",
        "frequency": "60",
        "operator": "",
        "location": "outdoor"
      }
    },
    {
      "type": "Feature",
      "geometry": {
        "type": "Point",
        "coordinates": [
          128.6542706,
          35.2062021
        ]
      },
      "properties": {
        "osm_type": "way",
        "osm_id": 890587104,
        "sido": "경상남도",
        "name": "완암변전소",
        "name_en": "Wanam Substation",
        "substation_type": "distribution",
        "voltage": "154000",
        "frequency": "60",
        "operator": "",
        "location": "outdoor"
      }
    },
    {
      "type": "Feature",
      "geometry": {
        "type": "Point",
        "coordinates": [
          128.6789391,
          35.2025473
        ]
      },
      "properties": {
        "osm_type": "way",
        "osm_id": 890587105,
        "sido": "경상남도",
        "name": "안민변전소",
        "name_en": "Anmin Substation",
        "substation_type": "distribution",
        "voltage": "154000",
        "frequency": "60",
        "operator": "",
        "location": "outdoor"
      }
    },
    {
      "type": "Feature",
      "geometry": {
        "type": "Point",
        "coordinates": [
          128.6760982,
          35.2888363
        ]
      },
      "properties": {
        "osm_type": "way",
        "osm_id": 890587110,
        "sido": "경상남도",
        "name": "동읍변전소",
        "name_en": "East-Eupbyeon Substation",
        "substation_type": "distribution",
        "voltage": "154000",
        "frequency": "60",
        "operator": "",
        "location": "indoor"
      }
    },
    {
      "type": "Feature",
      "geometry": {
        "type": "Point",
        "coordinates": [
          128.7040836,
          35.2274264
        ]
      },
      "properties": {
        "osm_type": "way",
        "osm_id": 890587125,
        "sido": "경상남도",
        "name": "신월변전소",
        "name_en": "Shin-Wolbyeon Substation",
        "substation_type": "distribution",
        "voltage": "154000",
        "frequency": "60",
        "operator": "",
        "location": "outdoor"
      }
    },
    {
      "type": "Feature",
      "geometry": {
        "type": "Point",
        "coordinates": [
          128.4328192,
          34.8480787
        ]
      },
      "properties": {
        "osm_type": "way",
        "osm_id": 890917092,
        "sido": "경상남도",
        "name": "통영변전소",
        "name_en": "Tongyeong Substation",
        "substation_type": "distribution",
        "voltage": "154000",
        "frequency": "60",
        "operator": "",
        "location": "indoor"
      }
    },
    {
      "type": "Feature",
      "geometry": {
        "type": "Point",
        "coordinates": [
          128.4694862,
          35.1220893
        ]
      },
      "properties": {
        "osm_type": "way",
        "osm_id": 890917094,
        "sido": "경상남도",
        "name": "진동변전소",
        "name_en": "Jindong Substation",
        "substation_type": "distribution",
        "voltage": "154000",
        "frequency": "60",
        "operator": "",
        "location": "indoor"
      }
    },
    {
      "type": "Feature",
      "geometry": {
        "type": "Point",
        "coordinates": [
          128.1046821,
          34.9304688
        ]
      },
      "properties": {
        "osm_type": "way",
        "osm_id": 890917096,
        "sido": "경상남도",
        "name": "삼천포변전소",
        "name_en": "Samcheonpo Substation",
        "substation_type": "distribution",
        "voltage": "154000",
        "frequency": "60",
        "operator": "",
        "location": "indoor"
      }
    },
    {
      "type": "Feature",
      "geometry": {
        "type": "Point",
        "coordinates": [
          128.4128401,
          34.9522156
        ]
      },
      "properties": {
        "osm_type": "way",
        "osm_id": 890917097,
        "sido": "경상남도",
        "name": "안정변전소",
        "name_en": "Anjeong Substation",
        "substation_type": "distribution",
        "voltage": "154000",
        "frequency": "60",
        "operator": "",
        "location": "indoor"
      }
    },
    {
      "type": "Feature",
      "geometry": {
        "type": "Point",
        "coordinates": [
          128.6974028,
          34.8666209
        ]
      },
      "properties": {
        "osm_type": "way",
        "osm_id": 890917098,
        "sido": "경상남도",
        "name": "아주변전소",
        "name_en": "Aju Substation",
        "substation_type": "distribution",
        "voltage": "154000",
        "frequency": "60",
        "operator": "",
        "location": "indoor"
      }
    },
    {
      "type": "Feature",
      "geometry": {
        "type": "Point",
        "coordinates": [
          128.1211508,
          35.1834283
        ]
      },
      "properties": {
        "osm_type": "way",
        "osm_id": 890917101,
        "sido": "경상남도",
        "name": "진주변전소",
        "name_en": "Jinju Substation",
        "substation_type": "distribution",
        "voltage": "154000",
        "frequency": "60",
        "operator": "",
        "location": "outdoor"
      }
    },
    {
      "type": "Feature",
      "geometry": {
        "type": "Point",
        "coordinates": [
          128.8036533,
          35.2918729
        ]
      },
      "properties": {
        "osm_type": "way",
        "osm_id": 890917102,
        "sido": "경상남도",
        "name": "한림정변전소",
        "name_en": "Hanlim Substation",
        "substation_type": "distribution",
        "voltage": "154000",
        "frequency": "60",
        "operator": "",
        "location": "indoor"
      }
    },
    {
      "type": "Feature",
      "geometry": {
        "type": "Point",
        "coordinates": [
          128.7900652,
          35.4506502
        ]
      },
      "properties": {
        "osm_type": "way",
        "osm_id": 890917103,
        "sido": "경상남도",
        "name": "밀양전철 변전소",
        "name_en": "Miryang Traction Substation",
        "substation_type": "traction",
        "voltage": "154000;55000;27500",
        "frequency": "60",
        "operator": "국가철도공단",
        "location": ""
      }
    },
    {
      "type": "Feature",
      "geometry": {
        "type": "Point",
        "coordinates": [
          128.6901181,
          35.4138799
        ]
      },
      "properties": {
        "osm_type": "way",
        "osm_id": 890917106,
        "sido": "경상남도",
        "name": "초동변전소",
        "name_en": "Chodong Substation",
        "substation_type": "distribution",
        "voltage": "154000",
        "frequency": "60",
        "operator": "",
        "location": "indoor"
      }
    },
    {
      "type": "Feature",
      "geometry": {
        "type": "Point",
        "coordinates": [
          128.4934761,
          35.2324656
        ]
      },
      "properties": {
        "osm_type": "way",
        "osm_id": 890917107,
        "sido": "경상남도",
        "name": "중리변전소",
        "name_en": "Jungni Substation",
        "substation_type": "distribution",
        "voltage": "154000",
        "frequency": "60",
        "operator": "",
        "location": "indoor"
      }
    },
    {
      "type": "Feature",
      "geometry": {
        "type": "Point",
        "coordinates": [
          128.5589554,
          35.1788497
        ]
      },
      "properties": {
        "osm_type": "way",
        "osm_id": 890917108,
        "sido": "경상남도",
        "name": "서마산변전소",
        "name_en": "Seo-Masan Substation",
        "substation_type": "distribution",
        "voltage": "154000",
        "frequency": "60",
        "operator": "",
        "location": "outdoor"
      }
    },
    {
      "type": "Feature",
      "geometry": {
        "type": "Point",
        "coordinates": [
          128.5766697,
          35.2250994
        ]
      },
      "properties": {
        "osm_type": "way",
        "osm_id": 890917109,
        "sido": "경상남도",
        "name": "마산변전소",
        "name_en": "Masan Substation",
        "substation_type": "distribution",
        "voltage": "154000",
        "frequency": "60",
        "operator": "",
        "location": "outdoor"
      }
    },
    {
      "type": "Feature",
      "geometry": {
        "type": "Point",
        "coordinates": [
          128.7182956,
          35.3847131
        ]
      },
      "properties": {
        "osm_type": "way",
        "osm_id": 890917110,
        "sido": "경상남도",
        "name": "수산변전소",
        "name_en": "Susan Substation",
        "substation_type": "distribution",
        "voltage": "154000",
        "frequency": "60",
        "operator": "",
        "location": "indoor"
      }
    },
    {
      "type": "Feature",
      "geometry": {
        "type": "Point",
        "coordinates": [
          128.7084532,
          35.1867137
        ]
      },
      "properties": {
        "osm_type": "way",
        "osm_id": 890917115,
        "sido": "경상남도",
        "name": "천선변전소",
        "name_en": "Cheonseon Substation",
        "substation_type": "distribution",
        "voltage": "154000",
        "frequency": "60",
        "operator": "",
        "location": "indoor"
      }
    },
    {
      "type": "Feature",
      "geometry": {
        "type": "Point",
        "coordinates": [
          128.3805053,
          35.2698095
        ]
      },
      "properties": {
        "osm_type": "way",
        "osm_id": 891179700,
        "sido": "경상남도",
        "name": "가야변전소",
        "name_en": "Gaya Substation",
        "substation_type": "distribution",
        "voltage": "154000",
        "frequency": "60",
        "operator": "",
        "location": "outdoor"
      }
    },
    {
      "type": "Feature",
      "geometry": {
        "type": "Point",
        "coordinates": [
          128.5997159,
          35.2131819
        ]
      },
      "properties": {
        "osm_type": "way",
        "osm_id": 895115959,
        "sido": "경상남도",
        "name": "수출변전소",
        "name_en": "",
        "substation_type": "",
        "voltage": "",
        "frequency": "",
        "operator": "",
        "location": "surface"
      }
    },
    {
      "type": "Feature",
      "geometry": {
        "type": "Point",
        "coordinates": [
          128.7448498,
          35.491709
        ]
      },
      "properties": {
        "osm_type": "way",
        "osm_id": 1002174649,
        "sido": "경상남도",
        "name": "",
        "name_en": "",
        "substation_type": "",
        "voltage": "",
        "frequency": "",
        "operator": "",
        "location": ""
      }
    },
    {
      "type": "Feature",
      "geometry": {
        "type": "Point",
        "coordinates": [
          128.8618015,
          35.2640075
        ]
      },
      "properties": {
        "osm_type": "way",
        "osm_id": 1093448892,
        "sido": "경상남도",
        "name": "",
        "name_en": "",
        "substation_type": "distribution",
        "voltage": "154000",
        "frequency": "60",
        "operator": "",
        "location": ""
      }
    },
    {
      "type": "Feature",
      "geometry": {
        "type": "Point",
        "coordinates": [
          128.6095555,
          35.2062269
        ]
      },
      "properties": {
        "osm_type": "way",
        "osm_id": 1093460763,
        "sido": "경상남도",
        "name": "",
        "name_en": "",
        "substation_type": "distribution",
        "voltage": "154000",
        "frequency": "60",
        "operator": "",
        "location": ""
      }
    },
    {
      "type": "Feature",
      "geometry": {
        "type": "Point",
        "coordinates": [
          128.6121878,
          35.1867077
        ]
      },
      "properties": {
        "osm_type": "way",
        "osm_id": 1093460764,
        "sido": "경상남도",
        "name": "",
        "name_en": "",
        "substation_type": "",
        "voltage": "",
        "frequency": "",
        "operator": "",
        "location": ""
      }
    },
    {
      "type": "Feature",
      "geometry": {
        "type": "Point",
        "coordinates": [
          128.1100904,
          34.9153764
        ]
      },
      "properties": {
        "osm_type": "way",
        "osm_id": 1093461939,
        "sido": "경상남도",
        "name": "",
        "name_en": "",
        "substation_type": "transmission",
        "voltage": "",
        "frequency": "",
        "operator": "",
        "location": ""
      }
    },
    {
      "type": "Feature",
      "geometry": {
        "type": "Point",
        "coordinates": [
          128.637089,
          35.1568595
        ]
      },
      "properties": {
        "osm_type": "way",
        "osm_id": 1094705499,
        "sido": "경상남도",
        "name": "",
        "name_en": "",
        "substation_type": "",
        "voltage": "",
        "frequency": "60",
        "operator": "",
        "location": ""
      }
    },
    {
      "type": "Feature",
      "geometry": {
        "type": "Point",
        "coordinates": [
          128.5927549,
          34.8968968
        ]
      },
      "properties": {
        "osm_type": "way",
        "osm_id": 1094705505,
        "sido": "경상남도",
        "name": "",
        "name_en": "",
        "substation_type": "industrial",
        "voltage": "154000",
        "frequency": "60",
        "operator": "",
        "location": "outdoor"
      }
    },
    {
      "type": "Feature",
      "geometry": {
        "type": "Point",
        "coordinates": [
          128.6379336,
          35.2662711
        ]
      },
      "properties": {
        "osm_type": "way",
        "osm_id": 1174961465,
        "sido": "경상남도",
        "name": "의창변전소",
        "name_en": "",
        "substation_type": "",
        "voltage": "154000",
        "frequency": "60",
        "operator": "",
        "location": "indoor"
      }
    },
    {
      "type": "Feature",
      "geometry": {
        "type": "Point",
        "coordinates": [
          128.8402956,
          35.3991281
        ]
      },
      "properties": {
        "osm_type": "way",
        "osm_id": 1193549740,
        "sido": "경상남도",
        "name": "",
        "name_en": "",
        "substation_type": "traction",
        "voltage": "55000;27500",
        "frequency": "",
        "operator": "",
        "location": ""
      }
    },
    {
      "type": "Feature",
      "geometry": {
        "type": "Point",
        "coordinates": [
          128.8133132,
          35.3601795
        ]
      },
      "properties": {
        "osm_type": "way",
        "osm_id": 1193549741,
        "sido": "경상남도",
        "name": "",
        "name_en": "",
        "substation_type": "traction",
        "voltage": "55000;27500",
        "frequency": "",
        "operator": "",
        "location": ""
      }
    },
    {
      "type": "Feature",
      "geometry": {
        "type": "Point",
        "coordinates": [
          128.7868084,
          35.3136003
        ]
      },
      "properties": {
        "osm_type": "way",
        "osm_id": 1193549742,
        "sido": "경상남도",
        "name": "",
        "name_en": "",
        "substation_type": "traction",
        "voltage": "55000;27500",
        "frequency": "",
        "operator": "",
        "location": ""
      }
    },
    {
      "type": "Feature",
      "geometry": {
        "type": "Point",
        "coordinates": [
          128.6968035,
          35.2491621
        ]
      },
      "properties": {
        "osm_type": "way",
        "osm_id": 1193549743,
        "sido": "경상남도",
        "name": "",
        "name_en": "",
        "substation_type": "traction",
        "voltage": "55000;27500",
        "frequency": "",
        "operator": "",
        "location": ""
      }
    },
    {
      "type": "Feature",
      "geometry": {
        "type": "Point",
        "coordinates": [
          128.6048453,
          35.2568108
        ]
      },
      "properties": {
        "osm_type": "way",
        "osm_id": 1193549744,
        "sido": "경상남도",
        "name": "",
        "name_en": "",
        "substation_type": "traction",
        "voltage": "55000;27500",
        "frequency": "",
        "operator": "",
        "location": ""
      }
    },
    {
      "type": "Feature",
      "geometry": {
        "type": "Point",
        "coordinates": [
          128.5168005,
          35.2508739
        ]
      },
      "properties": {
        "osm_type": "way",
        "osm_id": 1193549745,
        "sido": "경상남도",
        "name": "",
        "name_en": "",
        "substation_type": "traction",
        "voltage": "55000;27500",
        "frequency": "",
        "operator": "",
        "location": ""
      }
    },
    {
      "type": "Feature",
      "geometry": {
        "type": "Point",
        "coordinates": [
          128.3882126,
          35.256687
        ]
      },
      "properties": {
        "osm_type": "way",
        "osm_id": 1193549746,
        "sido": "경상남도",
        "name": "",
        "name_en": "",
        "substation_type": "traction",
        "voltage": "55000;27500",
        "frequency": "",
        "operator": "",
        "location": ""
      }
    },
    {
      "type": "Feature",
      "geometry": {
        "type": "Point",
        "coordinates": [
          128.3090512,
          35.1976626
        ]
      },
      "properties": {
        "osm_type": "way",
        "osm_id": 1193549747,
        "sido": "경상남도",
        "name": "",
        "name_en": "",
        "substation_type": "traction",
        "voltage": "55000;27500",
        "frequency": "",
        "operator": "",
        "location": ""
      }
    },
    {
      "type": "Feature",
      "geometry": {
        "type": "Point",
        "coordinates": [
          128.2533518,
          35.1751583
        ]
      },
      "properties": {
        "osm_type": "way",
        "osm_id": 1193549748,
        "sido": "경상남도",
        "name": "",
        "name_en": "",
        "substation_type": "traction",
        "voltage": "55000;27500",
        "frequency": "",
        "operator": "",
        "location": ""
      }
    },
    {
      "type": "Feature",
      "geometry": {
        "type": "Point",
        "coordinates": [
          128.1487953,
          35.1516351
        ]
      },
      "properties": {
        "osm_type": "way",
        "osm_id": 1193549749,
        "sido": "경상남도",
        "name": "",
        "name_en": "",
        "substation_type": "traction",
        "voltage": "55000;27500",
        "frequency": "",
        "operator": "",
        "location": ""
      }
    },
    {
      "type": "Feature",
      "geometry": {
        "type": "Point",
        "coordinates": [
          128.9972862,
          35.2999107
        ]
      },
      "properties": {
        "osm_type": "way",
        "osm_id": 1193550139,
        "sido": "경상남도",
        "name": "",
        "name_en": "",
        "substation_type": "traction",
        "voltage": "55000;27500",
        "frequency": "",
        "operator": "",
        "location": ""
      }
    },
    {
      "type": "Feature",
      "geometry": {
        "type": "Point",
        "coordinates": [
          128.9148268,
          35.367845
        ]
      },
      "properties": {
        "osm_type": "way",
        "osm_id": 1193550140,
        "sido": "경상남도",
        "name": "",
        "name_en": "",
        "substation_type": "traction",
        "voltage": "55000;27500",
        "frequency": "",
        "operator": "",
        "location": ""
      }
    },
    {
      "type": "Feature",
      "geometry": {
        "type": "Point",
        "coordinates": [
          128.8428973,
          35.1884073
        ]
      },
      "properties": {
        "osm_type": "way",
        "osm_id": 1194092159,
        "sido": "경상남도",
        "name": "",
        "name_en": "",
        "substation_type": "traction",
        "voltage": "55000;27500",
        "frequency": "",
        "operator": "",
        "location": ""
      }
    },
    {
      "type": "Feature",
      "geometry": {
        "type": "Point",
        "coordinates": [
          128.7597303,
          35.5467047
        ]
      },
      "properties": {
        "osm_type": "way",
        "osm_id": 1194151292,
        "sido": "경상남도",
        "name": "",
        "name_en": "",
        "substation_type": "traction",
        "voltage": "55000;27500",
        "frequency": "",
        "operator": "",
        "location": ""
      }
    },
    {
      "type": "Feature",
      "geometry": {
        "type": "Point",
        "coordinates": [
          128.7613407,
          35.2313581
        ]
      },
      "properties": {
        "osm_type": "way",
        "osm_id": 1194151293,
        "sido": "경상남도",
        "name": "",
        "name_en": "",
        "substation_type": "traction",
        "voltage": "55000;27500",
        "frequency": "",
        "operator": "",
        "location": ""
      }
    },
    {
      "type": "Feature",
      "geometry": {
        "type": "Point",
        "coordinates": [
          129.0619987,
          35.3667426
        ]
      },
      "properties": {
        "osm_type": "way",
        "osm_id": 1295178119,
        "sido": "경상남도",
        "name": "산막변전소",
        "name_en": "",
        "substation_type": "",
        "voltage": "154000",
        "frequency": "",
        "operator": "",
        "location": "indoor"
      }
    },
    {
      "type": "Feature",
      "geometry": {
        "type": "Point",
        "coordinates": [
          129.1721703,
          35.4121696
        ]
      },
      "properties": {
        "osm_type": "way",
        "osm_id": 1418106554,
        "sido": "경상남도",
        "name": "서창 변전소",
        "name_en": "",
        "substation_type": "",
        "voltage": "",
        "frequency": "",
        "operator": "",
        "location": ""
      }
    },
    {
      "type": "Feature",
      "geometry": {
        "type": "Point",
        "coordinates": [
          128.6364652,
          35.2038181
        ]
      },
      "properties": {
        "osm_type": "way",
        "osm_id": 1455679267,
        "sido": "경상남도",
        "name": "창원변전소",
        "name_en": "Jangwon Substation",
        "substation_type": "transmission",
        "voltage": "345000",
        "frequency": "60",
        "operator": "",
        "location": "outdoor"
      }
    },
    {
      "type": "Feature",
      "geometry": {
        "type": "Point",
        "coordinates": [
          128.7778508,
          35.2188753
        ]
      },
      "properties": {
        "osm_type": "way",
        "osm_id": 1455688759,
        "sido": "경상남도",
        "name": "신김해변전소",
        "name_en": "New Gimhae Substation",
        "substation_type": "transmission",
        "voltage": "345000",
        "frequency": "60",
        "operator": "",
        "location": "outdoor"
      }
    }
  ]
}