{
  "type": "FeatureCollection",
  "features": [
    {
      "type": "Feature",
      "geometry": {
        "type": "Point",
        "coordinates": [
          126.5313589,
          33.5160253
        ]
      },
      "properties": {
        "osm_type": "way",
        "osm_id": 274961871,
        "sido": "제주특별자치도",
        "name": "산지변전소",
        "name_en": "",
        "substation_type": "distribution",
        "voltage": "154000",
        "frequency": "60",
        "operator": "",
        "location": "indoor"
      }
    },
    {
      "type": "Feature",
      "geometry": {
        "type": "Point",
        "coordinates": [
          126.6387538,
          33.2761087
        ]
      },
      "properties": {
        "osm_type": "way",
        "osm_id": 275141765,
        "sido": "제주특별자치도",
        "name": "한라변전소",
        "name_en": "",
        "substation_type": "distribution",
        "voltage": "154000",
        "frequency": "60",
        "operator": "",
        "location": "outdoor"
      }
    },
    {
      "type": "Feature",
      "geometry": {
        "type": "Point",
        "coordinates": [
          126.6759507,
          33.5324422
        ]
      },
      "properties": {
        "osm_type": "way",
        "osm_id": 284430067,
        "sido": "제주특별자치도",
        "name": "조천변전소",
        "name_en": "",
        "substation_type": "distribution",
        "voltage": "154000",
        "frequency": "60",
        "operator": "",
        "location": "indoor"
      }
    },
    {
      "type": "Feature",
      "geometry": {
        "type": "Point",
        "coordinates": [
          126.4876898,
          33.473994
        ]
      },
      "properties": {
        "osm_type": "way",
        "osm_id": 288753042,
        "sido": "제주특별자치도",
        "name": "신제주변전소",
        "name_en": "",
        "substation_type": "distribution",
        "voltage": "154000",
        "frequency": "60",
        "operator": "",
        "location": "outdoor"
      }
    },
    {
      "type": "Feature",
      "geometry": {
        "type": "Point",
        "coordinates": [
          126.8558422,
          33.4434554
        ]
      },
      "properties": {
        "osm_type": "way",
        "osm_id": 342892940,
        "sido": "제주특별자치도",
        "name": "성산변전소",
        "name_en": "",
        "substation_type": "distribution",
        "voltage": "154000",
        "frequency": "60",
        "operator": "",
        "location": "indoor"
      }
    },
    {
      "type": "Feature",
      "geometry": {
        "type": "Point",
        "coordinates": [
          126.5060348,
          33.2633226
        ]
      },
      "properties": {
        "osm_type": "way",
        "osm_id": 766674621,
        "sido": "제주특별자치도",
        "name": "신서귀변전소",
        "name_en": "",
        "substation_type": "distribution",
        "voltage": "154000",
        "frequency": "60",
        "operator": "",
        "location": "indoor"
      }
    },
    {
      "type": "Feature",
      "geometry": {
        "type": "Point",
        "coordinates": [
          126.5535267,
          33.5018834
        ]
      },
      "properties": {
        "osm_type": "way",
        "osm_id": 894736436,
        "sido": "제주특별자치도",
        "name": "동제주변전소",
        "name_en": "",
        "substation_type": "distribution",
        "voltage": "154000",
        "frequency": "60",
        "operator": "",
        "location": "indoor"
      }
    },
    {
      "type": "Feature",
      "geometry": {
        "type": "Point",
        "coordinates": [
          126.7801551,
          33.3691563
        ]
      },
      "properties": {
        "osm_type": "way",
        "osm_id": 894856181,
        "sido": "제주특별자치도",
        "name": "표선변전소",
        "name_en": "",
        "substation_type": "distribution",
        "voltage": "154000",
        "frequency": "60",
        "operator": "",
        "location": "indoor"
      }
    },
    {
      "type": "Feature",
      "geometry": {
        "type": "Point",
        "coordinates": [
          126.3516484,
          33.2825685
        ]
      },
      "properties": {
        "osm_type": "way",
        "osm_id": 894856185,
        "sido": "제주특별자치도",
        "name": "안덕변전소",
        "name_en": "",
        "substation_type": "distribution",
        "voltage": "154000",
        "frequency": "60",
        "operator": "",
        "location": "indoor"
      }
    },
    {
      "type": "Feature",
      "geometry": {
        "type": "Point",
        "coordinates": [
          126.4734802,
          33.454804
        ]
      },
      "properties": {
        "osm_type": "way",
        "osm_id": 894856186,
        "sido": "제주특별자치도",
        "name": "서제주변환소",
        "name_en": "",
        "substation_type": "converter",
        "voltage": "250000",
        "frequency": "0",
        "operator": "",
        "location": "outdoor"
      }
    },
    {
      "type": "Feature",
      "geometry": {
        "type": "Point",
        "coordinates": [
          126.2724218,
          33.4011177
        ]
      },
      "properties": {
        "osm_type": "way",
        "osm_id": 894856188,
        "sido": "제주특별자치도",
        "name": "한림변전소",
        "name_en": "",
        "substation_type": "distribution",
        "voltage": "154000",
        "frequency": "60",
        "operator": "",
        "location": "indoor"
      }
    },
    {
      "type": "Feature",
      "geometry": {
        "type": "Point",
        "coordinates": [
          126.595577,
          33.5351549
        ]
      },
      "properties": {
        "osm_type": "way",
        "osm_id": 1265856502,
        "sido": "제주특별자치도",
        "name": "",
        "name_en": "Cheju converter station",
        "substation_type": "converter",
        "voltage": "180000",
        "frequency": "0",
        "operator": "KEPCO",
        "location": "indoor"
      }
    },
    {
      "type": "Feature",
      "geometry": {
        "type": "Point",
        "coordinates": [
          126.4732307,
          33.4539146
        ]
      },
      "properties": {
        "osm_type": "way",
        "osm_id": 1265876656,
        "sido": "제주특별자치도",
        "name": "서제주변환소",
        "name_en": "",
        "substation_type": "converter",
        "voltage": "154000",
        "frequency": "60",
        "operator": "",
        "location": "outdoor"
      }
    }
  ]
}