{
  "type": "FeatureCollection",
  "features": [
    {
      "type": "Feature",
      "geometry": {
        "type": "Point",
        "coordinates": [
          127.4261104,
          34.9450398
        ]
      },
      "properties": {
        "osm_type": "node",
        "osm_id": 4765741833,
        "sido": "전라남도",
        "name": "",
        "name_en": "",
        "substation_type": "transmission",
        "voltage": "154000",
        "frequency": "60",
        "operator": "",
        "location": ""
      }
    },
    {
      "type": "Feature",
      "geometry": {
        "type": "Point",
        "coordinates": [
          126.422438,
          35.4126486
        ]
      },
      "properties": {
        "osm_type": "way",
        "osm_id": 143990783,
        "sido": "전라남도",
        "name": "",
        "name_en": "",
        "substation_type": "transmission",
        "voltage": "",
        "frequency": "60",
        "operator": "",
        "location": "outdoor"
      }
    },
    {
      "type": "Feature",
      "geometry": {
        "type": "Point",
        "coordinates": [
          126.4128101,
          35.4073802
        ]
      },
      "properties": {
        "osm_type": "way",
        "osm_id": 143990784,
        "sido": "전라남도",
        "name": "",
        "name_en": "",
        "substation_type": "transmission",
        "voltage": "345000",
        "frequency": "60",
        "operator": "",
        "location": "outdoor"
      }
    },
    {
      "type": "Feature",
      "geometry": {
        "type": "Point",
        "coordinates": [
          126.4180366,
          35.4100509
        ]
      },
      "properties": {
        "osm_type": "way",
        "osm_id": 143990785,
        "sido": "전라남도",
        "name": "",
        "name_en": "",
        "substation_type": "transmission",
        "voltage": "345000",
        "frequency": "60",
        "operator": "",
        "location": "outdoor"
      }
    },
    {
      "type": "Feature",
      "geometry": {
        "type": "Point",
        "coordinates": [
          127.6227454,
          34.9701005
        ]
      },
      "properties": {
        "osm_type": "way",
        "osm_id": 310293553,
        "sido": "전라남도",
        "name": "광양변전소",
        "name_en": "Gwangyang Substation",
        "substation_type": "transmission",
        "voltage": "345000",
        "frequency": "60",
        "operator": "",
        "location": "outdoor"
      }
    },
    {
      "type": "Feature",
      "geometry": {
        "type": "Point",
        "coordinates": [
          127.5134434,
          34.9503226
        ]
      },
      "properties": {
        "osm_type": "way",
        "osm_id": 310378766,
        "sido": "전라남도",
        "name": "순천변전소",
        "name_en": "Suncheon Substation",
        "substation_type": "transmission",
        "voltage": "154000",
        "frequency": "60",
        "operator": "",
        "location": "outdoor"
      }
    },
    {
      "type": "Feature",
      "geometry": {
        "type": "Point",
        "coordinates": [
          126.9308044,
          34.964622
        ]
      },
      "properties": {
        "osm_type": "way",
        "osm_id": 311144491,
        "sido": "전라남도",
        "name": "신화순변전소",
        "name_en": "Shin-Hwasun Substation",
        "substation_type": "transmission",
        "voltage": "345000",
        "frequency": "60",
        "operator": "",
        "location": "outdoor"
      }
    },
    {
      "type": "Feature",
      "geometry": {
        "type": "Point",
        "coordinates": [
          126.5926674,
          34.3675385
        ]
      },
      "properties": {
        "osm_type": "way",
        "osm_id": 311144496,
        "sido": "전라남도",
        "name": "해남변환소",
        "name_en": "",
        "substation_type": "converter",
        "voltage": "180000",
        "frequency": "0",
        "operator": "KEPCO",
        "location": "outdoor"
      }
    },
    {
      "type": "Feature",
      "geometry": {
        "type": "Point",
        "coordinates": [
          126.4810321,
          35.2818527
        ]
      },
      "properties": {
        "osm_type": "way",
        "osm_id": 312897593,
        "sido": "전라남도",
        "name": "영광변전소",
        "name_en": "Yeonggwang Substation",
        "substation_type": "distribution",
        "voltage": "154000",
        "frequency": "60",
        "operator": "",
        "location": "outdoor"
      }
    },
    {
      "type": "Feature",
      "geometry": {
        "type": "Point",
        "coordinates": [
          126.6164841,
          34.4115039
        ]
      },
      "properties": {
        "osm_type": "way",
        "osm_id": 316124722,
        "sido": "전라남도",
        "name": "남창변전소",
        "name_en": "",
        "substation_type": "distribution",
        "voltage": "154000",
        "frequency": "60",
        "operator": "",
        "location": "outdoor"
      }
    },
    {
      "type": "Feature",
      "geometry": {
        "type": "Point",
        "coordinates": [
          126.5783553,
          34.5665596
        ]
      },
      "properties": {
        "osm_type": "way",
        "osm_id": 316124775,
        "sido": "전라남도",
        "name": "해남변전소",
        "name_en": "",
        "substation_type": "distribution",
        "voltage": "154000",
        "frequency": "60",
        "operator": "",
        "location": "outdoor"
      }
    },
    {
      "type": "Feature",
      "geometry": {
        "type": "Point",
        "coordinates": [
          126.7652768,
          35.2790879
        ]
      },
      "properties": {
        "osm_type": "way",
        "osm_id": 372869919,
        "sido": "전라남도",
        "name": "장성변전소",
        "name_en": "Jangseong Substation",
        "substation_type": "distribution",
        "voltage": "154000",
        "frequency": "60",
        "operator": "",
        "location": "indoor"
      }
    },
    {
      "type": "Feature",
      "geometry": {
        "type": "Point",
        "coordinates": [
          126.4581284,
          34.763079
        ]
      },
      "properties": {
        "osm_type": "way",
        "osm_id": 372869923,
        "sido": "전라남도",
        "name": "대불변전소",
        "name_en": "",
        "substation_type": "distribution",
        "voltage": "154000",
        "frequency": "60",
        "operator": "",
        "location": "outdoor"
      }
    },
    {
      "type": "Feature",
      "geometry": {
        "type": "Point",
        "coordinates": [
          126.3800296,
          34.8217017
        ]
      },
      "properties": {
        "osm_type": "way",
        "osm_id": 372869924,
        "sido": "전라남도",
        "name": "북항변전소",
        "name_en": "",
        "substation_type": "distribution",
        "voltage": "154000",
        "frequency": "60",
        "operator": "",
        "location": "indoor"
      }
    },
    {
      "type": "Feature",
      "geometry": {
        "type": "Point",
        "coordinates": [
          126.7253964,
          34.9914843
        ]
      },
      "properties": {
        "osm_type": "way",
        "osm_id": 372869928,
        "sido": "전라남도",
        "name": "나주변전소",
        "name_en": "Naju Substation",
        "substation_type": "distribution",
        "voltage": "154000",
        "frequency": "60",
        "operator": "",
        "location": "outdoor"
      }
    },
    {
      "type": "Feature",
      "geometry": {
        "type": "Point",
        "coordinates": [
          127.3304301,
          34.8535988
        ]
      },
      "properties": {
        "osm_type": "way",
        "osm_id": 475981928,
        "sido": "전라남도",
        "name": "벌교변전소",
        "name_en": "Beolgyo Substation",
        "substation_type": "distribution",
        "voltage": "154000",
        "frequency": "60",
        "operator": "한국전력공사",
        "location": "indoor"
      }
    },
    {
      "type": "Feature",
      "geometry": {
        "type": "Point",
        "coordinates": [
          127.0867685,
          34.7819651
        ]
      },
      "properties": {
        "osm_type": "way",
        "osm_id": 475981930,
        "sido": "전라남도",
        "name": "보성변전소",
        "name_en": "",
        "substation_type": "distribution",
        "voltage": "154000",
        "frequency": "60",
        "operator": "한국전력공사",
        "location": "indoor"
      }
    },
    {
      "type": "Feature",
      "geometry": {
        "type": "Point",
        "coordinates": [
          127.7501518,
          34.9407972
        ]
      },
      "properties": {
        "osm_type": "way",
        "osm_id": 481212941,
        "sido": "전라남도",
        "name": "태금변전소",
        "name_en": "Taegeum Substation",
        "substation_type": "distribution",
        "voltage": "154000",
        "frequency": "60",
        "operator": "",
        "location": "indoor"
      }
    },
    {
      "type": "Feature",
      "geometry": {
        "type": "Point",
        "coordinates": [
          127.4796133,
          34.9090384
        ]
      },
      "properties": {
        "osm_type": "way",
        "osm_id": 483825187,
        "sido": "전라남도",
        "name": "서순천변전소",
        "name_en": "Seo-Suncheon Substation",
        "substation_type": "distribution",
        "voltage": "154000",
        "frequency": "60",
        "operator": "",
        "location": "indoor"
      }
    },
    {
      "type": "Feature",
      "geometry": {
        "type": "Point",
        "coordinates": [
          127.2543504,
          34.578158
        ]
      },
      "properties": {
        "osm_type": "way",
        "osm_id": 483843002,
        "sido": "전라남도",
        "name": "고흥변전소",
        "name_en": "",
        "substation_type": "distribution",
        "voltage": "154000",
        "frequency": "60",
        "operator": "",
        "location": ""
      }
    },
    {
      "type": "Feature",
      "geometry": {
        "type": "Point",
        "coordinates": [
          126.9231172,
          34.6981651
        ]
      },
      "properties": {
        "osm_type": "way",
        "osm_id": 484635306,
        "sido": "전라남도",
        "name": "장흥변전소",
        "name_en": "",
        "substation_type": "distribution",
        "voltage": "154000",
        "frequency": "60",
        "operator": "",
        "location": "outdoor"
      }
    },
    {
      "type": "Feature",
      "geometry": {
        "type": "Point",
        "coordinates": [
          127.4418451,
          35.0389287
        ]
      },
      "properties": {
        "osm_type": "way",
        "osm_id": 484637894,
        "sido": "전라남도",
        "name": "",
        "name_en": "",
        "substation_type": "distribution;traction",
        "voltage": "154000;55000;27500",
        "frequency": "60",
        "operator": "",
        "location": ""
      }
    },
    {
      "type": "Feature",
      "geometry": {
        "type": "Point",
        "coordinates": [
          126.4183961,
          34.8194564
        ]
      },
      "properties": {
        "osm_type": "way",
        "osm_id": 486912122,
        "sido": "전라남도",
        "name": "목포변전소",
        "name_en": "",
        "substation_type": "distribution",
        "voltage": "154000",
        "frequency": "",
        "operator": "한국전력공사",
        "location": "indoor"
      }
    },
    {
      "type": "Feature",
      "geometry": {
        "type": "Point",
        "coordinates": [
          126.6828078,
          34.834187
        ]
      },
      "properties": {
        "osm_type": "way",
        "osm_id": 537071239,
        "sido": "전라남도",
        "name": "영암변전소",
        "name_en": "",
        "substation_type": "distribution",
        "voltage": "154000",
        "frequency": "60",
        "operator": "한국전력공사",
        "location": "outdoor"
      }
    },
    {
      "type": "Feature",
      "geometry": {
        "type": "Point",
        "coordinates": [
          126.7549842,
          34.6455506
        ]
      },
      "properties": {
        "osm_type": "way",
        "osm_id": 537300855,
        "sido": "전라남도",
        "name": "강진변전소",
        "name_en": "",
        "substation_type": "",
        "voltage": "154000",
        "frequency": "60",
        "operator": "한국전력공사",
        "location": "outdoor"
      }
    },
    {
      "type": "Feature",
      "geometry": {
        "type": "Point",
        "coordinates": [
          127.692953,
          34.8390824
        ]
      },
      "properties": {
        "osm_type": "way",
        "osm_id": 614454744,
        "sido": "전라남도",
        "name": "한국발전기술",
        "name_en": "",
        "substation_type": "transmission",
        "voltage": "345000",
        "frequency": "60",
        "operator": "",
        "location": ""
      }
    },
    {
      "type": "Feature",
      "geometry": {
        "type": "Point",
        "coordinates": [
          127.6689059,
          34.8130414
        ]
      },
      "properties": {
        "osm_type": "way",
        "osm_id": 644467113,
        "sido": "전라남도",
        "name": "여천변전소",
        "name_en": "Yeocheon Substation",
        "substation_type": "distribution",
        "voltage": "154000",
        "frequency": "60",
        "operator": "",
        "location": "indoor"
      }
    },
    {
      "type": "Feature",
      "geometry": {
        "type": "Point",
        "coordinates": [
          127.6675716,
          34.812789
        ]
      },
      "properties": {
        "osm_type": "way",
        "osm_id": 644467114,
        "sido": "전라남도",
        "name": "여수산단개폐소",
        "name_en": "Yeosusandan Substation",
        "substation_type": "distribution",
        "voltage": "154000",
        "frequency": "60",
        "operator": "",
        "location": "indoor"
      }
    },
    {
      "type": "Feature",
      "geometry": {
        "type": "Point",
        "coordinates": [
          126.3290347,
          34.6852695
        ]
      },
      "properties": {
        "osm_type": "way",
        "osm_id": 672491165,
        "sido": "전라남도",
        "name": "화원변전소",
        "name_en": "Hwawon Substation",
        "substation_type": "distribution",
        "voltage": "154000",
        "frequency": "60",
        "operator": "",
        "location": "indoor"
      }
    },
    {
      "type": "Feature",
      "geometry": {
        "type": "Point",
        "coordinates": [
          126.2714233,
          34.5196432
        ]
      },
      "properties": {
        "osm_type": "way",
        "osm_id": 672492834,
        "sido": "전라남도",
        "name": "진도변전소",
        "name_en": "Jindo Substation",
        "substation_type": "distribution",
        "voltage": "154000",
        "frequency": "60",
        "operator": "",
        "location": "indoor"
      }
    },
    {
      "type": "Feature",
      "geometry": {
        "type": "Point",
        "coordinates": [
          126.1306417,
          34.7422794
        ]
      },
      "properties": {
        "osm_type": "way",
        "osm_id": 672493383,
        "sido": "전라남도",
        "name": "안좌변전소",
        "name_en": "Anjwa Substation",
        "substation_type": "distribution",
        "voltage": "154000",
        "frequency": "60",
        "operator": "",
        "location": "indoor"
      }
    },
    {
      "type": "Feature",
      "geometry": {
        "type": "Point",
        "coordinates": [
          126.7353852,
          34.3338568
        ]
      },
      "properties": {
        "osm_type": "way",
        "osm_id": 718040367,
        "sido": "전라남도",
        "name": "완도변전소",
        "name_en": "",
        "substation_type": "distribution",
        "voltage": "154000",
        "frequency": "60",
        "operator": "",
        "location": "indoor"
      }
    },
    {
      "type": "Feature",
      "geometry": {
        "type": "Point",
        "coordinates": [
          126.4694778,
          34.3557154
        ]
      },
      "properties": {
        "osm_type": "way",
        "osm_id": 723801103,
        "sido": "전라남도",
        "name": "",
        "name_en": "",
        "substation_type": "yes",
        "voltage": "",
        "frequency": "",
        "operator": "",
        "location": ""
      }
    },
    {
      "type": "Feature",
      "geometry": {
        "type": "Point",
        "coordinates": [
          126.7941219,
          35.0245347
        ]
      },
      "properties": {
        "osm_type": "way",
        "osm_id": 891014019,
        "sido": "전라남도",
        "name": "",
        "name_en": "",
        "substation_type": "",
        "voltage": "",
        "frequency": "",
        "operator": "우정사업정보센터",
        "location": ""
      }
    },
    {
      "type": "Feature",
      "geometry": {
        "type": "Point",
        "coordinates": [
          127.6356594,
          34.7763453
        ]
      },
      "properties": {
        "osm_type": "way",
        "osm_id": 892603990,
        "sido": "전라남도",
        "name": "소라변전소",
        "name_en": "Sora Substation",
        "substation_type": "distribution",
        "voltage": "154000",
        "frequency": "60",
        "operator": "",
        "location": "indoor"
      }
    },
    {
      "type": "Feature",
      "geometry": {
        "type": "Point",
        "coordinates": [
          127.5749907,
          34.9001302
        ]
      },
      "properties": {
        "osm_type": "way",
        "osm_id": 892603991,
        "sido": "전라남도",
        "name": "율촌변전소",
        "name_en": "Yulchon Substation",
        "substation_type": "distribution",
        "voltage": "154000",
        "frequency": "60",
        "operator": "",
        "location": "outdoor"
      }
    },
    {
      "type": "Feature",
      "geometry": {
        "type": "Point",
        "coordinates": [
          127.6965102,
          34.769947
        ]
      },
      "properties": {
        "osm_type": "way",
        "osm_id": 892604003,
        "sido": "전라남도",
        "name": "여수변전소",
        "name_en": "Yeosu Substation",
        "substation_type": "distribution",
        "voltage": "154000",
        "frequency": "60",
        "operator": "",
        "location": "indoor"
      }
    },
    {
      "type": "Feature",
      "geometry": {
        "type": "Point",
        "coordinates": [
          127.6776768,
          34.9595343
        ]
      },
      "properties": {
        "osm_type": "way",
        "osm_id": 892604005,
        "sido": "전라남도",
        "name": "백운변전소",
        "name_en": "Baekun Substation",
        "substation_type": "distribution",
        "voltage": "154000",
        "frequency": "60",
        "operator": "",
        "location": "indoor"
      }
    },
    {
      "type": "Feature",
      "geometry": {
        "type": "Point",
        "coordinates": [
          127.2651102,
          35.0436212
        ]
      },
      "properties": {
        "osm_type": "way",
        "osm_id": 892604006,
        "sido": "전라남도",
        "name": "승주변전소",
        "name_en": "Seungju Substation",
        "substation_type": "distribution",
        "voltage": "154000",
        "frequency": "60",
        "operator": "",
        "location": "indoor"
      }
    },
    {
      "type": "Feature",
      "geometry": {
        "type": "Point",
        "coordinates": [
          127.2304679,
          35.3267056
        ]
      },
      "properties": {
        "osm_type": "way",
        "osm_id": 892604023,
        "sido": "전라남도",
        "name": "곡성변전소",
        "name_en": "Gokseong Substation",
        "substation_type": "distribution",
        "voltage": "154000",
        "frequency": "60",
        "operator": "",
        "location": "outdoor"
      }
    },
    {
      "type": "Feature",
      "geometry": {
        "type": "Point",
        "coordinates": [
          127.4590002,
          35.1954033
        ]
      },
      "properties": {
        "osm_type": "way",
        "osm_id": 892604029,
        "sido": "전라남도",
        "name": "구례변전소",
        "name_en": "Gurye Substation",
        "substation_type": "distribution",
        "voltage": "154000",
        "frequency": "60",
        "operator": "",
        "location": "indoor"
      }
    },
    {
      "type": "Feature",
      "geometry": {
        "type": "Point",
        "coordinates": [
          126.8006708,
          35.0092154
        ]
      },
      "properties": {
        "osm_type": "way",
        "osm_id": 892604030,
        "sido": "전라남도",
        "name": "금천변전소",
        "name_en": "",
        "substation_type": "distribution",
        "voltage": "154000",
        "frequency": "60",
        "operator": "",
        "location": "indoor"
      }
    },
    {
      "type": "Feature",
      "geometry": {
        "type": "Point",
        "coordinates": [
          127.6443263,
          34.820052
        ]
      },
      "properties": {
        "osm_type": "way",
        "osm_id": 892833025,
        "sido": "전라남도",
        "name": "화치변전소",
        "name_en": "Hwachi Substation",
        "substation_type": "distribution",
        "voltage": "154000",
        "frequency": "60",
        "operator": "",
        "location": "outdoor"
      }
    },
    {
      "type": "Feature",
      "geometry": {
        "type": "Point",
        "coordinates": [
          127.024713,
          35.3502245
        ]
      },
      "properties": {
        "osm_type": "way",
        "osm_id": 892965058,
        "sido": "전라남도",
        "name": "담양변전소",
        "name_en": "Damyang Substation",
        "substation_type": "distribution",
        "voltage": "154000",
        "frequency": "60",
        "operator": "",
        "location": "outdoor"
      }
    },
    {
      "type": "Feature",
      "geometry": {
        "type": "Point",
        "coordinates": [
          126.3942289,
          34.7414422
        ]
      },
      "properties": {
        "osm_type": "way",
        "osm_id": 892965059,
        "sido": "전라남도",
        "name": "삼호변전소",
        "name_en": "",
        "substation_type": "distribution",
        "voltage": "154000",
        "frequency": "60",
        "operator": "",
        "location": "indoor"
      }
    },
    {
      "type": "Feature",
      "geometry": {
        "type": "Point",
        "coordinates": [
          126.1870873,
          34.3855343
        ]
      },
      "properties": {
        "osm_type": "way",
        "osm_id": 892965065,
        "sido": "전라남도",
        "name": "진도변환소",
        "name_en": "Jindo Conversion Station",
        "substation_type": "converter",
        "voltage": "250000",
        "frequency": "0",
        "operator": "",
        "location": "outdoor"
      }
    },
    {
      "type": "Feature",
      "geometry": {
        "type": "Point",
        "coordinates": [
          126.5114253,
          35.0058984
        ]
      },
      "properties": {
        "osm_type": "way",
        "osm_id": 893166760,
        "sido": "전라남도",
        "name": "엄다변전소",
        "name_en": "Eomda Substation",
        "substation_type": "distribution",
        "voltage": "154000",
        "frequency": "60",
        "operator": "",
        "location": "indoor"
      }
    },
    {
      "type": "Feature",
      "geometry": {
        "type": "Point",
        "coordinates": [
          126.3958862,
          35.0267786
        ]
      },
      "properties": {
        "osm_type": "way",
        "osm_id": 893166762,
        "sido": "전라남도",
        "name": "운남변전소",
        "name_en": "Unnam Substation",
        "substation_type": "distribution",
        "voltage": "154000",
        "frequency": "60",
        "operator": "",
        "location": "indoor"
      }
    },
    {
      "type": "Feature",
      "geometry": {
        "type": "Point",
        "coordinates": [
          127.045115,
          35.0314794
        ]
      },
      "properties": {
        "osm_type": "way",
        "osm_id": 893166767,
        "sido": "전라남도",
        "name": "화순변전소",
        "name_en": "Hwasun Substation",
        "substation_type": "distribution",
        "voltage": "154000",
        "frequency": "60",
        "operator": "",
        "location": "outdoor"
      }
    },
    {
      "type": "Feature",
      "geometry": {
        "type": "Point",
        "coordinates": [
          127.6837722,
          34.8404216
        ]
      },
      "properties": {
        "osm_type": "way",
        "osm_id": 894856077,
        "sido": "전라남도",
        "name": "용성변전소",
        "name_en": "",
        "substation_type": "distribution",
        "voltage": "154000",
        "frequency": "60",
        "operator": "",
        "location": "outdoor"
      }
    },
    {
      "type": "Feature",
      "geometry": {
        "type": "Point",
        "coordinates": [
          126.9505463,
          35.3121326
        ]
      },
      "properties": {
        "osm_type": "way",
        "osm_id": 964994480,
        "sido": "전라남도",
        "name": "",
        "name_en": "",
        "substation_type": "",
        "voltage": "",
        "frequency": "",
        "operator": "",
        "location": ""
      }
    },
    {
      "type": "Feature",
      "geometry": {
        "type": "Point",
        "coordinates": [
          126.1267227,
          34.754941
        ]
      },
      "properties": {
        "osm_type": "way",
        "osm_id": 1093623889,
        "sido": "전라남도",
        "name": "안좌개폐소",
        "name_en": "Anjwa Switching Station",
        "substation_type": "distribution",
        "voltage": "154000",
        "frequency": "60",
        "operator": "",
        "location": ""
      }
    },
    {
      "type": "Feature",
      "geometry": {
        "type": "Point",
        "coordinates": [
          126.7179605,
          35.0210357
        ]
      },
      "properties": {
        "osm_type": "way",
        "osm_id": 1093623891,
        "sido": "전라남도",
        "name": "",
        "name_en": "",
        "substation_type": "",
        "voltage": "154000",
        "frequency": "",
        "operator": "",
        "location": ""
      }
    },
    {
      "type": "Feature",
      "geometry": {
        "type": "Point",
        "coordinates": [
          127.7395844,
          34.9306231
        ]
      },
      "properties": {
        "osm_type": "way",
        "osm_id": 1093791556,
        "sido": "전라남도",
        "name": "",
        "name_en": "",
        "substation_type": "",
        "voltage": "",
        "frequency": "",
        "operator": "",
        "location": ""
      }
    },
    {
      "type": "Feature",
      "geometry": {
        "type": "Point",
        "coordinates": [
          126.4143757,
          35.4040265
        ]
      },
      "properties": {
        "osm_type": "way",
        "osm_id": 1094349456,
        "sido": "전라남도",
        "name": "",
        "name_en": "",
        "substation_type": "transmission",
        "voltage": "154000",
        "frequency": "60",
        "operator": "",
        "location": "outdoor"
      }
    },
    {
      "type": "Feature",
      "geometry": {
        "type": "Point",
        "coordinates": [
          126.420526,
          35.4077938
        ]
      },
      "properties": {
        "osm_type": "way",
        "osm_id": 1094349457,
        "sido": "전라남도",
        "name": "",
        "name_en": "",
        "substation_type": "",
        "voltage": "380000",
        "frequency": "60",
        "operator": "",
        "location": "outdoor"
      }
    },
    {
      "type": "Feature",
      "geometry": {
        "type": "Point",
        "coordinates": [
          126.4164115,
          35.4060864
        ]
      },
      "properties": {
        "osm_type": "way",
        "osm_id": 1094349469,
        "sido": "전라남도",
        "name": "",
        "name_en": "",
        "substation_type": "transmission",
        "voltage": "345000",
        "frequency": "60",
        "operator": "",
        "location": "outdoor"
      }
    },
    {
      "type": "Feature",
      "geometry": {
        "type": "Point",
        "coordinates": [
          126.7637401,
          35.2732189
        ]
      },
      "properties": {
        "osm_type": "way",
        "osm_id": 1135323470,
        "sido": "전라남도",
        "name": "장성급전구분소",
        "name_en": "Jangseong Sectioning Post",
        "substation_type": "traction",
        "voltage": "55000;27500",
        "frequency": "",
        "operator": "한국철도시설공단",
        "location": "indoor"
      }
    },
    {
      "type": "Feature",
      "geometry": {
        "type": "Point",
        "coordinates": [
          126.7674766,
          35.3476523
        ]
      },
      "properties": {
        "osm_type": "way",
        "osm_id": 1135323474,
        "sido": "전라남도",
        "name": "송현병렬급전소",
        "name_en": "Songhyeon Parallel Post",
        "substation_type": "traction",
        "voltage": "55000;27500",
        "frequency": "",
        "operator": "한국철도시설공단",
        "location": "indoor"
      }
    },
    {
      "type": "Feature",
      "geometry": {
        "type": "Point",
        "coordinates": [
          126.7768072,
          35.4153131
        ]
      },
      "properties": {
        "osm_type": "way",
        "osm_id": 1135323483,
        "sido": "전라남도",
        "name": "모현병렬급전소",
        "name_en": "Mohyeon Parallel Post",
        "substation_type": "traction",
        "voltage": "55000;27500",
        "frequency": "",
        "operator": "한국철도시설공단",
        "location": "indoor"
      }
    },
    {
      "type": "Feature",
      "geometry": {
        "type": "Point",
        "coordinates": [
          126.4963466,
          34.8912316
        ]
      },
      "properties": {
        "osm_type": "way",
        "osm_id": 1193390384,
        "sido": "전라남도",
        "name": "",
        "name_en": "",
        "substation_type": "traction",
        "voltage": "154000;55000;27500",
        "frequency": "",
        "operator": "",
        "location": ""
      }
    },
    {
      "type": "Feature",
      "geometry": {
        "type": "Point",
        "coordinates": [
          126.8092216,
          35.4566243
        ]
      },
      "properties": {
        "osm_type": "way",
        "osm_id": 1193541786,
        "sido": "전라남도",
        "name": "",
        "name_en": "",
        "substation_type": "traction",
        "voltage": "55000;27500",
        "frequency": "",
        "operator": "",
        "location": ""
      }
    },
    {
      "type": "Feature",
      "geometry": {
        "type": "Point",
        "coordinates": [
          126.7908056,
          35.3693965
        ]
      },
      "properties": {
        "osm_type": "way",
        "osm_id": 1193541787,
        "sido": "전라남도",
        "name": "",
        "name_en": "",
        "substation_type": "traction",
        "voltage": "55000;27500",
        "frequency": "",
        "operator": "",
        "location": ""
      }
    },
    {
      "type": "Feature",
      "geometry": {
        "type": "Point",
        "coordinates": [
          126.7259428,
          35.022003
        ]
      },
      "properties": {
        "osm_type": "way",
        "osm_id": 1193541790,
        "sido": "전라남도",
        "name": "",
        "name_en": "",
        "substation_type": "traction",
        "voltage": "55000;27500",
        "frequency": "",
        "operator": "",
        "location": ""
      }
    },
    {
      "type": "Feature",
      "geometry": {
        "type": "Point",
        "coordinates": [
          126.6524773,
          35.0147832
        ]
      },
      "properties": {
        "osm_type": "way",
        "osm_id": 1193541791,
        "sido": "전라남도",
        "name": "",
        "name_en": "",
        "substation_type": "traction",
        "voltage": "55000;27500",
        "frequency": "",
        "operator": "",
        "location": ""
      }
    },
    {
      "type": "Feature",
      "geometry": {
        "type": "Point",
        "coordinates": [
          126.5694,
          35.0348677
        ]
      },
      "properties": {
        "osm_type": "way",
        "osm_id": 1193541792,
        "sido": "전라남도",
        "name": "",
        "name_en": "",
        "substation_type": "traction",
        "voltage": "55000;27500",
        "frequency": "",
        "operator": "",
        "location": ""
      }
    },
    {
      "type": "Feature",
      "geometry": {
        "type": "Point",
        "coordinates": [
          127.5296141,
          34.9428682
        ]
      },
      "properties": {
        "osm_type": "way",
        "osm_id": 1193549750,
        "sido": "전라남도",
        "name": "",
        "name_en": "",
        "substation_type": "traction",
        "voltage": "55000;27500",
        "frequency": "",
        "operator": "",
        "location": ""
      }
    },
    {
      "type": "Feature",
      "geometry": {
        "type": "Point",
        "coordinates": [
          126.7721485,
          35.2857173
        ]
      },
      "properties": {
        "osm_type": "way",
        "osm_id": 1193839756,
        "sido": "전라남도",
        "name": "",
        "name_en": "",
        "substation_type": "traction",
        "voltage": "55000;27500",
        "frequency": "",
        "operator": "",
        "location": ""
      }
    },
    {
      "type": "Feature",
      "geometry": {
        "type": "Point",
        "coordinates": [
          126.5234148,
          34.9710254
        ]
      },
      "properties": {
        "osm_type": "way",
        "osm_id": 1193839757,
        "sido": "전라남도",
        "name": "",
        "name_en": "",
        "substation_type": "traction",
        "voltage": "55000;27500",
        "frequency": "",
        "operator": "",
        "location": ""
      }
    },
    {
      "type": "Feature",
      "geometry": {
        "type": "Point",
        "coordinates": [
          126.4434323,
          34.8208397
        ]
      },
      "properties": {
        "osm_type": "way",
        "osm_id": 1193839758,
        "sido": "전라남도",
        "name": "",
        "name_en": "",
        "substation_type": "traction",
        "voltage": "55000;27500",
        "frequency": "",
        "operator": "",
        "location": ""
      }
    },
    {
      "type": "Feature",
      "geometry": {
        "type": "Point",
        "coordinates": [
          127.6694092,
          34.7792892
        ]
      },
      "properties": {
        "osm_type": "way",
        "osm_id": 1194010874,
        "sido": "전라남도",
        "name": "",
        "name_en": "",
        "substation_type": "traction",
        "voltage": "55000;27500",
        "frequency": "",
        "operator": "",
        "location": ""
      }
    },
    {
      "type": "Feature",
      "geometry": {
        "type": "Point",
        "coordinates": [
          127.633032,
          34.8063412
        ]
      },
      "properties": {
        "osm_type": "way",
        "osm_id": 1194010875,
        "sido": "전라남도",
        "name": "",
        "name_en": "",
        "substation_type": "traction",
        "voltage": "154000;55000;27500",
        "frequency": "",
        "operator": "",
        "location": ""
      }
    },
    {
      "type": "Feature",
      "geometry": {
        "type": "Point",
        "coordinates": [
          127.560827,
          34.8936285
        ]
      },
      "properties": {
        "osm_type": "way",
        "osm_id": 1194010876,
        "sido": "전라남도",
        "name": "",
        "name_en": "",
        "substation_type": "traction",
        "voltage": "55000;27500",
        "frequency": "",
        "operator": "",
        "location": ""
      }
    },
    {
      "type": "Feature",
      "geometry": {
        "type": "Point",
        "coordinates": [
          127.4911585,
          34.9934627
        ]
      },
      "properties": {
        "osm_type": "way",
        "osm_id": 1194010877,
        "sido": "전라남도",
        "name": "",
        "name_en": "",
        "substation_type": "traction",
        "voltage": "55000;27500",
        "frequency": "",
        "operator": "",
        "location": ""
      }
    },
    {
      "type": "Feature",
      "geometry": {
        "type": "Point",
        "coordinates": [
          127.4523738,
          35.1271005
        ]
      },
      "properties": {
        "osm_type": "way",
        "osm_id": 1194010878,
        "sido": "전라남도",
        "name": "",
        "name_en": "",
        "substation_type": "traction",
        "voltage": "55000;27500",
        "frequency": "",
        "operator": "",
        "location": ""
      }
    },
    {
      "type": "Feature",
      "geometry": {
        "type": "Point",
        "coordinates": [
          127.3826289,
          35.1889694
        ]
      },
      "properties": {
        "osm_type": "way",
        "osm_id": 1194010879,
        "sido": "전라남도",
        "name": "",
        "name_en": "",
        "substation_type": "traction",
        "voltage": "55000;27500",
        "frequency": "",
        "operator": "",
        "location": ""
      }
    },
    {
      "type": "Feature",
      "geometry": {
        "type": "Point",
        "coordinates": [
          127.3168271,
          35.2734915
        ]
      },
      "properties": {
        "osm_type": "way",
        "osm_id": 1194010880,
        "sido": "전라남도",
        "name": "",
        "name_en": "",
        "substation_type": "traction",
        "voltage": "55000;27500",
        "frequency": "",
        "operator": "",
        "location": ""
      }
    },
    {
      "type": "Feature",
      "geometry": {
        "type": "Point",
        "coordinates": [
          127.7220585,
          35.0237508
        ]
      },
      "properties": {
        "osm_type": "way",
        "osm_id": 1194092160,
        "sido": "전라남도",
        "name": "",
        "name_en": "",
        "substation_type": "traction",
        "voltage": "55000;27500",
        "frequency": "",
        "operator": "",
        "location": ""
      }
    },
    {
      "type": "Feature",
      "geometry": {
        "type": "Point",
        "coordinates": [
          126.7791953,
          34.8122858
        ]
      },
      "properties": {
        "osm_type": "way",
        "osm_id": 1274393201,
        "sido": "전라남도",
        "name": "금정개폐소",
        "name_en": "",
        "substation_type": "transmission",
        "voltage": "154000",
        "frequency": "",
        "operator": "한국전력공사",
        "location": ""
      }
    },
    {
      "type": "Feature",
      "geometry": {
        "type": "Point",
        "coordinates": [
          127.2138408,
          35.3148533
        ]
      },
      "properties": {
        "osm_type": "way",
        "osm_id": 1431347635,
        "sido": "전라남도",
        "name": "",
        "name_en": "",
        "substation_type": "industrial",
        "voltage": "",
        "frequency": "",
        "operator": "",
        "location": "outdoor"
      }
    },
    {
      "type": "Feature",
      "geometry": {
        "type": "Point",
        "coordinates": [
          126.7014606,
          34.7304496
        ]
      },
      "properties": {
        "osm_type": "way",
        "osm_id": 1455690150,
        "sido": "전라남도",
        "name": "신강진변전소",
        "name_en": "Shin-Gangjin Substation",
        "substation_type": "transmission",
        "voltage": "345000",
        "frequency": "60",
        "operator": "",
        "location": "outdoor"
      }
    },
    {
      "type": "Feature",
      "geometry": {
        "type": "Point",
        "coordinates": [
          125.9128004,
          34.2548577
        ]
      },
      "properties": {
        "osm_type": "way",
        "osm_id": 1456317655,
        "sido": "전라남도",
        "name": "",
        "name_en": "",
        "substation_type": "",
        "voltage": "",
        "frequency": "",
        "operator": "",
        "location": ""
      }
    }
  ]
}