{
  "type": "FeatureCollection",
  "features": [
    {
      "type": "Feature",
      "geometry": {
        "type": "LineString",
        "coordinates": [
          [
            126.6536951,
            33.3666641
          ],
          [
            126.6566359,
            33.3661981
          ],
          [
            126.6604113,
            33.365768
          ],
          [
            126.6637051,
            33.3654186
          ],
          [
            126.6662371,
            33.3633487
          ],
          [
            126.6669559,
            33.3607858
          ],
          [
            126.6684043,
            33.3588861
          ],
          [
            126.670255,
            33.356489
          ],
          [
            126.6728997,
            33.3553105
          ],
          [
            126.6761191,
            33.3538585
          ],
          [
            126.6798305,
            33.3551761
          ],
          [
            126.6830885,
            33.354185
          ],
          [
            126.6858601,
            33.3549072
          ],
          [
            126.6885882,
            33.3537512
          ],
          [
            126.6890251,
            33.3513584
          ],
          [
            126.6903555,
            33.3491268
          ],
          [
            126.6925227,
            33.3469131
          ],
          [
            126.6961652,
            33.3467025
          ],
          [
            126.7004299,
            33.3458556
          ],
          [
            126.7030907,
            33.3467518
          ],
          [
            126.706704,
            33.344937
          ],
          [
            126.7098652,
            33.3448033
          ],
          [
            126.7138678,
            33.3446859
          ],
          [
            126.7167109,
            33.3458958
          ],
          [
            126.718272,
            33.3465546
          ],
          [
            126.7210615,
            33.3479809
          ],
          [
            126.7239872,
            33.3495996
          ],
          [
            126.7264205,
            33.350955
          ],
          [
            126.7282721,
            33.3513862
          ],
          [
            126.7318547,
            33.3522904
          ],
          [
            126.7350959,
            33.3526083
          ],
          [
            126.7380047,
            33.3529005
          ],
          [
            126.7406661,
            33.3547076
          ],
          [
            126.7421061,
            33.3574209
          ],
          [
            126.7438978,
            33.3595044
          ],
          [
            126.745593,
            33.3614937
          ],
          [
            126.7476422,
            33.3633128
          ],
          [
            126.7504022,
            33.3646636
          ],
          [
            126.7532158,
            33.3649974
          ],
          [
            126.7564755,
            33.3667344
          ],
          [
            126.7572659,
            33.3679633
          ]
        ]
      },
      "properties": {
        "osm_type": "way",
        "osm_id": 252219556,
        "sido": "제주특별자치도",
        "power_type": "line",
        "name": "",
        "description": "",
        "voltage": "154000",
        "cables": "6",
        "circuits": "2",
        "frequency": "",
        "operator": "",
        "wires": ""
      }
    },
    {
      "type": "Feature",
      "geometry": {
        "type": "LineString",
        "coordinates": [
          [
            126.8553701,
            33.4432819
          ],
          [
            126.8529347,
            33.4428522
          ],
          [
            126.850231,
            33.4437653
          ],
          [
            126.8456306,
            33.4434046
          ],
          [
            126.8424955,
            33.443255
          ],
          [
            126.8384722,
            33.4432103
          ],
          [
            126.8352214,
            33.4426284
          ],
          [
            126.8325392,
            33.4431655
          ],
          [
            126.8293742,
            33.4431476
          ],
          [
            126.8261233,
            33.4431476
          ],
          [
            126.8233768,
            33.4432729
          ],
          [
            126.8194393,
            33.443076
          ],
          [
            126.8160704,
            33.4430939
          ],
          [
            126.8134526,
            33.443076
          ],
          [
            126.8099764,
            33.4430044
          ],
          [
            126.8065217,
            33.4436579
          ],
          [
            126.8027774,
            33.4427179
          ],
          [
            126.7992261,
            33.4412138
          ],
          [
            126.7967371,
            33.4427895
          ],
          [
            126.7952243,
            33.4443204
          ],
          [
            126.7932502,
            33.4456364
          ],
          [
            126.7925421,
            33.4472298
          ],
          [
            126.7916838,
            33.4490381
          ],
          [
            126.7939583,
            33.4495574
          ],
          [
            126.7950741,
            33.4508285
          ],
          [
            126.7940119,
            33.4526546
          ],
          [
            126.7917374,
            33.453702
          ],
          [
            126.7894844,
            33.455161
          ],
          [
            126.7882994,
            33.4565346
          ],
          [
            126.7871669,
            33.4578643
          ],
          [
            126.7869041,
            33.4597395
          ],
          [
            126.7852947,
            33.4607464
          ],
          [
            126.7832885,
            33.4603571
          ],
          [
            126.7808745,
            33.4597753
          ],
          [
            126.7801878,
            33.4610418
          ],
          [
            126.7776236,
            33.4617802
          ],
          [
            126.7755691,
            33.4622278
          ],
          [
            126.7730531,
            33.4619995
          ],
          [
            126.7703605,
            33.4623844
          ],
          [
            126.7681769,
            33.4630601
          ],
          [
            126.7645452,
            33.4648771
          ],
          [
            126.7604468,
            33.4657273
          ],
          [
            126.7578345,
            33.4669982
          ],
          [
            126.7545405,
            33.465696
          ],
          [
            126.7516008,
            33.4676337
          ],
          [
            126.7479799,
            33.4696071
          ],
          [
            126.7441067,
            33.4700681
          ],
          [
            126.7418966,
            33.4708019
          ],
          [
            126.7400727,
            33.4713121
          ],
          [
            126.7387584,
            33.4732809
          ],
          [
            126.7366837,
            33.4743895
          ],
          [
            126.7345581,
            33.4735629
          ],
          [
            126.7321709,
            33.4734644
          ],
          [
            126.7299286,
            33.473357
          ],
          [
            126.7271176,
            33.4723099
          ],
          [
            126.7242638,
            33.4725784
          ],
          [
            126.721088,
            33.4728648
          ],
          [
            126.7175475,
            33.4731154
          ],
          [
            126.7145434,
            33.4733839
          ],
          [
            126.7113228,
            33.4736873
          ],
          [
            126.7082524,
            33.4739372
          ],
          [
            126.7054454,
            33.4741177
          ],
          [
            126.7024628,
            33.4743683
          ],
          [
            126.698242,
            33.475052
          ],
          [
            126.6956607,
            33.4769277
          ],
          [
            126.6926656,
            33.4775535
          ]
        ]
      },
      "properties": {
        "osm_type": "way",
        "osm_id": 252219557,
        "sido": "제주특별자치도",
        "power_type": "line",
        "name": "",
        "description": "",
        "voltage": "154000",
        "cables": "6",
        "circuits": "2",
        "frequency": "",
        "operator": "",
        "wires": ""
      }
    },
    {
      "type": "Feature",
      "geometry": {
        "type": "LineString",
        "coordinates": [
          [
            126.6422026,
            33.4727522
          ],
          [
            126.6421167,
            33.4698714
          ],
          [
            126.6418539,
            33.4666037
          ],
          [
            126.6400139,
            33.4646794
          ],
          [
            126.6413175,
            33.4624776
          ],
          [
            126.6415552,
            33.4596902
          ],
          [
            126.6410402,
            33.4568528
          ],
          [
            126.6404718,
            33.454503
          ],
          [
            126.6399407,
            33.4518355
          ],
          [
            126.6395706,
            33.4500093
          ],
          [
            126.640576,
            33.4476239
          ],
          [
            126.6416704,
            33.4450595
          ],
          [
            126.6427069,
            33.4424872
          ],
          [
            126.6435356,
            33.4406789
          ],
          [
            126.6429716,
            33.437767
          ],
          [
            126.6426873,
            33.4358196
          ],
          [
            126.6443825,
            33.4336619
          ],
          [
            126.6459328,
            33.4317592
          ],
          [
            126.6475689,
            33.4297133
          ],
          [
            126.6492855,
            33.4275823
          ],
          [
            126.6510665,
            33.4252542
          ],
          [
            126.6521287,
            33.4218425
          ],
          [
            126.6528368,
            33.4196754
          ],
          [
            126.6536951,
            33.4170158
          ],
          [
            126.6548055,
            33.4148262
          ],
          [
            126.6563558,
            33.4120724
          ],
          [
            126.6573,
            33.4096095
          ],
          [
            126.6581476,
            33.4075317
          ],
          [
            126.6593063,
            33.4045672
          ],
          [
            126.6586572,
            33.4010069
          ],
          [
            126.6582548,
            33.3988527
          ],
          [
            126.6577828,
            33.3961925
          ],
          [
            126.6572571,
            33.3935858
          ],
          [
            126.6568172,
            33.3909881
          ],
          [
            126.6563988,
            33.3886053
          ],
          [
            126.6559267,
            33.3861149
          ],
          [
            126.6554653,
            33.3836423
          ],
          [
            126.6550147,
            33.3812503
          ],
          [
            126.654607,
            33.3786343
          ],
          [
            126.6543495,
            33.3763139
          ],
          [
            126.6541993,
            33.3746026
          ],
          [
            126.6540545,
            33.3718296
          ],
          [
            126.6538507,
            33.3690968
          ],
          [
            126.6536951,
            33.3666641
          ],
          [
            126.6533518,
            33.3637429
          ],
          [
            126.6532123,
            33.3617805
          ],
          [
            126.6531372,
            33.35937
          ],
          [
            126.6528363,
            33.3565875
          ],
          [
            126.6526651,
            33.3537602
          ],
          [
            126.6524398,
            33.3511971
          ],
          [
            126.6522145,
            33.3485891
          ],
          [
            126.652075,
            33.3458108
          ],
          [
            126.6518283,
            33.3429965
          ],
          [
            126.6515804,
            33.34046
          ],
          [
            126.6509002,
            33.3379279
          ],
          [
            126.650337,
            33.3354584
          ],
          [
            126.6496289,
            33.333083
          ],
          [
            126.6490924,
            33.330842
          ],
          [
            126.6483521,
            33.3279914
          ],
          [
            126.6476655,
            33.3254724
          ],
          [
            126.6467267,
            33.3221061
          ],
          [
            126.6459274,
            33.318659
          ],
          [
            126.6452354,
            33.3161801
          ],
          [
            126.6446936,
            33.31397
          ],
          [
            126.6439211,
            33.3111906
          ]
        ]
      },
      "properties": {
        "osm_type": "way",
        "osm_id": 252219558,
        "sido": "제주특별자치도",
        "power_type": "line",
        "name": "",
        "description": "",
        "voltage": "154000",
        "cables": "6",
        "circuits": "2",
        "frequency": "",
        "operator": "",
        "wires": ""
      }
    },
    {
      "type": "Feature",
      "geometry": {
        "type": "LineString",
        "coordinates": [
          [
            126.3690859,
            33.3026679
          ],
          [
            126.3714248,
            33.3020492
          ],
          [
            126.3737851,
            33.3017622
          ],
          [
            126.3773925,
            33.3021419
          ],
          [
            126.380012,
            33.3037061
          ],
          [
            126.3827598,
            33.3052727
          ],
          [
            126.3855761,
            33.3069315
          ],
          [
            126.3886767,
            33.3072768
          ],
          [
            126.3907313,
            33.305192
          ],
          [
            126.394406,
            33.304663
          ],
          [
            126.3957899,
            33.3066105
          ],
          [
            126.3994666,
            33.3070571
          ],
          [
            126.4017337,
            33.3078776
          ],
          [
            126.4053386,
            33.3067836
          ],
          [
            126.4067226,
            33.3092494
          ],
          [
            126.4101344,
            33.3096529
          ],
          [
            126.4134925,
            33.3100205
          ],
          [
            126.4164644,
            33.3103612
          ],
          [
            126.4200371,
            33.3107468
          ],
          [
            126.4232129,
            33.3111054
          ],
          [
            126.4257449,
            33.3114103
          ],
          [
            126.4298862,
            33.3118406
          ],
          [
            126.4333194,
            33.3122082
          ],
          [
            126.4362699,
            33.3124862
          ],
          [
            126.43951,
            33.3128538
          ],
          [
            126.4430719,
            33.3132662
          ],
          [
            126.4464086,
            33.3136428
          ],
          [
            126.4491981,
            33.3131317
          ],
          [
            126.4530712,
            33.3125489
          ],
          [
            126.456145,
            33.3119437
          ],
          [
            126.4585322,
            33.3107647
          ],
          [
            126.4611372,
            33.3095696
          ],
          [
            126.4634675,
            33.3083797
          ],
          [
            126.4668041,
            33.3067298
          ],
          [
            126.4704197,
            33.3049276
          ],
          [
            126.4725113,
            33.3039228
          ],
          [
            126.4752585,
            33.3025872
          ],
          [
            126.4790457,
            33.303457
          ],
          [
            126.4836484,
            33.3046048
          ],
          [
            126.486395,
            33.3052683
          ],
          [
            126.4898282,
            33.3060484
          ],
          [
            126.4925426,
            33.3055373
          ],
          [
            126.4957827,
            33.3049634
          ],
          [
            126.498937,
            33.3043268
          ],
          [
            126.5021878,
            33.3037619
          ],
          [
            126.5054601,
            33.303188
          ],
          [
            126.5081853,
            33.3026679
          ],
          [
            126.5118545,
            33.3019774
          ],
          [
            126.5152448,
            33.3013498
          ],
          [
            126.5178821,
            33.3008525
          ],
          [
            126.521098,
            33.3002243
          ]
        ]
      },
      "properties": {
        "osm_type": "way",
        "osm_id": 252219719,
        "sido": "제주특별자치도",
        "power_type": "line",
        "name": "",
        "description": "",
        "voltage": "154000",
        "cables": "6",
        "circuits": "2",
        "frequency": "",
        "operator": "",
        "wires": ""
      }
    },
    {
      "type": "Feature",
      "geometry": {
        "type": "LineString",
        "coordinates": [
          [
            126.4737188,
            33.45383
          ],
          [
            126.473735,
            33.4536056
          ],
          [
            126.4721905,
            33.4531201
          ],
          [
            126.4701413,
            33.4514193
          ],
          [
            126.470077,
            33.4496379
          ],
          [
            126.4677858,
            33.4474625
          ],
          [
            126.4653241,
            33.4455468
          ],
          [
            126.4631461,
            33.4435236
          ],
          [
            126.4608394,
            33.4415272
          ],
          [
            126.4580607,
            33.4389756
          ],
          [
            126.4556789,
            33.4368359
          ],
          [
            126.4537691,
            33.4351079
          ],
          [
            126.4512586,
            33.4328874
          ],
          [
            126.4493918,
            33.4312221
          ],
          [
            126.447246,
            33.4292522
          ],
          [
            126.4451968,
            33.4273271
          ],
          [
            126.4428257,
            33.4252855
          ],
          [
            126.4408516,
            33.4234947
          ],
          [
            126.4382874,
            33.4225365
          ],
          [
            126.4353155,
            33.4214261
          ],
          [
            126.4321183,
            33.4202351
          ],
          [
            126.4292752,
            33.4192053
          ],
          [
            126.4269578,
            33.4183636
          ],
          [
            126.4242219,
            33.4173337
          ],
          [
            126.4214324,
            33.4148352
          ],
          [
            126.4194261,
            33.4130978
          ],
          [
            126.4171516,
            33.4109395
          ],
          [
            126.4146303,
            33.4087005
          ],
          [
            126.4130532,
            33.4063361
          ],
          [
            126.410886,
            33.4045627
          ],
          [
            126.4085364,
            33.4024758
          ],
          [
            126.406927,
            33.4008994
          ],
          [
            126.4049106,
            33.3989379
          ],
          [
            126.4032149,
            33.3963045
          ],
          [
            126.4018845,
            33.3943876
          ],
          [
            126.3996958,
            33.3925244
          ],
          [
            126.3985156,
            33.390267
          ],
          [
            126.3972711,
            33.3879558
          ],
          [
            126.3959622,
            33.3853579
          ],
          [
            126.3950502,
            33.3830466
          ],
          [
            126.394031,
            33.380565
          ],
          [
            126.3929581,
            33.3778952
          ],
          [
            126.3919496,
            33.3753776
          ],
          [
            126.3908874,
            33.3728331
          ],
          [
            126.3898789,
            33.3702347
          ],
          [
            126.3888597,
            33.3676901
          ],
          [
            126.3878619,
            33.365217
          ],
          [
            126.3868427,
            33.3627618
          ],
          [
            126.3857805,
            33.3600018
          ],
          [
            126.3831519,
            33.3581648
          ],
          [
            126.3807594,
            33.3564263
          ],
          [
            126.3781308,
            33.3546608
          ],
          [
            126.3758885,
            33.3530657
          ],
          [
            126.3737325,
            33.351619
          ],
          [
            126.3729274,
            33.3489969
          ],
          [
            126.3721549,
            33.3464158
          ],
          [
            126.3713395,
            33.3436374
          ]
        ]
      },
      "properties": {
        "osm_type": "way",
        "osm_id": 252255423,
        "sido": "제주특별자치도",
        "power_type": "line",
        "name": "",
        "description": "",
        "voltage": "154000",
        "cables": "6",
        "circuits": "2",
        "frequency": "",
        "operator": "",
        "wires": ""
      }
    },
    {
      "type": "Feature",
      "geometry": {
        "type": "LineString",
        "coordinates": [
          [
            126.5961515,
            33.4780643
          ],
          [
            126.5947031,
            33.4797466
          ],
          [
            126.5927398,
            33.4813663
          ],
          [
            126.5905993,
            33.4820598
          ],
          [
            126.5874558,
            33.4844938
          ],
          [
            126.5851598,
            33.4861939
          ],
          [
            126.5832286,
            33.4886949
          ],
          [
            126.5815603,
            33.490811
          ],
          [
            126.5798008,
            33.4930479
          ],
          [
            126.5769437,
            33.4935332
          ],
          [
            126.5740501,
            33.494135
          ],
          [
            126.5720116,
            33.4947702
          ],
          [
            126.5694904,
            33.4955934
          ],
          [
            126.5673554,
            33.4964389
          ],
          [
            126.5642654,
            33.4977406
          ],
          [
            126.5616047,
            33.4996731
          ],
          [
            126.5588903,
            33.5015519
          ],
          [
            126.5565728,
            33.5024913
          ]
        ]
      },
      "properties": {
        "osm_type": "way",
        "osm_id": 252255424,
        "sido": "제주특별자치도",
        "power_type": "line",
        "name": "",
        "description": "",
        "voltage": "154000",
        "cables": "12",
        "circuits": "4",
        "frequency": "",
        "operator": "",
        "wires": ""
      }
    },
    {
      "type": "Feature",
      "geometry": {
        "type": "LineString",
        "coordinates": [
          [
            126.5543305,
            33.5019724
          ],
          [
            126.5565728,
            33.5024913
          ]
        ]
      },
      "properties": {
        "osm_type": "way",
        "osm_id": 252255425,
        "sido": "제주특별자치도",
        "power_type": "line",
        "name": "",
        "description": "",
        "voltage": "154000",
        "cables": "6",
        "circuits": "2",
        "frequency": "",
        "operator": "",
        "wires": ""
      }
    },
    {
      "type": "Feature",
      "geometry": {
        "type": "LineString",
        "coordinates": [
          [
            126.5565728,
            33.5024913
          ],
          [
            126.5543842,
            33.5023034
          ]
        ]
      },
      "properties": {
        "osm_type": "way",
        "osm_id": 252255426,
        "sido": "제주특별자치도",
        "power_type": "line",
        "name": "",
        "description": "",
        "voltage": "154000",
        "cables": "6",
        "circuits": "2",
        "frequency": "",
        "operator": "",
        "wires": ""
      }
    },
    {
      "type": "Feature",
      "geometry": {
        "type": "LineString",
        "coordinates": [
          [
            126.3713395,
            33.3436374
          ],
          [
            126.3699126,
            33.3436284
          ],
          [
            126.3669193,
            33.3414952
          ],
          [
            126.3641378,
            33.3414729
          ],
          [
            126.3626277,
            33.3421226
          ],
          [
            126.3608249,
            33.3422539
          ],
          [
            126.3582288,
            33.3422461
          ],
          [
            126.3557827,
            33.3433237
          ],
          [
            126.353476,
            33.3439152
          ],
          [
            126.3511585,
            33.3448204
          ],
          [
            126.3488626,
            33.3459945
          ],
          [
            126.3467168,
            33.346595
          ],
          [
            126.3437235,
            33.347554
          ],
          [
            126.3406121,
            33.3485667
          ],
          [
            126.337254,
            33.3500365
          ],
          [
            126.3344859,
            33.3512374
          ],
          [
            126.3313638,
            33.3526086
          ],
          [
            126.3290571,
            33.3543203
          ],
          [
            126.3271689,
            33.3557004
          ],
          [
            126.3249695,
            33.3573134
          ],
          [
            126.3224267,
            33.3591953
          ],
          [
            126.3206457,
            33.3613908
          ],
          [
            126.3188004,
            33.3637564
          ],
          [
            126.3167297,
            33.3662833
          ],
          [
            126.3148307,
            33.3671614
          ],
          [
            126.3129021,
            33.3679533
          ],
          [
            126.3124167,
            33.3712472
          ],
          [
            126.3117086,
            33.3728779
          ],
          [
            126.310625,
            33.3749834
          ],
          [
            126.3084149,
            33.3777519
          ],
          [
            126.3062798,
            33.3799648
          ],
          [
            126.3037586,
            33.3825449
          ],
          [
            126.3022887,
            33.384901
          ],
          [
            126.3006579,
            33.3867554
          ],
          [
            126.2987267,
            33.3888875
          ],
          [
            126.2967097,
            33.3912166
          ],
          [
            126.2949824,
            33.3931425
          ],
          [
            126.2931799,
            33.3952206
          ],
          [
            126.2910234,
            33.3967971
          ],
          [
            126.2871981,
            33.3972629
          ],
          [
            126.2844944,
            33.3986692
          ],
          [
            126.2811795,
            33.3994213
          ],
          [
            126.2784433,
            33.4000485
          ],
          [
            126.2752464,
            33.4008141
          ]
        ]
      },
      "properties": {
        "osm_type": "way",
        "osm_id": 252255427,
        "sido": "제주특별자치도",
        "power_type": "line",
        "name": "",
        "description": "",
        "voltage": "154000",
        "cables": "12",
        "circuits": "4",
        "frequency": "",
        "operator": "",
        "wires": ""
      }
    },
    {
      "type": "Feature",
      "geometry": {
        "type": "LineString",
        "coordinates": [
          [
            126.5060323,
            33.2632819
          ],
          [
            126.5059695,
            33.263488
          ],
          [
            126.505266,
            33.2660658
          ]
        ]
      },
      "properties": {
        "osm_type": "way",
        "osm_id": 286007697,
        "sido": "제주특별자치도",
        "power_type": "line",
        "name": "",
        "description": "",
        "voltage": "154000",
        "cables": "6",
        "circuits": "2",
        "frequency": "",
        "operator": "",
        "wires": ""
      }
    },
    {
      "type": "Feature",
      "geometry": {
        "type": "LineString",
        "coordinates": [
          [
            126.505266,
            33.2660658
          ],
          [
            126.50553,
            33.2682017
          ],
          [
            126.5058811,
            33.2707043
          ],
          [
            126.5050388,
            33.2727407
          ],
          [
            126.5054894,
            33.2745483
          ],
          [
            126.5053836,
            33.276814
          ],
          [
            126.5068987,
            33.2790371
          ],
          [
            126.5083581,
            33.2811304
          ],
          [
            126.5101717,
            33.2825567
          ],
          [
            126.5113932,
            33.2855304
          ],
          [
            126.5129186,
            33.2878215
          ],
          [
            126.5145033,
            33.2901217
          ],
          [
            126.5163488,
            33.2925024
          ],
          [
            126.5179519,
            33.2945883
          ],
          [
            126.5194862,
            33.2966051
          ],
          [
            126.5212657,
            33.298943
          ],
          [
            126.521098,
            33.3002243
          ]
        ]
      },
      "properties": {
        "osm_type": "way",
        "osm_id": 287216677,
        "sido": "제주특별자치도",
        "power_type": "line",
        "name": "",
        "description": "",
        "voltage": "154000",
        "cables": "12",
        "circuits": "4",
        "frequency": "",
        "operator": "",
        "wires": ""
      }
    },
    {
      "type": "Feature",
      "geometry": {
        "type": "LineString",
        "coordinates": [
          [
            126.521098,
            33.3002243
          ],
          [
            126.5247613,
            33.3017174
          ],
          [
            126.5277976,
            33.302928
          ],
          [
            126.5300292,
            33.3038695
          ],
          [
            126.5329581,
            33.305071
          ],
          [
            126.5356833,
            33.306156
          ],
          [
            126.5388912,
            33.3074203
          ],
          [
            126.5418631,
            33.3087563
          ],
          [
            126.5450281,
            33.3101909
          ],
          [
            126.5483755,
            33.3116523
          ],
          [
            126.5507251,
            33.3127462
          ],
          [
            126.5538257,
            33.3140911
          ],
          [
            126.5565187,
            33.3153104
          ],
          [
            126.559512,
            33.3165925
          ],
          [
            126.5624839,
            33.3179373
          ],
          [
            126.565488,
            33.3193
          ],
          [
            126.5684277,
            33.3206269
          ],
          [
            126.5708309,
            33.3215593
          ],
          [
            126.5746397,
            33.3221689
          ],
          [
            126.5770966,
            33.3224468
          ],
          [
            126.5799934,
            33.3228592
          ],
          [
            126.5824293,
            33.3231792
          ],
          [
            126.58701,
            33.3237511
          ],
          [
            126.5903252,
            33.324177
          ],
          [
            126.5938657,
            33.3245894
          ],
          [
            126.5965372,
            33.3236391
          ],
          [
            126.599316,
            33.3226888
          ],
          [
            126.6023093,
            33.3216399
          ],
          [
            126.6050023,
            33.3212096
          ],
          [
            126.6088325,
            33.3205821
          ],
          [
            126.6119224,
            33.3200531
          ],
          [
            126.6146797,
            33.31956
          ],
          [
            126.6178125,
            33.3189952
          ],
          [
            126.6209131,
            33.3184573
          ],
          [
            126.6240245,
            33.3179015
          ],
          [
            126.6270929,
            33.3170856
          ],
          [
            126.6304523,
            33.3161967
          ],
          [
            126.6333264,
            33.315409
          ],
          [
            126.6364914,
            33.3145573
          ],
          [
            126.6397744,
            33.3136697
          ],
          [
            126.642521,
            33.3129345
          ],
          [
            126.6439211,
            33.3111906
          ]
        ]
      },
      "properties": {
        "osm_type": "way",
        "osm_id": 287216679,
        "sido": "제주특별자치도",
        "power_type": "line",
        "name": "",
        "description": "",
        "voltage": "154000",
        "cables": "6",
        "circuits": "2",
        "frequency": "",
        "operator": "",
        "wires": ""
      }
    },
    {
      "type": "Feature",
      "geometry": {
        "type": "LineString",
        "coordinates": [
          [
            126.6439211,
            33.3111906
          ],
          [
            126.6430414,
            33.3087607
          ],
          [
            126.6418371,
            33.3055889
          ],
          [
            126.6408769,
            33.3030412
          ],
          [
            126.6401017,
            33.3007803
          ],
          [
            126.6391468,
            33.2982605
          ],
          [
            126.6391575,
            33.2958124
          ],
          [
            126.6391736,
            33.2931445
          ],
          [
            126.6392541,
            33.2906469
          ],
          [
            126.6387176,
            33.2883599
          ],
          [
            126.6384816,
            33.2850989
          ],
          [
            126.6381758,
            33.2822477
          ],
          [
            126.6379666,
            33.2794449
          ],
          [
            126.6383207,
            33.2773639
          ]
        ]
      },
      "properties": {
        "osm_type": "way",
        "osm_id": 766674618,
        "sido": "제주특별자치도",
        "power_type": "line",
        "name": "",
        "description": "",
        "voltage": "154000",
        "cables": "12",
        "circuits": "4",
        "frequency": "",
        "operator": "",
        "wires": ""
      }
    },
    {
      "type": "Feature",
      "geometry": {
        "type": "LineString",
        "coordinates": [
          [
            126.505266,
            33.2660658
          ],
          [
            126.5057428,
            33.2635015
          ],
          [
            126.5057659,
            33.2632831
          ]
        ]
      },
      "properties": {
        "osm_type": "way",
        "osm_id": 766674619,
        "sido": "제주특별자치도",
        "power_type": "line",
        "name": "",
        "description": "",
        "voltage": "154000",
        "cables": "6",
        "circuits": "2",
        "frequency": "",
        "operator": "",
        "wires": ""
      }
    },
    {
      "type": "Feature",
      "geometry": {
        "type": "LineString",
        "coordinates": [
          [
            126.3713395,
            33.3436374
          ],
          [
            126.3714575,
            33.3406886
          ],
          [
            126.3715219,
            33.3382595
          ],
          [
            126.3716721,
            33.3359022
          ],
          [
            126.3717043,
            33.3333834
          ],
          [
            126.3718008,
            33.3309003
          ],
          [
            126.3719618,
            33.3282201
          ],
          [
            126.3720476,
            33.3257279
          ],
          [
            126.3721442,
            33.3231461
          ],
          [
            126.3722944,
            33.3207166
          ],
          [
            126.3721656,
            33.3178208
          ],
          [
            126.3728946,
            33.3150683
          ],
          [
            126.3720905,
            33.3128
          ],
          [
            126.3713497,
            33.3094915
          ],
          [
            126.370824,
            33.3068016
          ],
          [
            126.3708883,
            33.3038695
          ],
          [
            126.3690859,
            33.3026679
          ]
        ]
      },
      "properties": {
        "osm_type": "way",
        "osm_id": 766674622,
        "sido": "제주특별자치도",
        "power_type": "line",
        "name": "",
        "description": "",
        "voltage": "154000",
        "cables": "6",
        "circuits": "2",
        "frequency": "",
        "operator": "",
        "wires": ""
      }
    },
    {
      "type": "Feature",
      "geometry": {
        "type": "LineString",
        "coordinates": [
          [
            126.3529449,
            33.2850685
          ],
          [
            126.3543981,
            33.2875393
          ],
          [
            126.3574451,
            33.2894406
          ],
          [
            126.3594836,
            33.2913329
          ],
          [
            126.3627022,
            33.293279
          ],
          [
            126.3653201,
            33.2949649
          ],
          [
            126.365599,
            33.2969647
          ],
          [
            126.3660496,
            33.2990183
          ],
          [
            126.3665432,
            33.3007579
          ],
          [
            126.3690859,
            33.3026679
          ]
        ]
      },
      "properties": {
        "osm_type": "way",
        "osm_id": 766674624,
        "sido": "제주특별자치도",
        "power_type": "line",
        "name": "",
        "description": "",
        "voltage": "154000",
        "cables": "12",
        "circuits": "4",
        "frequency": "",
        "operator": "",
        "wires": ""
      }
    },
    {
      "type": "Feature",
      "geometry": {
        "type": "LineString",
        "coordinates": [
          [
            126.6926656,
            33.4775535
          ],
          [
            126.692818,
            33.4805783
          ],
          [
            126.693445,
            33.4829294
          ],
          [
            126.6921951,
            33.4849544
          ],
          [
            126.6915938,
            33.4886005
          ],
          [
            126.6922429,
            33.4904684
          ],
          [
            126.6917923,
            33.4937185
          ],
          [
            126.6891128,
            33.4948839
          ],
          [
            126.6890967,
            33.4970536
          ],
          [
            126.6886729,
            33.4997287
          ],
          [
            126.6871655,
            33.502057
          ],
          [
            126.6858646,
            33.5045821
          ],
          [
            126.6851646,
            33.5069416
          ],
          [
            126.6849714,
            33.5099585
          ],
          [
            126.6840032,
            33.5124923
          ],
          [
            126.6824126,
            33.5153638
          ],
          [
            126.6809213,
            33.5177342
          ],
          [
            126.6805753,
            33.5208469
          ],
          [
            126.6803634,
            33.5236755
          ],
          [
            126.67943,
            33.5263297
          ]
        ]
      },
      "properties": {
        "osm_type": "way",
        "osm_id": 835207957,
        "sido": "제주특별자치도",
        "power_type": "line",
        "name": "",
        "description": "",
        "voltage": "154000",
        "cables": "6",
        "circuits": "2",
        "frequency": "",
        "operator": "",
        "wires": ""
      }
    },
    {
      "type": "Feature",
      "geometry": {
        "type": "LineString",
        "coordinates": [
          [
            126.6383207,
            33.2773639
          ],
          [
            126.6382885,
            33.276523
          ]
        ]
      },
      "properties": {
        "osm_type": "way",
        "osm_id": 894856182,
        "sido": "제주특별자치도",
        "power_type": "line",
        "name": "",
        "description": "",
        "voltage": "154000",
        "cables": "6",
        "circuits": "2",
        "frequency": "",
        "operator": "",
        "wires": ""
      }
    },
    {
      "type": "Feature",
      "geometry": {
        "type": "LineString",
        "coordinates": [
          [
            126.3519278,
            33.2830302
          ],
          [
            126.3529449,
            33.2850685
          ]
        ]
      },
      "properties": {
        "osm_type": "way",
        "osm_id": 894856183,
        "sido": "제주특별자치도",
        "power_type": "line",
        "name": "",
        "description": "",
        "voltage": "154000",
        "cables": "6",
        "circuits": "2",
        "frequency": "",
        "operator": "",
        "wires": ""
      }
    },
    {
      "type": "Feature",
      "geometry": {
        "type": "LineString",
        "coordinates": [
          [
            126.3516167,
            33.282963
          ],
          [
            126.3529449,
            33.2850685
          ]
        ]
      },
      "properties": {
        "osm_type": "way",
        "osm_id": 894856184,
        "sido": "제주특별자치도",
        "power_type": "line",
        "name": "",
        "description": "",
        "voltage": "154000",
        "cables": "6",
        "circuits": "2",
        "frequency": "",
        "operator": "",
        "wires": ""
      }
    },
    {
      "type": "Feature",
      "geometry": {
        "type": "LineString",
        "coordinates": [
          [
            126.4739734,
            33.4538429
          ],
          [
            126.4739925,
            33.4536079
          ],
          [
            126.4746576,
            33.4536929
          ],
          [
            126.4771151,
            33.4543286
          ],
          [
            126.4794695,
            33.4563022
          ],
          [
            126.4819372,
            33.4581909
          ],
          [
            126.4843646,
            33.4600616
          ],
          [
            126.4859819,
            33.4625521
          ],
          [
            126.4875591,
            33.4649284
          ],
          [
            126.4891121,
            33.4673069
          ],
          [
            126.4890102,
            33.4696093
          ]
        ]
      },
      "properties": {
        "osm_type": "way",
        "osm_id": 894856187,
        "sido": "제주특별자치도",
        "power_type": "line",
        "name": "",
        "description": "",
        "voltage": "154000",
        "cables": "6",
        "circuits": "2",
        "frequency": "",
        "operator": "",
        "wires": ""
      }
    },
    {
      "type": "Feature",
      "geometry": {
        "type": "LineString",
        "coordinates": [
          [
            126.6926656,
            33.4775535
          ],
          [
            126.6889647,
            33.4760531
          ],
          [
            126.6852809,
            33.4760456
          ],
          [
            126.6814702,
            33.4770887
          ],
          [
            126.6776561,
            33.4771955
          ],
          [
            126.6742926,
            33.477634
          ],
          [
            126.6708379,
            33.4781083
          ],
          [
            126.6676568,
            33.4784573
          ],
          [
            126.6648941,
            33.4791284
          ],
          [
            126.6616755,
            33.4791374
          ],
          [
            126.6586714,
            33.4797683
          ],
          [
            126.6556137,
            33.4795445
          ],
          [
            126.6523004,
            33.4775586
          ],
          [
            126.6484361,
            33.4764706
          ],
          [
            126.6439568,
            33.4771194
          ],
          [
            126.6404538,
            33.4777145
          ],
          [
            126.6384843,
            33.4776749
          ],
          [
            126.6362393,
            33.4801582
          ],
          [
            126.6346138,
            33.4819837
          ],
          [
            126.6326558,
            33.4842074
          ],
          [
            126.6308266,
            33.4862655
          ],
          [
            126.6290349,
            33.4882787
          ],
          [
            126.6271251,
            33.4903993
          ],
          [
            126.6266799,
            33.4921173
          ],
          [
            126.6257947,
            33.4956649
          ],
          [
            126.6251564,
            33.4982058
          ],
          [
            126.6243839,
            33.5013684
          ],
          [
            126.6236007,
            33.5044907
          ],
          [
            126.6229999,
            33.5068033
          ],
          [
            126.6226566,
            33.508409
          ],
          [
            126.6220879,
            33.5107036
          ]
        ]
      },
      "properties": {
        "osm_type": "way",
        "osm_id": 1210629078,
        "sido": "제주특별자치도",
        "power_type": "line",
        "name": "",
        "description": "",
        "voltage": "154000",
        "cables": "6",
        "circuits": "2",
        "frequency": "",
        "operator": "",
        "wires": ""
      }
    },
    {
      "type": "Feature",
      "geometry": {
        "type": "LineString",
        "coordinates": [
          [
            126.59702,
            33.5349034
          ],
          [
            126.5970629,
            33.5345088
          ]
        ]
      },
      "properties": {
        "osm_type": "way",
        "osm_id": 1210629079,
        "sido": "제주특별자치도",
        "power_type": "line",
        "name": "",
        "description": "",
        "voltage": "154000",
        "cables": "3",
        "circuits": "",
        "frequency": "",
        "operator": "",
        "wires": ""
      }
    },
    {
      "type": "Feature",
      "geometry": {
        "type": "LineString",
        "coordinates": [
          [
            126.5969096,
            33.534833
          ],
          [
            126.5970629,
            33.5345088
          ]
        ]
      },
      "properties": {
        "osm_type": "way",
        "osm_id": 1210629080,
        "sido": "제주특별자치도",
        "power_type": "line",
        "name": "",
        "description": "",
        "voltage": "154000",
        "cables": "3",
        "circuits": "",
        "frequency": "",
        "operator": "",
        "wires": ""
      }
    },
    {
      "type": "Feature",
      "geometry": {
        "type": "LineString",
        "coordinates": [
          [
            126.5965886,
            33.5346284
          ],
          [
            126.5970629,
            33.5345088
          ]
        ]
      },
      "properties": {
        "osm_type": "way",
        "osm_id": 1210629081,
        "sido": "제주특별자치도",
        "power_type": "line",
        "name": "",
        "description": "",
        "voltage": "154000",
        "cables": "3",
        "circuits": "",
        "frequency": "",
        "operator": "",
        "wires": ""
      }
    },
    {
      "type": "Feature",
      "geometry": {
        "type": "LineString",
        "coordinates": [
          [
            126.5964903,
            33.5345658
          ],
          [
            126.5970629,
            33.5345088
          ]
        ]
      },
      "properties": {
        "osm_type": "way",
        "osm_id": 1210629082,
        "sido": "제주특별자치도",
        "power_type": "line",
        "name": "",
        "description": "",
        "voltage": "154000",
        "cables": "3",
        "circuits": "",
        "frequency": "",
        "operator": "",
        "wires": ""
      }
    },
    {
      "type": "Feature",
      "geometry": {
        "type": "LineString",
        "coordinates": [
          [
            126.6220879,
            33.5107036
          ],
          [
            126.6200924,
            33.5129846
          ],
          [
            126.6180914,
            33.5153775
          ],
          [
            126.615935,
            33.5178194
          ],
          [
            126.6142612,
            33.5197515
          ],
          [
            126.612153,
            33.5221441
          ],
          [
            126.6103238,
            33.5242371
          ],
          [
            126.6087512,
            33.526044
          ],
          [
            126.6066116,
            33.528472
          ],
          [
            126.6048067,
            33.5305689
          ],
          [
            126.6029101,
            33.532434
          ],
          [
            126.6008341,
            33.5345222
          ],
          [
            126.5983289,
            33.5345088
          ],
          [
            126.5970629,
            33.5345088
          ]
        ]
      },
      "properties": {
        "osm_type": "way",
        "osm_id": 1210629083,
        "sido": "제주특별자치도",
        "power_type": "line",
        "name": "",
        "description": "",
        "voltage": "154000",
        "cables": "12",
        "circuits": "4",
        "frequency": "",
        "operator": "",
        "wires": ""
      }
    },
    {
      "type": "Feature",
      "geometry": {
        "type": "LineString",
        "coordinates": [
          [
            126.6383207,
            33.2773639
          ],
          [
            126.6385493,
            33.2766211
          ]
        ]
      },
      "properties": {
        "osm_type": "way",
        "osm_id": 1210629084,
        "sido": "제주특별자치도",
        "power_type": "line",
        "name": "",
        "description": "",
        "voltage": "154000",
        "cables": "6",
        "circuits": "2",
        "frequency": "",
        "operator": "",
        "wires": ""
      }
    },
    {
      "type": "Feature",
      "geometry": {
        "type": "LineString",
        "coordinates": [
          [
            126.2721562,
            33.4016696
          ],
          [
            126.2725535,
            33.4013874
          ]
        ]
      },
      "properties": {
        "osm_type": "way",
        "osm_id": 1210629085,
        "sido": "제주특별자치도",
        "power_type": "line",
        "name": "",
        "description": "",
        "voltage": "154000",
        "cables": "3",
        "circuits": "",
        "frequency": "",
        "operator": "",
        "wires": ""
      }
    },
    {
      "type": "Feature",
      "geometry": {
        "type": "LineString",
        "coordinates": [
          [
            126.2723118,
            33.4017861
          ],
          [
            126.2725535,
            33.4013874
          ]
        ]
      },
      "properties": {
        "osm_type": "way",
        "osm_id": 1210629086,
        "sido": "제주특별자치도",
        "power_type": "line",
        "name": "",
        "description": "",
        "voltage": "154000",
        "cables": "3",
        "circuits": "",
        "frequency": "",
        "operator": "",
        "wires": ""
      }
    },
    {
      "type": "Feature",
      "geometry": {
        "type": "LineString",
        "coordinates": [
          [
            126.2752464,
            33.4008141
          ],
          [
            126.2726068,
            33.4011098
          ]
        ]
      },
      "properties": {
        "osm_type": "way",
        "osm_id": 1210629087,
        "sido": "제주특별자치도",
        "power_type": "line",
        "name": "",
        "description": "",
        "voltage": "154000",
        "cables": "6",
        "circuits": "2",
        "frequency": "",
        "operator": "",
        "wires": ""
      }
    },
    {
      "type": "Feature",
      "geometry": {
        "type": "LineString",
        "coordinates": [
          [
            126.2752464,
            33.4008141
          ],
          [
            126.2725535,
            33.4013874
          ]
        ]
      },
      "properties": {
        "osm_type": "way",
        "osm_id": 1210629088,
        "sido": "제주특별자치도",
        "power_type": "line",
        "name": "",
        "description": "",
        "voltage": "154000",
        "cables": "6",
        "circuits": "2",
        "frequency": "",
        "operator": "",
        "wires": ""
      }
    },
    {
      "type": "Feature",
      "geometry": {
        "type": "LineString",
        "coordinates": [
          [
            126.4876167,
            33.4740695
          ],
          [
            126.4875579,
            33.4744088
          ]
        ]
      },
      "properties": {
        "osm_type": "way",
        "osm_id": 1210629089,
        "sido": "제주특별자치도",
        "power_type": "line",
        "name": "",
        "description": "",
        "voltage": "154000",
        "cables": "3",
        "circuits": "",
        "frequency": "",
        "operator": "",
        "wires": ""
      }
    },
    {
      "type": "Feature",
      "geometry": {
        "type": "LineString",
        "coordinates": [
          [
            126.4876802,
            33.4741306
          ],
          [
            126.4875579,
            33.4744088
          ]
        ]
      },
      "properties": {
        "osm_type": "way",
        "osm_id": 1210629090,
        "sido": "제주특별자치도",
        "power_type": "line",
        "name": "",
        "description": "",
        "voltage": "154000",
        "cables": "3",
        "circuits": "",
        "frequency": "",
        "operator": "",
        "wires": ""
      }
    },
    {
      "type": "Feature",
      "geometry": {
        "type": "LineString",
        "coordinates": [
          [
            126.4877652,
            33.4742125
          ],
          [
            126.4875579,
            33.4744088
          ]
        ]
      },
      "properties": {
        "osm_type": "way",
        "osm_id": 1210629091,
        "sido": "제주특별자치도",
        "power_type": "line",
        "name": "",
        "description": "",
        "voltage": "154000",
        "cables": "3",
        "circuits": "",
        "frequency": "",
        "operator": "",
        "wires": ""
      }
    },
    {
      "type": "Feature",
      "geometry": {
        "type": "LineString",
        "coordinates": [
          [
            126.4878689,
            33.4743123
          ],
          [
            126.4875579,
            33.4744088
          ]
        ]
      },
      "properties": {
        "osm_type": "way",
        "osm_id": 1210629092,
        "sido": "제주특별자치도",
        "power_type": "line",
        "name": "",
        "description": "",
        "voltage": "154000",
        "cables": "3",
        "circuits": "",
        "frequency": "",
        "operator": "",
        "wires": ""
      }
    },
    {
      "type": "Feature",
      "geometry": {
        "type": "LineString",
        "coordinates": [
          [
            126.4890102,
            33.4696093
          ],
          [
            126.4884415,
            33.4720727
          ],
          [
            126.4879766,
            33.4737633
          ],
          [
            126.4875579,
            33.4744088
          ]
        ]
      },
      "properties": {
        "osm_type": "way",
        "osm_id": 1210629093,
        "sido": "제주특별자치도",
        "power_type": "line",
        "name": "",
        "description": "",
        "voltage": "154000",
        "cables": "12",
        "circuits": "4",
        "frequency": "",
        "operator": "",
        "wires": ""
      }
    },
    {
      "type": "Feature",
      "geometry": {
        "type": "LineString",
        "coordinates": [
          [
            126.6220879,
            33.5107036
          ],
          [
            126.6198032,
            33.5077292
          ],
          [
            126.6182637,
            33.5053675
          ],
          [
            126.618843,
            33.5033412
          ],
          [
            126.6194438,
            33.5010777
          ],
          [
            126.6198247,
            33.4997044
          ],
          [
            126.618489,
            33.4977317
          ],
          [
            126.6174161,
            33.4959602
          ],
          [
            126.6159784,
            33.4937323
          ],
          [
            126.6146266,
            33.4916476
          ],
          [
            126.6129421,
            33.4902786
          ],
          [
            126.611129,
            33.4887575
          ],
          [
            126.6100239,
            33.4878717
          ],
          [
            126.6075992,
            33.4858494
          ],
          [
            126.6057431,
            33.4842388
          ],
          [
            126.6032755,
            33.4823059
          ],
          [
            126.6008078,
            33.4803641
          ],
          [
            126.5984797,
            33.4792187
          ],
          [
            126.5961515,
            33.4780643
          ],
          [
            126.5950143,
            33.4774647
          ],
          [
            126.5924823,
            33.475299
          ],
          [
            126.5902292,
            33.4733212
          ],
          [
            126.5884589,
            33.4718356
          ],
          [
            126.586914,
            33.4704216
          ],
          [
            126.58553,
            33.4693029
          ],
          [
            126.5832876,
            33.4681841
          ],
          [
            126.5805089,
            33.4667253
          ],
          [
            126.5783417,
            33.4655618
          ],
          [
            126.5748414,
            33.465281
          ],
          [
            126.5718078,
            33.4650963
          ],
          [
            126.5687286,
            33.4648099
          ],
          [
            126.5653168,
            33.464255
          ],
          [
            126.5616739,
            33.4636083
          ],
          [
            126.5581714,
            33.4630288
          ],
          [
            126.554706,
            33.4623575
          ],
          [
            126.5508544,
            33.4616415
          ],
          [
            126.5484082,
            33.4605764
          ],
          [
            126.5460693,
            33.4594486
          ],
          [
            126.5427434,
            33.4593233
          ],
          [
            126.5389776,
            33.4590816
          ],
          [
            126.5344178,
            33.4588131
          ],
          [
            126.5313708,
            33.4586609
          ],
          [
            126.5276801,
            33.4584461
          ],
          [
            126.5250086,
            33.4578374
          ],
          [
            126.5223693,
            33.4573182
          ],
          [
            126.518625,
            33.4565037
          ],
          [
            126.5155672,
            33.455895
          ],
          [
            126.5128421,
            33.4573003
          ],
          [
            126.5104818,
            33.4585087
          ],
          [
            126.5075313,
            33.4599498
          ],
          [
            126.5044843,
            33.461543
          ],
          [
            126.5018987,
            33.4628319
          ],
          [
            126.4989483,
            33.4643266
          ],
          [
            126.4958905,
            33.4659824
          ],
          [
            126.4940023,
            33.466958
          ],
          [
            126.4913611,
            33.4683899
          ],
          [
            126.4890102,
            33.4696093
          ]
        ]
      },
      "properties": {
        "osm_type": "way",
        "osm_id": 1210629094,
        "sido": "제주특별자치도",
        "power_type": "line",
        "name": "",
        "description": "",
        "voltage": "154000",
        "cables": "6",
        "circuits": "2",
        "frequency": "",
        "operator": "",
        "wires": ""
      }
    },
    {
      "type": "Feature",
      "geometry": {
        "type": "LineString",
        "coordinates": [
          [
            126.6386734,
            33.2765398
          ],
          [
            126.6385493,
            33.2766211
          ]
        ]
      },
      "properties": {
        "osm_type": "way",
        "osm_id": 1210631083,
        "sido": "제주특별자치도",
        "power_type": "line",
        "name": "",
        "description": "",
        "voltage": "154000",
        "cables": "3",
        "circuits": "",
        "frequency": "",
        "operator": "",
        "wires": ""
      }
    },
    {
      "type": "Feature",
      "geometry": {
        "type": "LineString",
        "coordinates": [
          [
            126.6385571,
            33.2764898
          ],
          [
            126.6385493,
            33.2766211
          ]
        ]
      },
      "properties": {
        "osm_type": "way",
        "osm_id": 1210631084,
        "sido": "제주특별자치도",
        "power_type": "line",
        "name": "",
        "description": "",
        "voltage": "154000",
        "cables": "3",
        "circuits": "",
        "frequency": "",
        "operator": "",
        "wires": ""
      }
    },
    {
      "type": "Feature",
      "geometry": {
        "type": "LineString",
        "coordinates": [
          [
            126.6384341,
            33.2764368
          ],
          [
            126.6382885,
            33.276523
          ]
        ]
      },
      "properties": {
        "osm_type": "way",
        "osm_id": 1210631085,
        "sido": "제주특별자치도",
        "power_type": "line",
        "name": "",
        "description": "",
        "voltage": "154000",
        "cables": "3",
        "circuits": "",
        "frequency": "",
        "operator": "",
        "wires": ""
      }
    },
    {
      "type": "Feature",
      "geometry": {
        "type": "LineString",
        "coordinates": [
          [
            126.638314,
            33.2763851
          ],
          [
            126.6382885,
            33.276523
          ]
        ]
      },
      "properties": {
        "osm_type": "way",
        "osm_id": 1210631086,
        "sido": "제주특별자치도",
        "power_type": "line",
        "name": "",
        "description": "",
        "voltage": "154000",
        "cables": "3",
        "circuits": "",
        "frequency": "",
        "operator": "",
        "wires": ""
      }
    },
    {
      "type": "Feature",
      "geometry": {
        "type": "LineString",
        "coordinates": [
          [
            126.7799199,
            33.3692311
          ],
          [
            126.7572659,
            33.3679633
          ]
        ]
      },
      "properties": {
        "osm_type": "way",
        "osm_id": 1210701052,
        "sido": "제주특별자치도",
        "power_type": "cable",
        "name": "",
        "description": "",
        "voltage": "154000",
        "cables": "6",
        "circuits": "2",
        "frequency": "",
        "operator": "",
        "wires": ""
      }
    },
    {
      "type": "Feature",
      "geometry": {
        "type": "LineString",
        "coordinates": [
          [
            126.5927629,
            34.367529
          ],
          [
            126.6260841,
            34.3478187
          ],
          [
            126.6857114,
            34.2497748
          ],
          [
            126.7172434,
            34.1369082
          ],
          [
            126.682843,
            33.8821657
          ],
          [
            126.5872165,
            33.6534969
          ],
          [
            126.5931952,
            33.5377282
          ],
          [
            126.5955555,
            33.5352064
          ]
        ]
      },
      "properties": {
        "osm_type": "way",
        "osm_id": 1265856505,
        "sido": "제주특별자치도",
        "power_type": "cable",
        "name": "",
        "description": "",
        "voltage": "180000",
        "cables": "",
        "circuits": "",
        "frequency": "0",
        "operator": "KEPCO",
        "wires": ""
      }
    },
    {
      "type": "Feature",
      "geometry": {
        "type": "LineString",
        "coordinates": [
          [
            126.7159438,
            34.3203831
          ],
          [
            126.7190524,
            34.1049845
          ],
          [
            126.6778537,
            33.7974111
          ],
          [
            126.6005873,
            33.5391412
          ],
          [
            126.6007054,
            33.5351885
          ]
        ]
      },
      "properties": {
        "osm_type": "way",
        "osm_id": 1265858077,
        "sido": "제주특별자치도",
        "power_type": "cable",
        "name": "",
        "description": "",
        "voltage": "150000",
        "cables": "",
        "circuits": "",
        "frequency": "0",
        "operator": "KEPCO",
        "wires": ""
      }
    },
    {
      "type": "Feature",
      "geometry": {
        "type": "LineString",
        "coordinates": [
          [
            126.1878329,
            34.3854369
          ],
          [
            126.1884284,
            34.3850938
          ],
          [
            126.2013231,
            34.2617577
          ],
          [
            126.2219225,
            33.947918
          ],
          [
            126.3180515,
            33.6854987
          ],
          [
            126.4704694,
            33.455043
          ],
          [
            126.4716589,
            33.4547089
          ],
          [
            126.4730751,
            33.4546731
          ]
        ]
      },
      "properties": {
        "osm_type": "way",
        "osm_id": 1265876660,
        "sido": "제주특별자치도",
        "power_type": "cable",
        "name": "",
        "description": "",
        "voltage": "250000",
        "cables": "",
        "circuits": "",
        "frequency": "0",
        "operator": "KEPCO",
        "wires": ""
      }
    },
    {
      "type": "Feature",
      "geometry": {
        "type": "LineString",
        "coordinates": [
          [
            126.9510331,
            33.4982961
          ],
          [
            126.9510388,
            33.4983702
          ],
          [
            126.9511055,
            33.4983165
          ]
        ]
      },
      "properties": {
        "osm_type": "way",
        "osm_id": 1306711699,
        "sido": "제주특별자치도",
        "power_type": "minor_line",
        "name": "",
        "description": "",
        "voltage": "",
        "cables": "",
        "circuits": "",
        "frequency": "",
        "operator": "",
        "wires": ""
      }
    },
    {
      "type": "Feature",
      "geometry": {
        "type": "LineString",
        "coordinates": [
          [
            126.950842,
            33.4977028
          ],
          [
            126.9508175,
            33.4979709
          ],
          [
            126.9510331,
            33.4982961
          ]
        ]
      },
      "properties": {
        "osm_type": "way",
        "osm_id": 1306711706,
        "sido": "제주특별자치도",
        "power_type": "minor_line",
        "name": "",
        "description": "",
        "voltage": "",
        "cables": "",
        "circuits": "",
        "frequency": "",
        "operator": "",
        "wires": ""
      }
    },
    {
      "type": "Feature",
      "geometry": {
        "type": "LineString",
        "coordinates": [
          [
            126.9512567,
            33.4977249
          ],
          [
            126.9511648,
            33.497471
          ]
        ]
      },
      "properties": {
        "osm_type": "way",
        "osm_id": 1306711707,
        "sido": "제주특별자치도",
        "power_type": "minor_line",
        "name": "",
        "description": "",
        "voltage": "",
        "cables": "",
        "circuits": "",
        "frequency": "",
        "operator": "",
        "wires": ""
      }
    },
    {
      "type": "Feature",
      "geometry": {
        "type": "LineString",
        "coordinates": [
          [
            126.9511648,
            33.497471
          ],
          [
            126.9510683,
            33.4975124
          ],
          [
            126.950842,
            33.4977028
          ],
          [
            126.9512567,
            33.4977249
          ]
        ]
      },
      "properties": {
        "osm_type": "way",
        "osm_id": 1306711720,
        "sido": "제주특별자치도",
        "power_type": "minor_line",
        "name": "",
        "description": "",
        "voltage": "",
        "cables": "",
        "circuits": "",
        "frequency": "",
        "operator": "",
        "wires": ""
      }
    },
    {
      "type": "Feature",
      "geometry": {
        "type": "LineString",
        "coordinates": [
          [
            126.9510331,
            33.4982961
          ],
          [
            126.9510438,
            33.4980363
          ],
          [
            126.9511233,
            33.4978815
          ],
          [
            126.9512567,
            33.4977249
          ]
        ]
      },
      "properties": {
        "osm_type": "way",
        "osm_id": 1306711721,
        "sido": "제주특별자치도",
        "power_type": "minor_line",
        "name": "",
        "description": "",
        "voltage": "",
        "cables": "",
        "circuits": "",
        "frequency": "",
        "operator": "",
        "wires": ""
      }
    }
  ]
}