{
  "type": "FeatureCollection",
  "features": [
    {
      "type": "Feature",
      "geometry": {
        "type": "Point",
        "coordinates": [
          127.0709234,
          35.8655978
        ]
      },
      "properties": {
        "osm_type": "node",
        "osm_id": 12088441573,
        "sido": "전북특별자치도",
        "name": "전주변전소",
        "name_en": "",
        "substation_type": "",
        "voltage": "154000",
        "frequency": "",
        "operator": "",
        "location": "underground"
      }
    },
    {
      "type": "Feature",
      "geometry": {
        "type": "Point",
        "coordinates": [
          127.0092116,
          35.5977419
        ]
      },
      "properties": {
        "osm_type": "way",
        "osm_id": 160191590,
        "sido": "전북특별자치도",
        "name": "",
        "name_en": "",
        "substation_type": "",
        "voltage": "",
        "frequency": "",
        "operator": "",
        "location": ""
      }
    },
    {
      "type": "Feature",
      "geometry": {
        "type": "Point",
        "coordinates": [
          126.9763047,
          36.0612017
        ]
      },
      "properties": {
        "osm_type": "way",
        "osm_id": 308733207,
        "sido": "전북특별자치도",
        "name": "함열변전소",
        "name_en": "",
        "substation_type": "distribution",
        "voltage": "154000",
        "frequency": "60",
        "operator": "",
        "location": "outdoor"
      }
    },
    {
      "type": "Feature",
      "geometry": {
        "type": "Point",
        "coordinates": [
          127.0461768,
          35.8441426
        ]
      },
      "properties": {
        "osm_type": "way",
        "osm_id": 308733209,
        "sido": "전북특별자치도",
        "name": "",
        "name_en": "",
        "substation_type": "transition",
        "voltage": "345000",
        "frequency": "",
        "operator": "",
        "location": "outdoor"
      }
    },
    {
      "type": "Feature",
      "geometry": {
        "type": "Point",
        "coordinates": [
          126.9338098,
          35.9429171
        ]
      },
      "properties": {
        "osm_type": "way",
        "osm_id": 308733210,
        "sido": "전북특별자치도",
        "name": "이리변전소",
        "name_en": "Iri Substation",
        "substation_type": "transmission",
        "voltage": "154000",
        "frequency": "60",
        "operator": "",
        "location": "outdoor"
      }
    },
    {
      "type": "Feature",
      "geometry": {
        "type": "Point",
        "coordinates": [
          126.8571126,
          35.9681634
        ]
      },
      "properties": {
        "osm_type": "way",
        "osm_id": 308733211,
        "sido": "전북특별자치도",
        "name": "군산변전소",
        "name_en": "Gunsan Substation",
        "substation_type": "transmission",
        "voltage": "345000",
        "frequency": "60",
        "operator": "",
        "location": "outdoor"
      }
    },
    {
      "type": "Feature",
      "geometry": {
        "type": "Point",
        "coordinates": [
          127.4657301,
          35.4516042
        ]
      },
      "properties": {
        "osm_type": "way",
        "osm_id": 310226153,
        "sido": "전북특별자치도",
        "name": "신남원변전소",
        "name_en": "New Namwon Substation",
        "substation_type": "transmission",
        "voltage": "345000",
        "frequency": "60",
        "operator": "",
        "location": "outdoor"
      }
    },
    {
      "type": "Feature",
      "geometry": {
        "type": "Point",
        "coordinates": [
          127.0491315,
          35.826868
        ]
      },
      "properties": {
        "osm_type": "way",
        "osm_id": 310247600,
        "sido": "전북특별자치도",
        "name": "",
        "name_en": "",
        "substation_type": "transition",
        "voltage": "345000",
        "frequency": "60",
        "operator": "",
        "location": "outdoor"
      }
    },
    {
      "type": "Feature",
      "geometry": {
        "type": "Point",
        "coordinates": [
          127.006035,
          35.7577449
        ]
      },
      "properties": {
        "osm_type": "way",
        "osm_id": 310247604,
        "sido": "전북특별자치도",
        "name": "신김제변전소",
        "name_en": "Shin-Gimje Substation",
        "substation_type": "transmission",
        "voltage": "345000",
        "frequency": "60",
        "operator": "",
        "location": "outdoor"
      }
    },
    {
      "type": "Feature",
      "geometry": {
        "type": "Point",
        "coordinates": [
          127.4538992,
          35.7803167
        ]
      },
      "properties": {
        "osm_type": "way",
        "osm_id": 731923224,
        "sido": "전북특별자치도",
        "name": "진안변전소",
        "name_en": "Jian Substation",
        "substation_type": "distribution",
        "voltage": "154000",
        "frequency": "60",
        "operator": "",
        "location": "outdoor"
      }
    },
    {
      "type": "Feature",
      "geometry": {
        "type": "Point",
        "coordinates": [
          126.5626998,
          35.9381517
        ]
      },
      "properties": {
        "osm_type": "way",
        "osm_id": 788986278,
        "sido": "전북특별자치도",
        "name": "비응변전소",
        "name_en": "Bieung Substation",
        "substation_type": "distribution",
        "voltage": "154000",
        "frequency": "60",
        "operator": "",
        "location": "indoor"
      }
    },
    {
      "type": "Feature",
      "geometry": {
        "type": "Point",
        "coordinates": [
          126.7165854,
          35.7090273
        ]
      },
      "properties": {
        "osm_type": "way",
        "osm_id": 862071370,
        "sido": "전북특별자치도",
        "name": "부안변전소",
        "name_en": "Buan Substation",
        "substation_type": "distribution",
        "voltage": "154000",
        "frequency": "60",
        "operator": "",
        "location": "indoor"
      }
    },
    {
      "type": "Feature",
      "geometry": {
        "type": "Point",
        "coordinates": [
          126.6224682,
          35.9564831
        ]
      },
      "properties": {
        "osm_type": "way",
        "osm_id": 882983098,
        "sido": "전북특별자치도",
        "name": "새만금변전소",
        "name_en": "Saemangeum Substation",
        "substation_type": "transmission",
        "voltage": "345000",
        "frequency": "60",
        "operator": "",
        "location": "indoor"
      }
    },
    {
      "type": "Feature",
      "geometry": {
        "type": "Point",
        "coordinates": [
          127.6394203,
          36.0068671
        ]
      },
      "properties": {
        "osm_type": "way",
        "osm_id": 893614534,
        "sido": "전북특별자치도",
        "name": "무주변전소",
        "name_en": "Muju Substation",
        "substation_type": "distribution",
        "voltage": "154000",
        "frequency": "60",
        "operator": "한국전력",
        "location": "indoor"
      }
    },
    {
      "type": "Feature",
      "geometry": {
        "type": "Point",
        "coordinates": [
          126.7364252,
          35.982829
        ]
      },
      "properties": {
        "osm_type": "way",
        "osm_id": 893614535,
        "sido": "전북특별자치도",
        "name": "동군산변전소",
        "name_en": "",
        "substation_type": "distribution",
        "voltage": "154000",
        "frequency": "60",
        "operator": "",
        "location": "outdoor"
      }
    },
    {
      "type": "Feature",
      "geometry": {
        "type": "Point",
        "coordinates": [
          126.5877517,
          35.9550221
        ]
      },
      "properties": {
        "osm_type": "way",
        "osm_id": 893614536,
        "sido": "전북특별자치도",
        "name": "내초변전소",
        "name_en": "Naecho Substation",
        "substation_type": "distribution",
        "voltage": "154000",
        "frequency": "60",
        "operator": "",
        "location": "indoor"
      }
    },
    {
      "type": "Feature",
      "geometry": {
        "type": "Point",
        "coordinates": [
          127.083658,
          35.7955907
        ]
      },
      "properties": {
        "osm_type": "way",
        "osm_id": 893614537,
        "sido": "전북특별자치도",
        "name": "남전주변전소",
        "name_en": "South-Jeonju Substation",
        "substation_type": "distribution",
        "voltage": "154000",
        "frequency": "60",
        "operator": "",
        "location": "outdoor"
      }
    },
    {
      "type": "Feature",
      "geometry": {
        "type": "Point",
        "coordinates": [
          127.1794402,
          35.8423375
        ]
      },
      "properties": {
        "osm_type": "way",
        "osm_id": 893614538,
        "sido": "전북특별자치도",
        "name": "동전주변전소",
        "name_en": "East-Jeonju Substation",
        "substation_type": "distribution",
        "voltage": "154000",
        "frequency": "60",
        "operator": "",
        "location": "outdoor"
      }
    },
    {
      "type": "Feature",
      "geometry": {
        "type": "Point",
        "coordinates": [
          127.3024008,
          35.6262138
        ]
      },
      "properties": {
        "osm_type": "way",
        "osm_id": 893614540,
        "sido": "전북특별자치도",
        "name": "임실변전소",
        "name_en": "Imsil Substation",
        "substation_type": "distribution",
        "voltage": "154000",
        "frequency": "60",
        "operator": "",
        "location": "outdoor"
      }
    },
    {
      "type": "Feature",
      "geometry": {
        "type": "Point",
        "coordinates": [
          127.3820235,
          35.4394418
        ]
      },
      "properties": {
        "osm_type": "way",
        "osm_id": 893614543,
        "sido": "전북특별자치도",
        "name": "남원변전소",
        "name_en": "Namwon Substation",
        "substation_type": "distribution",
        "voltage": "154000",
        "frequency": "60",
        "operator": "",
        "location": "outdoor"
      }
    },
    {
      "type": "Feature",
      "geometry": {
        "type": "Point",
        "coordinates": [
          126.9012088,
          35.8029947
        ]
      },
      "properties": {
        "osm_type": "way",
        "osm_id": 893614544,
        "sido": "전북특별자치도",
        "name": "김제변전소",
        "name_en": "",
        "substation_type": "distribution",
        "voltage": "154000",
        "frequency": "60",
        "operator": "",
        "location": "indoor"
      }
    },
    {
      "type": "Feature",
      "geometry": {
        "type": "Point",
        "coordinates": [
          126.5415647,
          35.9584797
        ]
      },
      "properties": {
        "osm_type": "way",
        "osm_id": 893614551,
        "sido": "전북특별자치도",
        "name": "군장변전소",
        "name_en": "Gunjang Substation",
        "substation_type": "distribution",
        "voltage": "154000",
        "frequency": "60",
        "operator": "",
        "location": "indoor"
      }
    },
    {
      "type": "Feature",
      "geometry": {
        "type": "Point",
        "coordinates": [
          126.6356774,
          35.9696013
        ]
      },
      "properties": {
        "osm_type": "way",
        "osm_id": 893614558,
        "sido": "전북특별자치도",
        "name": "소룡변전소",
        "name_en": "Soryong Substation",
        "substation_type": "distribution",
        "voltage": "154000",
        "frequency": "60",
        "operator": "",
        "location": "outdoor"
      }
    },
    {
      "type": "Feature",
      "geometry": {
        "type": "Point",
        "coordinates": [
          126.6926462,
          35.4484358
        ]
      },
      "properties": {
        "osm_type": "way",
        "osm_id": 893614560,
        "sido": "전북특별자치도",
        "name": "고창변전소",
        "name_en": "Gojang Substation",
        "substation_type": "distribution",
        "voltage": "154000",
        "frequency": "60",
        "operator": "",
        "location": "outdoor"
      }
    },
    {
      "type": "Feature",
      "geometry": {
        "type": "Point",
        "coordinates": [
          126.8550136,
          35.5882783
        ]
      },
      "properties": {
        "osm_type": "way",
        "osm_id": 893614562,
        "sido": "전북특별자치도",
        "name": "정주변전소",
        "name_en": "Jeongju Substation",
        "substation_type": "distribution",
        "voltage": "154000",
        "frequency": "60",
        "operator": "",
        "location": "outdoor"
      }
    },
    {
      "type": "Feature",
      "geometry": {
        "type": "Point",
        "coordinates": [
          127.133757,
          35.824316
        ]
      },
      "properties": {
        "osm_type": "way",
        "osm_id": 893895772,
        "sido": "전북특별자치도",
        "name": "태평변전소",
        "name_en": "Taepyeong Substation",
        "substation_type": "distribution",
        "voltage": "154000",
        "frequency": "60",
        "operator": "",
        "location": "indoor"
      }
    },
    {
      "type": "Feature",
      "geometry": {
        "type": "Point",
        "coordinates": [
          126.9164661,
          35.6175803
        ]
      },
      "properties": {
        "osm_type": "way",
        "osm_id": 893895858,
        "sido": "전북특별자치도",
        "name": "정공변전소",
        "name_en": "Jeonggong Substation",
        "substation_type": "distribution",
        "voltage": "154000",
        "frequency": "60",
        "operator": "",
        "location": "outdoor"
      }
    },
    {
      "type": "Feature",
      "geometry": {
        "type": "Point",
        "coordinates": [
          127.5181709,
          35.6750364
        ]
      },
      "properties": {
        "osm_type": "way",
        "osm_id": 893895859,
        "sido": "전북특별자치도",
        "name": "장수변전소",
        "name_en": "Jangsu Substation",
        "substation_type": "distribution",
        "voltage": "154000",
        "frequency": "60",
        "operator": "",
        "location": "indoor"
      }
    },
    {
      "type": "Feature",
      "geometry": {
        "type": "Point",
        "coordinates": [
          126.9811186,
          35.9652328
        ]
      },
      "properties": {
        "osm_type": "way",
        "osm_id": 893895864,
        "sido": "전북특별자치도",
        "name": "영등변전소",
        "name_en": "Yeongdeung Substation",
        "substation_type": "distribution",
        "voltage": "154000",
        "frequency": "60",
        "operator": "",
        "location": "indoor"
      }
    },
    {
      "type": "Feature",
      "geometry": {
        "type": "Point",
        "coordinates": [
          127.000172,
          35.9567344
        ]
      },
      "properties": {
        "osm_type": "way",
        "osm_id": 893895865,
        "sido": "전북특별자치도",
        "name": "팔봉변전소",
        "name_en": "Palbong Substation",
        "substation_type": "distribution",
        "voltage": "154000",
        "frequency": "60",
        "operator": "",
        "location": "indoor"
      }
    },
    {
      "type": "Feature",
      "geometry": {
        "type": "Point",
        "coordinates": [
          127.1414562,
          35.941767
        ]
      },
      "properties": {
        "osm_type": "way",
        "osm_id": 893895870,
        "sido": "전북특별자치도",
        "name": "북전주변전소",
        "name_en": "North-Jeonju Substation",
        "substation_type": "distribution",
        "voltage": "154000",
        "frequency": "60",
        "operator": "",
        "location": "outdoor"
      }
    },
    {
      "type": "Feature",
      "geometry": {
        "type": "Point",
        "coordinates": [
          127.121607,
          35.9558525
        ]
      },
      "properties": {
        "osm_type": "way",
        "osm_id": 893895872,
        "sido": "전북특별자치도",
        "name": "봉동변전소",
        "name_en": "",
        "substation_type": "distribution",
        "voltage": "154000",
        "frequency": "60",
        "operator": "",
        "location": "indoor"
      }
    },
    {
      "type": "Feature",
      "geometry": {
        "type": "Point",
        "coordinates": [
          127.0905607,
          35.8463312
        ]
      },
      "properties": {
        "osm_type": "way",
        "osm_id": 894856078,
        "sido": "전북특별자치도",
        "name": "팔복변전소",
        "name_en": "Palbok Substation",
        "substation_type": "distribution",
        "voltage": "154000",
        "frequency": "60",
        "operator": "",
        "location": "indoor"
      }
    },
    {
      "type": "Feature",
      "geometry": {
        "type": "Point",
        "coordinates": [
          126.8841829,
          35.8408626
        ]
      },
      "properties": {
        "osm_type": "way",
        "osm_id": 894856176,
        "sido": "전북특별자치도",
        "name": "백산변전소",
        "name_en": "Baeksan Substation",
        "substation_type": "distribution",
        "voltage": "154000",
        "frequency": "60",
        "operator": "",
        "location": "indoor"
      }
    },
    {
      "type": "Feature",
      "geometry": {
        "type": "Point",
        "coordinates": [
          126.9417888,
          35.9303652
        ]
      },
      "properties": {
        "osm_type": "way",
        "osm_id": 1135323471,
        "sido": "전북특별자치도",
        "name": "익산변전소",
        "name_en": "Iksan Substation",
        "substation_type": "traction",
        "voltage": "154000;55000;27500",
        "frequency": "",
        "operator": "한국철도시설공단",
        "location": "indoor"
      }
    },
    {
      "type": "Feature",
      "geometry": {
        "type": "Point",
        "coordinates": [
          126.955325,
          36.0014071
        ]
      },
      "properties": {
        "osm_type": "way",
        "osm_id": 1135323472,
        "sido": "전북특별자치도",
        "name": "익산병렬급전소",
        "name_en": "Iksan Parallel Post",
        "substation_type": "traction",
        "voltage": "55000;27500",
        "frequency": "",
        "operator": "한국철도시설공단",
        "location": "indoor"
      }
    },
    {
      "type": "Feature",
      "geometry": {
        "type": "Point",
        "coordinates": [
          126.7927423,
          35.4809229
        ]
      },
      "properties": {
        "osm_type": "way",
        "osm_id": 1135323475,
        "sido": "전북특별자치도",
        "name": "노령변전소",
        "name_en": "Noryeong Substation",
        "substation_type": "traction",
        "voltage": "154000;55000;27500",
        "frequency": "",
        "operator": "한국철도시설공단",
        "location": "indoor"
      }
    },
    {
      "type": "Feature",
      "geometry": {
        "type": "Point",
        "coordinates": [
          126.9387148,
          35.8754634
        ]
      },
      "properties": {
        "osm_type": "way",
        "osm_id": 1135323476,
        "sido": "전북특별자치도",
        "name": "공덕병렬급전소",
        "name_en": "Gongdeok Parallel Post",
        "substation_type": "traction",
        "voltage": "55000;27500",
        "frequency": "",
        "operator": "한국철도시설공단",
        "location": "indoor"
      }
    },
    {
      "type": "Feature",
      "geometry": {
        "type": "Point",
        "coordinates": [
          126.8667016,
          35.6127585
        ]
      },
      "properties": {
        "osm_type": "way",
        "osm_id": 1135323477,
        "sido": "전북특별자치도",
        "name": "정우병렬급전소",
        "name_en": "Jeongu Parallel Post",
        "substation_type": "traction",
        "voltage": "55000;27500",
        "frequency": "",
        "operator": "한국철도시설공단",
        "location": "indoor"
      }
    },
    {
      "type": "Feature",
      "geometry": {
        "type": "Point",
        "coordinates": [
          127.0008071,
          36.0744065
        ]
      },
      "properties": {
        "osm_type": "way",
        "osm_id": 1135323479,
        "sido": "전북특별자치도",
        "name": "용기급전구분소",
        "name_en": "Yonggi Sectioning Post",
        "substation_type": "traction",
        "voltage": "55000;27500",
        "frequency": "",
        "operator": "한국철도시설공단",
        "location": "indoor"
      }
    },
    {
      "type": "Feature",
      "geometry": {
        "type": "Point",
        "coordinates": [
          126.8194438,
          35.5388748
        ]
      },
      "properties": {
        "osm_type": "way",
        "osm_id": 1135323480,
        "sido": "전북특별자치도",
        "name": "천원병렬급전소",
        "name_en": "Cheonwon Parallel Post",
        "substation_type": "traction",
        "voltage": "55000;27500",
        "frequency": "",
        "operator": "한국철도시설공단",
        "location": "indoor"
      }
    },
    {
      "type": "Feature",
      "geometry": {
        "type": "Point",
        "coordinates": [
          126.9039555,
          35.697458
        ]
      },
      "properties": {
        "osm_type": "way",
        "osm_id": 1135323482,
        "sido": "전북특별자치도",
        "name": "감곡급전구분소",
        "name_en": "Gamgok Sectioning Post",
        "substation_type": "traction",
        "voltage": "55000;27500",
        "frequency": "",
        "operator": "한국철도시설공단",
        "location": "indoor"
      }
    },
    {
      "type": "Feature",
      "geometry": {
        "type": "Point",
        "coordinates": [
          126.9271822,
          35.7870455
        ]
      },
      "properties": {
        "osm_type": "way",
        "osm_id": 1135323484,
        "sido": "전북특별자치도",
        "name": "김제병렬급전소",
        "name_en": "Gimje Parallel Post",
        "substation_type": "traction",
        "voltage": "55000;27500",
        "frequency": "",
        "operator": "한국철도시설공단",
        "location": "indoor"
      }
    },
    {
      "type": "Feature",
      "geometry": {
        "type": "Point",
        "coordinates": [
          126.8880665,
          35.6685615
        ]
      },
      "properties": {
        "osm_type": "way",
        "osm_id": 1193541784,
        "sido": "전북특별자치도",
        "name": "",
        "name_en": "",
        "substation_type": "traction",
        "voltage": "55000;27500",
        "frequency": "",
        "operator": "",
        "location": ""
      }
    },
    {
      "type": "Feature",
      "geometry": {
        "type": "Point",
        "coordinates": [
          126.8164759,
          35.5219022
        ]
      },
      "properties": {
        "osm_type": "way",
        "osm_id": 1193541785,
        "sido": "전북특별자치도",
        "name": "",
        "name_en": "",
        "substation_type": "traction",
        "voltage": "55000;27500",
        "frequency": "",
        "operator": "",
        "location": ""
      }
    },
    {
      "type": "Feature",
      "geometry": {
        "type": "Point",
        "coordinates": [
          126.9721148,
          36.0960281
        ]
      },
      "properties": {
        "osm_type": "way",
        "osm_id": 1193544277,
        "sido": "전북특별자치도",
        "name": "",
        "name_en": "",
        "substation_type": "traction",
        "voltage": "55000;27500",
        "frequency": "",
        "operator": "",
        "location": ""
      }
    },
    {
      "type": "Feature",
      "geometry": {
        "type": "Point",
        "coordinates": [
          126.9422974,
          36.0156141
        ]
      },
      "properties": {
        "osm_type": "way",
        "osm_id": 1193544278,
        "sido": "전북특별자치도",
        "name": "",
        "name_en": "",
        "substation_type": "traction",
        "voltage": "55000;27500",
        "frequency": "",
        "operator": "",
        "location": ""
      }
    },
    {
      "type": "Feature",
      "geometry": {
        "type": "Point",
        "coordinates": [
          126.9413707,
          35.8480197
        ]
      },
      "properties": {
        "osm_type": "way",
        "osm_id": 1193839753,
        "sido": "전북특별자치도",
        "name": "",
        "name_en": "",
        "substation_type": "traction",
        "voltage": "55000;27500",
        "frequency": "",
        "operator": "",
        "location": ""
      }
    },
    {
      "type": "Feature",
      "geometry": {
        "type": "Point",
        "coordinates": [
          126.9043689,
          35.7523069
        ]
      },
      "properties": {
        "osm_type": "way",
        "osm_id": 1193839754,
        "sido": "전북특별자치도",
        "name": "",
        "name_en": "",
        "substation_type": "traction",
        "voltage": "55000;27500",
        "frequency": "",
        "operator": "",
        "location": ""
      }
    },
    {
      "type": "Feature",
      "geometry": {
        "type": "Point",
        "coordinates": [
          126.8556004,
          35.6077264
        ]
      },
      "properties": {
        "osm_type": "way",
        "osm_id": 1193839755,
        "sido": "전북특별자치도",
        "name": "",
        "name_en": "",
        "substation_type": "traction",
        "voltage": "55000;27500",
        "frequency": "",
        "operator": "",
        "location": ""
      }
    },
    {
      "type": "Feature",
      "geometry": {
        "type": "Point",
        "coordinates": [
          127.2981407,
          35.3621848
        ]
      },
      "properties": {
        "osm_type": "way",
        "osm_id": 1194010881,
        "sido": "전북특별자치도",
        "name": "",
        "name_en": "",
        "substation_type": "traction",
        "voltage": "55000;27500",
        "frequency": "",
        "operator": "",
        "location": ""
      }
    },
    {
      "type": "Feature",
      "geometry": {
        "type": "Point",
        "coordinates": [
          127.3683396,
          35.4333385
        ]
      },
      "properties": {
        "osm_type": "way",
        "osm_id": 1194010882,
        "sido": "전북특별자치도",
        "name": "",
        "name_en": "",
        "substation_type": "traction",
        "voltage": "154000;55000;27500",
        "frequency": "",
        "operator": "",
        "location": ""
      }
    },
    {
      "type": "Feature",
      "geometry": {
        "type": "Point",
        "coordinates": [
          127.31873,
          35.5480851
        ]
      },
      "properties": {
        "osm_type": "way",
        "osm_id": 1194010883,
        "sido": "전북특별자치도",
        "name": "",
        "name_en": "",
        "substation_type": "traction",
        "voltage": "55000;27500",
        "frequency": "",
        "operator": "",
        "location": ""
      }
    },
    {
      "type": "Feature",
      "geometry": {
        "type": "Point",
        "coordinates": [
          127.2821273,
          35.644042
        ]
      },
      "properties": {
        "osm_type": "way",
        "osm_id": 1194010884,
        "sido": "전북특별자치도",
        "name": "",
        "name_en": "",
        "substation_type": "traction",
        "voltage": "55000;27500",
        "frequency": "",
        "operator": "",
        "location": ""
      }
    },
    {
      "type": "Feature",
      "geometry": {
        "type": "Point",
        "coordinates": [
          127.2223113,
          35.7445498
        ]
      },
      "properties": {
        "osm_type": "way",
        "osm_id": 1194010885,
        "sido": "전북특별자치도",
        "name": "",
        "name_en": "",
        "substation_type": "traction",
        "voltage": "55000;27500",
        "frequency": "",
        "operator": "",
        "location": ""
      }
    },
    {
      "type": "Feature",
      "geometry": {
        "type": "Point",
        "coordinates": [
          127.1726087,
          35.8377882
        ]
      },
      "properties": {
        "osm_type": "way",
        "osm_id": 1194010886,
        "sido": "전북특별자치도",
        "name": "",
        "name_en": "",
        "substation_type": "traction",
        "voltage": "55000;27500",
        "frequency": "",
        "operator": "",
        "location": ""
      }
    },
    {
      "type": "Feature",
      "geometry": {
        "type": "Point",
        "coordinates": [
          127.0807111,
          35.8781773
        ]
      },
      "properties": {
        "osm_type": "way",
        "osm_id": 1194010887,
        "sido": "전북특별자치도",
        "name": "",
        "name_en": "",
        "substation_type": "traction",
        "voltage": "55000;27500",
        "frequency": "",
        "operator": "",
        "location": ""
      }
    },
    {
      "type": "Feature",
      "geometry": {
        "type": "Point",
        "coordinates": [
          126.9986115,
          35.9035905
        ]
      },
      "properties": {
        "osm_type": "way",
        "osm_id": 1194010888,
        "sido": "전북특별자치도",
        "name": "",
        "name_en": "",
        "substation_type": "traction",
        "voltage": "55000;27500",
        "frequency": "",
        "operator": "",
        "location": ""
      }
    },
    {
      "type": "Feature",
      "geometry": {
        "type": "Point",
        "coordinates": [
          126.8393697,
          35.9496362
        ]
      },
      "properties": {
        "osm_type": "way",
        "osm_id": 1194010889,
        "sido": "전북특별자치도",
        "name": "",
        "name_en": "",
        "substation_type": "traction",
        "voltage": "55000;27500",
        "frequency": "",
        "operator": "",
        "location": ""
      }
    },
    {
      "type": "Feature",
      "geometry": {
        "type": "Point",
        "coordinates": [
          126.8441079,
          35.9667641
        ]
      },
      "properties": {
        "osm_type": "way",
        "osm_id": 1328396082,
        "sido": "전북특별자치도",
        "name": "",
        "name_en": "",
        "substation_type": "",
        "voltage": "",
        "frequency": "",
        "operator": "",
        "location": ""
      }
    },
    {
      "type": "Feature",
      "geometry": {
        "type": "Point",
        "coordinates": [
          126.98675,
          36.044522
        ]
      },
      "properties": {
        "osm_type": "way",
        "osm_id": 1415840099,
        "sido": "전북특별자치도",
        "name": "",
        "name_en": "",
        "substation_type": "",
        "voltage": "",
        "frequency": "",
        "operator": "",
        "location": ""
      }
    },
    {
      "type": "Feature",
      "geometry": {
        "type": "Point",
        "coordinates": [
          126.6882967,
          35.9644581
        ]
      },
      "properties": {
        "osm_type": "way",
        "osm_id": 1427632426,
        "sido": "전북특별자치도",
        "name": "",
        "name_en": "",
        "substation_type": "",
        "voltage": "",
        "frequency": "",
        "operator": "",
        "location": ""
      }
    }
  ]
}