{
  "type": "FeatureCollection",
  "features": [
    {
      "type": "Feature",
      "geometry": {
        "type": "LineString",
        "coordinates": [
          [
            126.9372689,
            37.6101044
          ],
          [
            126.9376528,
            37.6091195
          ],
          [
            126.9387232,
            37.607296
          ],
          [
            126.9411675,
            37.6068014
          ],
          [
            126.9439316,
            37.6064569
          ],
          [
            126.9471415,
            37.6078103
          ],
          [
            126.9481767,
            37.6084913
          ],
          [
            126.9492414,
            37.6113948
          ],
          [
            126.9494112,
            37.613697
          ],
          [
            126.9477573,
            37.6173622
          ],
          [
            126.9460617,
            37.6213346
          ],
          [
            126.9444158,
            37.6252912
          ],
          [
            126.9431644,
            37.6275699
          ],
          [
            126.9416086,
            37.629315
          ],
          [
            126.940699,
            37.6322311
          ],
          [
            126.9427796,
            37.6362744
          ],
          [
            126.9431528,
            37.6385822
          ],
          [
            126.9425395,
            37.6418665
          ],
          [
            126.9416214,
            37.643721
          ],
          [
            126.9396557,
            37.6463007
          ],
          [
            126.9390182,
            37.6487086
          ],
          [
            126.9384459,
            37.650553
          ],
          [
            126.9362194,
            37.6528382
          ],
          [
            126.9341165,
            37.6546502
          ],
          [
            126.931259,
            37.6571557
          ]
        ]
      },
      "properties": {
        "osm_type": "way",
        "osm_id": 311093791,
        "sido": "서울특별시",
        "power_type": "line",
        "name": "",
        "description": "",
        "voltage": "154000",
        "cables": "6",
        "circuits": "2",
        "frequency": "60",
        "operator": "",
        "wires": ""
      }
    },
    {
      "type": "Feature",
      "geometry": {
        "type": "LineString",
        "coordinates": [
          [
            127.0278092,
            37.6530298
          ],
          [
            127.0263121,
            37.6540236
          ],
          [
            127.0242072,
            37.6545023
          ],
          [
            127.022801,
            37.654884
          ],
          [
            127.0205392,
            37.6564394
          ],
          [
            127.0187967,
            37.658453
          ],
          [
            127.0172178,
            37.6610029
          ],
          [
            127.0153724,
            37.6639519
          ],
          [
            127.015119,
            37.6653465
          ],
          [
            127.0132822,
            37.6679281
          ],
          [
            127.0121788,
            37.6703903
          ],
          [
            127.0103748,
            37.6741213
          ],
          [
            127.0101226,
            37.6742965
          ],
          [
            126.9986536,
            37.6718683
          ],
          [
            126.9938644,
            37.6710583
          ],
          [
            126.9916897,
            37.6706798
          ],
          [
            126.9853255,
            37.6714343
          ],
          [
            126.977172,
            37.6723868
          ],
          [
            126.9749191,
            37.6726365
          ],
          [
            126.9705907,
            37.6731489
          ],
          [
            126.9670077,
            37.673541
          ],
          [
            126.9642673,
            37.6739015
          ],
          [
            126.961985,
            37.6755926
          ],
          [
            126.9599972,
            37.6763853
          ],
          [
            126.9555065,
            37.67758
          ],
          [
            126.9521686,
            37.6768845
          ],
          [
            126.9488831,
            37.6744815
          ],
          [
            126.9480307,
            37.6738972
          ],
          [
            126.9446122,
            37.6689571
          ],
          [
            126.9429572,
            37.6673001
          ],
          [
            126.9400747,
            37.6683522
          ],
          [
            126.9387357,
            37.6696218
          ],
          [
            126.9366748,
            37.6717287
          ],
          [
            126.9346767,
            37.6740502
          ],
          [
            126.9319236,
            37.6771313
          ],
          [
            126.9294298,
            37.6789896
          ],
          [
            126.9271787,
            37.6805529
          ],
          [
            126.9247511,
            37.6823339
          ]
        ]
      },
      "properties": {
        "osm_type": "way",
        "osm_id": 311093792,
        "sido": "서울특별시",
        "power_type": "line",
        "name": "",
        "description": "",
        "voltage": "154000",
        "cables": "6",
        "circuits": "2",
        "frequency": "60",
        "operator": "",
        "wires": ""
      }
    },
    {
      "type": "Feature",
      "geometry": {
        "type": "LineString",
        "coordinates": [
          [
            127.1509063,
            37.5367326
          ],
          [
            127.1510725,
            37.5364713
          ],
          [
            127.1534331,
            37.5349452
          ],
          [
            127.1530086,
            37.5313913
          ],
          [
            127.1534601,
            37.5291422
          ],
          [
            127.1541013,
            37.5289715
          ],
          [
            127.1558277,
            37.5282123
          ],
          [
            127.1576842,
            37.5267275
          ],
          [
            127.1591214,
            37.5253619
          ],
          [
            127.1609083,
            37.524231
          ],
          [
            127.1629172,
            37.5228583
          ],
          [
            127.1644979,
            37.5204719
          ],
          [
            127.1665258,
            37.5173427
          ]
        ]
      },
      "properties": {
        "osm_type": "way",
        "osm_id": 312151270,
        "sido": "서울특별시",
        "power_type": "line",
        "name": "",
        "description": "",
        "voltage": "154000",
        "cables": "6",
        "circuits": "2",
        "frequency": "60",
        "operator": "",
        "wires": ""
      }
    },
    {
      "type": "Feature",
      "geometry": {
        "type": "LineString",
        "coordinates": [
          [
            127.0726202,
            37.7261719
          ],
          [
            127.0725278,
            37.7247516
          ],
          [
            127.0735636,
            37.7217152
          ],
          [
            127.0789777,
            37.7196088
          ],
          [
            127.0835667,
            37.7198039
          ],
          [
            127.086299,
            37.7184919
          ],
          [
            127.086558,
            37.7169738
          ],
          [
            127.0869318,
            37.7147422
          ],
          [
            127.087335,
            37.7125251
          ],
          [
            127.0891124,
            37.7096244
          ],
          [
            127.0925592,
            37.7064927
          ],
          [
            127.0952943,
            37.7038575
          ],
          [
            127.096848,
            37.7016953
          ],
          [
            127.0986605,
            37.6991078
          ],
          [
            127.099353,
            37.6977093
          ],
          [
            127.0992421,
            37.69591
          ],
          [
            127.0991545,
            37.6937151
          ],
          [
            127.096418,
            37.691922
          ],
          [
            127.0929141,
            37.689799
          ],
          [
            127.0914286,
            37.6889062
          ],
          [
            127.0867903,
            37.6877136
          ],
          [
            127.0844881,
            37.6871257
          ],
          [
            127.0817378,
            37.6863639
          ],
          [
            127.0779472,
            37.6866601
          ],
          [
            127.0760683,
            37.6867967
          ],
          [
            127.0746635,
            37.6868876
          ],
          [
            127.0688866,
            37.687922
          ],
          [
            127.0662924,
            37.6884014
          ],
          [
            127.0646523,
            37.6889982
          ],
          [
            127.0631855,
            37.6884513
          ]
        ]
      },
      "properties": {
        "osm_type": "way",
        "osm_id": 312297590,
        "sido": "서울특별시",
        "power_type": "line",
        "name": "",
        "description": "",
        "voltage": "154000",
        "cables": "6",
        "circuits": "2",
        "frequency": "60",
        "operator": "",
        "wires": ""
      }
    },
    {
      "type": "Feature",
      "geometry": {
        "type": "LineString",
        "coordinates": [
          [
            126.9959942,
            37.5236215
          ],
          [
            126.9962688,
            37.5235234
          ],
          [
            126.9981839,
            37.5222483
          ],
          [
            127.0054391,
            37.5169662
          ],
          [
            127.006712,
            37.5160084
          ]
        ]
      },
      "properties": {
        "osm_type": "way",
        "osm_id": 364387194,
        "sido": "서울특별시",
        "power_type": "line",
        "name": "",
        "description": "",
        "voltage": "154000",
        "cables": "6",
        "circuits": "2",
        "frequency": "60",
        "operator": "",
        "wires": ""
      }
    },
    {
      "type": "Feature",
      "geometry": {
        "type": "LineString",
        "coordinates": [
          [
            126.8868316,
            37.5378766
          ],
          [
            126.8859514,
            37.5394389
          ],
          [
            126.8850032,
            37.5412241
          ],
          [
            126.8868282,
            37.5456384
          ],
          [
            126.8919465,
            37.5430082
          ],
          [
            126.8964767,
            37.5447602
          ],
          [
            126.9051404,
            37.5478541
          ],
          [
            126.9069942,
            37.5484957
          ]
        ]
      },
      "properties": {
        "osm_type": "way",
        "osm_id": 373570010,
        "sido": "서울특별시",
        "power_type": "line",
        "name": "",
        "description": "",
        "voltage": "154000",
        "cables": "6",
        "circuits": "2",
        "frequency": "60",
        "operator": "",
        "wires": ""
      }
    },
    {
      "type": "Feature",
      "geometry": {
        "type": "LineString",
        "coordinates": [
          [
            127.1074139,
            37.6354806
          ],
          [
            127.1074654,
            37.6359396
          ],
          [
            127.107473,
            37.6360074
          ],
          [
            127.107585,
            37.6364535
          ],
          [
            127.1076553,
            37.6367338
          ],
          [
            127.1083442,
            37.6382602
          ]
        ]
      },
      "properties": {
        "osm_type": "way",
        "osm_id": 404390308,
        "sido": "서울특별시",
        "power_type": "line",
        "name": "",
        "description": "",
        "voltage": "",
        "cables": "",
        "circuits": "",
        "frequency": "",
        "operator": "",
        "wires": ""
      }
    },
    {
      "type": "Feature",
      "geometry": {
        "type": "LineString",
        "coordinates": [
          [
            127.107585,
            37.6364535
          ],
          [
            127.108224,
            37.6364322
          ]
        ]
      },
      "properties": {
        "osm_type": "way",
        "osm_id": 404390309,
        "sido": "서울특별시",
        "power_type": "line",
        "name": "",
        "description": "",
        "voltage": "",
        "cables": "",
        "circuits": "",
        "frequency": "",
        "operator": "",
        "wires": ""
      }
    },
    {
      "type": "Feature",
      "geometry": {
        "type": "LineString",
        "coordinates": [
          [
            127.1074654,
            37.6359396
          ],
          [
            127.1079289,
            37.6360923
          ],
          [
            127.107585,
            37.6364535
          ]
        ]
      },
      "properties": {
        "osm_type": "way",
        "osm_id": 404390310,
        "sido": "서울특별시",
        "power_type": "line",
        "name": "",
        "description": "",
        "voltage": "",
        "cables": "",
        "circuits": "",
        "frequency": "",
        "operator": "",
        "wires": ""
      }
    },
    {
      "type": "Feature",
      "geometry": {
        "type": "LineString",
        "coordinates": [
          [
            126.8985345,
            37.5896178
          ],
          [
            126.9005137,
            37.5915872
          ],
          [
            126.9002949,
            37.5943322
          ],
          [
            126.9004179,
            37.5964719
          ],
          [
            126.9000124,
            37.5982959
          ],
          [
            126.8995635,
            37.6019566
          ],
          [
            126.89934,
            37.6036723
          ],
          [
            126.8993318,
            37.6060299
          ],
          [
            126.8992867,
            37.6083923
          ],
          [
            126.8992372,
            37.6120568
          ],
          [
            126.8999805,
            37.61365
          ],
          [
            126.9012492,
            37.615596
          ],
          [
            126.9030954,
            37.6181272
          ],
          [
            126.9053966,
            37.6213476
          ],
          [
            126.9054486,
            37.6236384
          ],
          [
            126.9055457,
            37.6251496
          ],
          [
            126.9058069,
            37.6285036
          ],
          [
            126.9051321,
            37.6303356
          ],
          [
            126.9058174,
            37.6328378
          ],
          [
            126.907643,
            37.6385949
          ],
          [
            126.9087605,
            37.6412948
          ],
          [
            126.9099822,
            37.643706
          ]
        ]
      },
      "properties": {
        "osm_type": "way",
        "osm_id": 477629718,
        "sido": "서울특별시",
        "power_type": "line",
        "name": "",
        "description": "",
        "voltage": "154000",
        "cables": "6",
        "circuits": "2",
        "frequency": "60",
        "operator": "",
        "wires": ""
      }
    },
    {
      "type": "Feature",
      "geometry": {
        "type": "LineString",
        "coordinates": [
          [
            126.8477985,
            37.4597431
          ],
          [
            126.8441293,
            37.4620191
          ],
          [
            126.8413505,
            37.4624214
          ],
          [
            126.8378422,
            37.4628462
          ],
          [
            126.8361041,
            37.4631304
          ],
          [
            126.835574,
            37.46564
          ],
          [
            126.835058,
            37.4680823
          ],
          [
            126.834586,
            37.4704304
          ],
          [
            126.8339127,
            37.4736618
          ],
          [
            126.8332449,
            37.4768782
          ],
          [
            126.8335319,
            37.4791515
          ],
          [
            126.8333924,
            37.4811948
          ],
          [
            126.8345618,
            37.484015
          ],
          [
            126.8334782,
            37.4855198
          ],
          [
            126.8278053,
            37.4883525
          ],
          [
            126.8265939,
            37.4889671
          ],
          [
            126.8232831,
            37.4906468
          ],
          [
            126.8231879,
            37.4908702
          ]
        ]
      },
      "properties": {
        "osm_type": "way",
        "osm_id": 520038086,
        "sido": "서울특별시",
        "power_type": "line",
        "name": "",
        "description": "",
        "voltage": "154000",
        "cables": "6",
        "circuits": "2",
        "frequency": "60",
        "operator": "",
        "wires": ""
      }
    },
    {
      "type": "Feature",
      "geometry": {
        "type": "LineString",
        "coordinates": [
          [
            126.8844069,
            37.5756635
          ],
          [
            126.8817544,
            37.5736448
          ],
          [
            126.8802154,
            37.5719485
          ],
          [
            126.877477,
            37.5690479
          ],
          [
            126.8749756,
            37.5660872
          ],
          [
            126.8684623,
            37.5587477
          ],
          [
            126.8676389,
            37.5572077
          ]
        ]
      },
      "properties": {
        "osm_type": "way",
        "osm_id": 766665976,
        "sido": "서울특별시",
        "power_type": "line",
        "name": "154kV상암-등촌T/L",
        "description": "",
        "voltage": "154000",
        "cables": "6",
        "circuits": "2",
        "frequency": "60",
        "operator": "한국전력공사 서울본부",
        "wires": ""
      }
    },
    {
      "type": "Feature",
      "geometry": {
        "type": "LineString",
        "coordinates": [
          [
            126.8962604,
            37.4463556
          ],
          [
            126.8949803,
            37.449172
          ]
        ]
      },
      "properties": {
        "osm_type": "way",
        "osm_id": 1024859655,
        "sido": "서울특별시",
        "power_type": "line",
        "name": "",
        "description": "",
        "voltage": "154000",
        "cables": "9",
        "circuits": "3",
        "frequency": "60",
        "operator": "",
        "wires": ""
      }
    },
    {
      "type": "Feature",
      "geometry": {
        "type": "LineString",
        "coordinates": [
          [
            126.8969156,
            37.449765
          ],
          [
            126.8962095,
            37.4494663
          ],
          [
            126.8949803,
            37.449172
          ]
        ]
      },
      "properties": {
        "osm_type": "way",
        "osm_id": 1024859657,
        "sido": "서울특별시",
        "power_type": "line",
        "name": "",
        "description": "",
        "voltage": "154000",
        "cables": "6",
        "circuits": "2",
        "frequency": "60",
        "operator": "",
        "wires": ""
      }
    },
    {
      "type": "Feature",
      "geometry": {
        "type": "LineString",
        "coordinates": [
          [
            126.8968554,
            37.4498846
          ],
          [
            126.8960937,
            37.4497236
          ],
          [
            126.8949803,
            37.449172
          ]
        ]
      },
      "properties": {
        "osm_type": "way",
        "osm_id": 1024859658,
        "sido": "서울특별시",
        "power_type": "line",
        "name": "",
        "description": "",
        "voltage": "154000",
        "cables": "3",
        "circuits": "1",
        "frequency": "60",
        "operator": "",
        "wires": ""
      }
    },
    {
      "type": "Feature",
      "geometry": {
        "type": "LineString",
        "coordinates": [
          [
            126.9840483,
            37.4756934
          ],
          [
            126.9840169,
            37.475565
          ],
          [
            126.9845318,
            37.4753066
          ],
          [
            126.9858308,
            37.4745911
          ],
          [
            126.9868149,
            37.473642
          ],
          [
            126.9869985,
            37.4721514
          ],
          [
            126.9922032,
            37.469842
          ],
          [
            126.9948962,
            37.468222
          ],
          [
            126.9975111,
            37.4681399
          ],
          [
            127.0017807,
            37.4704987
          ],
          [
            127.0037728,
            37.4724232
          ],
          [
            127.0060219,
            37.4737456
          ],
          [
            127.0076081,
            37.474068
          ],
          [
            127.0091923,
            37.4748265
          ],
          [
            127.0110945,
            37.4756284
          ],
          [
            127.0126649,
            37.4754291
          ],
          [
            127.0167669,
            37.4756489
          ],
          [
            127.0198413,
            37.4756728
          ],
          [
            127.0229254,
            37.4757491
          ],
          [
            127.0248279,
            37.475814
          ],
          [
            127.0248476,
            37.4772228
          ],
          [
            127.0245618,
            37.4776537
          ]
        ]
      },
      "properties": {
        "osm_type": "way",
        "osm_id": 1047410804,
        "sido": "서울특별시",
        "power_type": "line",
        "name": "",
        "description": "",
        "voltage": "154000",
        "cables": "6",
        "circuits": "2",
        "frequency": "60",
        "operator": "",
        "wires": ""
      }
    },
    {
      "type": "Feature",
      "geometry": {
        "type": "LineString",
        "coordinates": [
          [
            126.8953436,
            37.5951058
          ],
          [
            126.896407,
            37.5932074
          ],
          [
            126.8985345,
            37.5896178
          ]
        ]
      },
      "properties": {
        "osm_type": "way",
        "osm_id": 1064801829,
        "sido": "서울특별시",
        "power_type": "line",
        "name": "",
        "description": "",
        "voltage": "154000",
        "cables": "6",
        "circuits": "2",
        "frequency": "60",
        "operator": "",
        "wires": ""
      }
    },
    {
      "type": "Feature",
      "geometry": {
        "type": "LineString",
        "coordinates": [
          [
            126.8989582,
            37.5830615
          ],
          [
            126.8996529,
            37.5832376
          ],
          [
            126.9012049,
            37.5852603
          ],
          [
            126.9030218,
            37.5877265
          ],
          [
            126.9007283,
            37.5892634
          ],
          [
            126.8985345,
            37.5896178
          ]
        ]
      },
      "properties": {
        "osm_type": "way",
        "osm_id": 1095918279,
        "sido": "서울특별시",
        "power_type": "line",
        "name": "",
        "description": "",
        "voltage": "154000",
        "cables": "12",
        "circuits": "4",
        "frequency": "60",
        "operator": "",
        "wires": ""
      }
    },
    {
      "type": "Feature",
      "geometry": {
        "type": "LineString",
        "coordinates": [
          [
            127.056082,
            37.6975508
          ],
          [
            127.0569294,
            37.6960658
          ],
          [
            127.0590305,
            37.6920321
          ],
          [
            127.0593846,
            37.6910116
          ],
          [
            127.0655473,
            37.6877833
          ],
          [
            127.0706711,
            37.6851582
          ],
          [
            127.0737595,
            37.6834863
          ],
          [
            127.0755323,
            37.6830318
          ],
          [
            127.0848309,
            37.6806396
          ],
          [
            127.092059,
            37.6785886
          ],
          [
            127.094709,
            37.6768809
          ],
          [
            127.0963789,
            37.6771115
          ],
          [
            127.0996729,
            37.6767707
          ],
          [
            127.1017366,
            37.6755742
          ]
        ]
      },
      "properties": {
        "osm_type": "way",
        "osm_id": 1095918289,
        "sido": "서울특별시",
        "power_type": "line",
        "name": "",
        "description": "",
        "voltage": "154000",
        "cables": "6",
        "circuits": "2",
        "frequency": "60",
        "operator": "",
        "wires": ""
      }
    },
    {
      "type": "Feature",
      "geometry": {
        "type": "LineString",
        "coordinates": [
          [
            127.0993146,
            37.5463292
          ],
          [
            127.0992593,
            37.546402
          ],
          [
            127.0986162,
            37.5475712
          ],
          [
            127.0994456,
            37.5493305
          ],
          [
            127.1006096,
            37.5495097
          ],
          [
            127.1014642,
            37.5503909
          ],
          [
            127.1029858,
            37.5538001
          ],
          [
            127.1012041,
            37.5573095
          ],
          [
            127.0990252,
            37.5599178
          ],
          [
            127.0981154,
            37.5609112
          ],
          [
            127.0936141,
            37.5643808
          ],
          [
            127.0919988,
            37.5648078
          ],
          [
            127.0916213,
            37.5655694
          ]
        ]
      },
      "properties": {
        "osm_type": "way",
        "osm_id": 1101878221,
        "sido": "서울특별시",
        "power_type": "line",
        "name": "",
        "description": "",
        "voltage": "154000",
        "cables": "6",
        "circuits": "2",
        "frequency": "60",
        "operator": "",
        "wires": ""
      }
    },
    {
      "type": "Feature",
      "geometry": {
        "type": "LineString",
        "coordinates": [
          [
            127.0916213,
            37.5655694
          ],
          [
            127.0900392,
            37.5650185
          ]
        ]
      },
      "properties": {
        "osm_type": "way",
        "osm_id": 1101878222,
        "sido": "서울특별시",
        "power_type": "line",
        "name": "",
        "description": "",
        "voltage": "154000",
        "cables": "6",
        "circuits": "2",
        "frequency": "60",
        "operator": "",
        "wires": ""
      }
    },
    {
      "type": "Feature",
      "geometry": {
        "type": "LineString",
        "coordinates": [
          [
            127.0916213,
            37.5655694
          ],
          [
            127.0939696,
            37.5668984
          ],
          [
            127.0962394,
            37.5680455
          ],
          [
            127.0999329,
            37.5698973
          ],
          [
            127.1033736,
            37.5720338
          ],
          [
            127.1069097,
            37.5743377
          ],
          [
            127.1099809,
            37.5781609
          ],
          [
            127.1125885,
            37.5793221
          ],
          [
            127.1170385,
            37.5806479
          ],
          [
            127.1219776,
            37.5793122
          ],
          [
            127.1242533,
            37.5781334
          ],
          [
            127.1274976,
            37.5783729
          ],
          [
            127.1302208,
            37.5790576
          ],
          [
            127.1321984,
            37.5792326
          ],
          [
            127.1344329,
            37.5794117
          ],
          [
            127.136627,
            37.5795673
          ],
          [
            127.1388969,
            37.5797744
          ],
          [
            127.1410057,
            37.5799028
          ],
          [
            127.1430233,
            37.5797747
          ],
          [
            127.1452958,
            37.5794707
          ],
          [
            127.1469356,
            37.5792935
          ],
          [
            127.1487668,
            37.5790629
          ],
          [
            127.1505508,
            37.5788573
          ],
          [
            127.1516089,
            37.578484
          ],
          [
            127.1536924,
            37.5782412
          ],
          [
            127.1547566,
            37.5783227
          ],
          [
            127.1584026,
            37.5806102
          ],
          [
            127.1608614,
            37.5820693
          ],
          [
            127.1617934,
            37.5853401
          ],
          [
            127.1621595,
            37.587545
          ],
          [
            127.1657306,
            37.590433
          ]
        ]
      },
      "properties": {
        "osm_type": "way",
        "osm_id": 1101878223,
        "sido": "서울특별시",
        "power_type": "line",
        "name": "",
        "description": "",
        "voltage": "154000",
        "cables": "6",
        "circuits": "2",
        "frequency": "60",
        "operator": "",
        "wires": ""
      }
    },
    {
      "type": "Feature",
      "geometry": {
        "type": "LineString",
        "coordinates": [
          [
            127.0587332,
            37.6279036
          ],
          [
            127.0588818,
            37.6275862
          ],
          [
            127.0594443,
            37.6279365
          ],
          [
            127.0598686,
            37.6288427
          ],
          [
            127.0593579,
            37.6298836
          ],
          [
            127.0590759,
            37.6312795
          ],
          [
            127.0590498,
            37.6327854
          ],
          [
            127.0591485,
            37.6348296
          ],
          [
            127.0587226,
            37.6386431
          ],
          [
            127.0565213,
            37.6413669
          ],
          [
            127.0570607,
            37.6446082
          ],
          [
            127.0564442,
            37.6469685
          ],
          [
            127.055638,
            37.6491559
          ],
          [
            127.055113,
            37.6512518
          ],
          [
            127.0553724,
            37.6541679
          ]
        ]
      },
      "properties": {
        "osm_type": "way",
        "osm_id": 1102290944,
        "sido": "서울특별시",
        "power_type": "line",
        "name": "",
        "description": "",
        "voltage": "154000",
        "cables": "6",
        "circuits": "2",
        "frequency": "60",
        "operator": "",
        "wires": ""
      }
    },
    {
      "type": "Feature",
      "geometry": {
        "type": "LineString",
        "coordinates": [
          [
            127.0553724,
            37.6541679
          ],
          [
            127.0555346,
            37.6541992
          ]
        ]
      },
      "properties": {
        "osm_type": "way",
        "osm_id": 1102290945,
        "sido": "서울특별시",
        "power_type": "line",
        "name": "",
        "description": "",
        "voltage": "154000",
        "cables": "6",
        "circuits": "2",
        "frequency": "60",
        "operator": "",
        "wires": ""
      }
    },
    {
      "type": "Feature",
      "geometry": {
        "type": "LineString",
        "coordinates": [
          [
            127.0553724,
            37.6541679
          ],
          [
            127.0553066,
            37.6551343
          ],
          [
            127.0543081,
            37.6575687
          ],
          [
            127.0528894,
            37.6606633
          ],
          [
            127.0520087,
            37.6639377
          ],
          [
            127.0514774,
            37.6655226
          ],
          [
            127.0502014,
            37.6684673
          ],
          [
            127.0501112,
            37.6701057
          ]
        ]
      },
      "properties": {
        "osm_type": "way",
        "osm_id": 1102290946,
        "sido": "서울특별시",
        "power_type": "line",
        "name": "",
        "description": "",
        "voltage": "154000",
        "cables": "6",
        "circuits": "2",
        "frequency": "60",
        "operator": "",
        "wires": ""
      }
    },
    {
      "type": "Feature",
      "geometry": {
        "type": "LineString",
        "coordinates": [
          [
            127.0631855,
            37.6884513
          ],
          [
            127.0609183,
            37.6893887
          ],
          [
            127.0591555,
            37.6904765
          ],
          [
            127.0583226,
            37.6916338
          ],
          [
            127.0576564,
            37.6938944
          ],
          [
            127.0568312,
            37.6958955
          ],
          [
            127.0557172,
            37.6973932
          ]
        ]
      },
      "properties": {
        "osm_type": "way",
        "osm_id": 1102290948,
        "sido": "서울특별시",
        "power_type": "line",
        "name": "",
        "description": "",
        "voltage": "154000",
        "cables": "6",
        "circuits": "2",
        "frequency": "60",
        "operator": "",
        "wires": ""
      }
    },
    {
      "type": "Feature",
      "geometry": {
        "type": "LineString",
        "coordinates": [
          [
            127.0631855,
            37.6884513
          ],
          [
            127.0627803,
            37.6867073
          ],
          [
            127.0629948,
            37.6836523
          ],
          [
            127.0635602,
            37.6801344
          ],
          [
            127.0634755,
            37.6789388
          ],
          [
            127.0625786,
            37.6760764
          ],
          [
            127.0618715,
            37.6737165
          ]
        ]
      },
      "properties": {
        "osm_type": "way",
        "osm_id": 1102290949,
        "sido": "서울특별시",
        "power_type": "line",
        "name": "",
        "description": "",
        "voltage": "154000",
        "cables": "6",
        "circuits": "2",
        "frequency": "60",
        "operator": "",
        "wires": ""
      }
    },
    {
      "type": "Feature",
      "geometry": {
        "type": "LineString",
        "coordinates": [
          [
            127.0806441,
            37.5021265
          ],
          [
            127.0804557,
            37.5016867
          ],
          [
            127.0822437,
            37.499508
          ],
          [
            127.0855208,
            37.4985808
          ],
          [
            127.0887049,
            37.4975255
          ],
          [
            127.0919247,
            37.4964263
          ],
          [
            127.0952023,
            37.4953406
          ],
          [
            127.0981119,
            37.4941096
          ],
          [
            127.0995913,
            37.4935245
          ],
          [
            127.1028709,
            37.492006
          ],
          [
            127.1057126,
            37.4898461
          ],
          [
            127.1070968,
            37.4882113
          ],
          [
            127.1084152,
            37.486596
          ],
          [
            127.1090671,
            37.4856945
          ],
          [
            127.1104507,
            37.4839328
          ],
          [
            127.1116708,
            37.4823423
          ],
          [
            127.1130902,
            37.4804176
          ],
          [
            127.1146639,
            37.4781998
          ],
          [
            127.1179564,
            37.4772377
          ],
          [
            127.1190322,
            37.4769198
          ]
        ]
      },
      "properties": {
        "osm_type": "way",
        "osm_id": 1103145041,
        "sido": "서울특별시",
        "power_type": "line",
        "name": "",
        "description": "",
        "voltage": "154000",
        "cables": "6",
        "circuits": "2",
        "frequency": "60",
        "operator": "",
        "wires": ""
      }
    },
    {
      "type": "Feature",
      "geometry": {
        "type": "LineString",
        "coordinates": [
          [
            127.1084152,
            37.486596
          ],
          [
            127.1077832,
            37.4860076
          ]
        ]
      },
      "properties": {
        "osm_type": "way",
        "osm_id": 1103145042,
        "sido": "서울특별시",
        "power_type": "line",
        "name": "",
        "description": "",
        "voltage": "154000",
        "cables": "3",
        "circuits": "1",
        "frequency": "60",
        "operator": "",
        "wires": ""
      }
    },
    {
      "type": "Feature",
      "geometry": {
        "type": "LineString",
        "coordinates": [
          [
            127.1090671,
            37.4856945
          ],
          [
            127.1078674,
            37.4858271
          ]
        ]
      },
      "properties": {
        "osm_type": "way",
        "osm_id": 1103145043,
        "sido": "서울특별시",
        "power_type": "line",
        "name": "",
        "description": "",
        "voltage": "154000",
        "cables": "3",
        "circuits": "1",
        "frequency": "60",
        "operator": "",
        "wires": ""
      }
    },
    {
      "type": "Feature",
      "geometry": {
        "type": "LineString",
        "coordinates": [
          [
            126.8954097,
            37.4461809
          ],
          [
            126.8962604,
            37.4463556
          ]
        ]
      },
      "properties": {
        "osm_type": "way",
        "osm_id": 1103145044,
        "sido": "서울특별시",
        "power_type": "line",
        "name": "",
        "description": "",
        "voltage": "154000",
        "cables": "6",
        "circuits": "2",
        "frequency": "60",
        "operator": "",
        "wires": ""
      }
    },
    {
      "type": "Feature",
      "geometry": {
        "type": "LineString",
        "coordinates": [
          [
            126.8962604,
            37.4463556
          ],
          [
            126.8970936,
            37.4438669
          ]
        ]
      },
      "properties": {
        "osm_type": "way",
        "osm_id": 1103145045,
        "sido": "서울특별시",
        "power_type": "line",
        "name": "",
        "description": "",
        "voltage": "154000",
        "cables": "3",
        "circuits": "1",
        "frequency": "60",
        "operator": "",
        "wires": ""
      }
    },
    {
      "type": "Feature",
      "geometry": {
        "type": "LineString",
        "coordinates": [
          [
            126.9138483,
            37.6461365
          ],
          [
            126.9099822,
            37.643706
          ]
        ]
      },
      "properties": {
        "osm_type": "way",
        "osm_id": 1105758054,
        "sido": "서울특별시",
        "power_type": "line",
        "name": "",
        "description": "",
        "voltage": "154000",
        "cables": "6",
        "circuits": "2",
        "frequency": "60",
        "operator": "",
        "wires": ""
      }
    }
  ]
}