{
  "type": "FeatureCollection",
  "features": [
    {
      "type": "Feature",
      "geometry": {
        "type": "Point",
        "coordinates": [
          127.0643924,
          37.5471772
        ]
      },
      "properties": {
        "osm_type": "node",
        "osm_id": 10083186315,
        "sido": "서울특별시",
        "name": "성수변전소",
        "name_en": "Seongsu Substation",
        "substation_type": "industrial",
        "voltage": "",
        "frequency": "",
        "operator": "서울교통공사",
        "location": ""
      }
    },
    {
      "type": "Feature",
      "geometry": {
        "type": "Point",
        "coordinates": [
          127.0844515,
          37.5667664
        ]
      },
      "properties": {
        "osm_type": "node",
        "osm_id": 10083209039,
        "sido": "서울특별시",
        "name": "화양변전소",
        "name_en": "Hwayang Substation",
        "substation_type": "distribution",
        "voltage": "154000",
        "frequency": "60",
        "operator": "한국전력공사",
        "location": ""
      }
    },
    {
      "type": "Feature",
      "geometry": {
        "type": "Point",
        "coordinates": [
          127.0956959,
          37.5358559
        ]
      },
      "properties": {
        "osm_type": "node",
        "osm_id": 10083209052,
        "sido": "서울특별시",
        "name": "구의변전소",
        "name_en": "Guui Substation",
        "substation_type": "distribution",
        "voltage": "154000",
        "frequency": "60",
        "operator": "한국전력공사",
        "location": ""
      }
    },
    {
      "type": "Feature",
      "geometry": {
        "type": "Point",
        "coordinates": [
          127.0341401,
          37.5196202
        ]
      },
      "properties": {
        "osm_type": "node",
        "osm_id": 10083512808,
        "sido": "서울특별시",
        "name": "논현변전소",
        "name_en": "Nonhyeon Substation",
        "substation_type": "distribution",
        "voltage": "154000",
        "frequency": "",
        "operator": "한국전력공사",
        "location": "indoor"
      }
    },
    {
      "type": "Feature",
      "geometry": {
        "type": "Point",
        "coordinates": [
          127.0225828,
          37.5116784
        ]
      },
      "properties": {
        "osm_type": "node",
        "osm_id": 10083524125,
        "sido": "서울특별시",
        "name": "논일변전소",
        "name_en": "Nonil Substation",
        "substation_type": "distribution",
        "voltage": "154000",
        "frequency": "",
        "operator": "한국전력공사",
        "location": "indoor"
      }
    },
    {
      "type": "Feature",
      "geometry": {
        "type": "Point",
        "coordinates": [
          127.0362684,
          37.5001495
        ]
      },
      "properties": {
        "osm_type": "node",
        "osm_id": 10083524126,
        "sido": "서울특별시",
        "name": "역삼변전소",
        "name_en": "Yeoksam Substation",
        "substation_type": "distribution",
        "voltage": "154000",
        "frequency": "",
        "operator": "한국전력공사",
        "location": "indoor"
      }
    },
    {
      "type": "Feature",
      "geometry": {
        "type": "Point",
        "coordinates": [
          127.0581983,
          37.5114431
        ]
      },
      "properties": {
        "osm_type": "node",
        "osm_id": 10083524127,
        "sido": "서울특별시",
        "name": "선릉변전소",
        "name_en": "Seolleung Substation",
        "substation_type": "distribution",
        "voltage": "154000",
        "frequency": "",
        "operator": "한국전력공사",
        "location": "indoor"
      }
    },
    {
      "type": "Feature",
      "geometry": {
        "type": "Point",
        "coordinates": [
          127.0273459,
          37.4853239
        ]
      },
      "properties": {
        "osm_type": "node",
        "osm_id": 10083524140,
        "sido": "서울특별시",
        "name": "양지변전소",
        "name_en": "Yangji Substation",
        "substation_type": "distribution",
        "voltage": "154000",
        "frequency": "",
        "operator": "한국전력공사",
        "location": "indoor"
      }
    },
    {
      "type": "Feature",
      "geometry": {
        "type": "Point",
        "coordinates": [
          127.0124603,
          37.4941631
        ]
      },
      "properties": {
        "osm_type": "node",
        "osm_id": 10083524141,
        "sido": "서울특별시",
        "name": "서초변전소",
        "name_en": "Seocho Substation",
        "substation_type": "distribution",
        "voltage": "154000",
        "frequency": "",
        "operator": "한국전력공사",
        "location": "indoor"
      }
    },
    {
      "type": "Feature",
      "geometry": {
        "type": "Point",
        "coordinates": [
          127.0541016,
          37.4883083
        ]
      },
      "properties": {
        "osm_type": "node",
        "osm_id": 10083524142,
        "sido": "서울특별시",
        "name": "도곡변전소",
        "name_en": "Dogok Substation",
        "substation_type": "distribution",
        "voltage": "154000",
        "frequency": "",
        "operator": "한국전력공사",
        "location": "indoor"
      }
    },
    {
      "type": "Feature",
      "geometry": {
        "type": "Point",
        "coordinates": [
          127.0123696,
          37.4858239
        ]
      },
      "properties": {
        "osm_type": "node",
        "osm_id": 10083524143,
        "sido": "서울특별시",
        "name": "교대변전소",
        "name_en": "Gyodae Substation",
        "substation_type": "distribution",
        "voltage": "154000",
        "frequency": "",
        "operator": "한국전력공사",
        "location": "indoor"
      }
    },
    {
      "type": "Feature",
      "geometry": {
        "type": "Point",
        "coordinates": [
          127.0563712,
          37.5060546
        ]
      },
      "properties": {
        "osm_type": "node",
        "osm_id": 10083524144,
        "sido": "서울특별시",
        "name": "대치변전소",
        "name_en": "Daechi Substation",
        "substation_type": "distribution",
        "voltage": "154000",
        "frequency": "",
        "operator": "한국전력공사",
        "location": "indoor"
      }
    },
    {
      "type": "Feature",
      "geometry": {
        "type": "Point",
        "coordinates": [
          127.1184572,
          37.4947762
        ]
      },
      "properties": {
        "osm_type": "node",
        "osm_id": 10083524155,
        "sido": "서울특별시",
        "name": "가락변전소",
        "name_en": "Garak Substation",
        "substation_type": "distribution",
        "voltage": "154000",
        "frequency": "",
        "operator": "한국전력공사",
        "location": "indoor"
      }
    },
    {
      "type": "Feature",
      "geometry": {
        "type": "Point",
        "coordinates": [
          127.1338112,
          37.5467942
        ]
      },
      "properties": {
        "osm_type": "node",
        "osm_id": 10083524156,
        "sido": "서울특별시",
        "name": "천호변전소",
        "name_en": "Cheonho Substation",
        "substation_type": "distribution",
        "voltage": "154000",
        "frequency": "",
        "operator": "한국전력공사",
        "location": "indoor"
      }
    },
    {
      "type": "Feature",
      "geometry": {
        "type": "Point",
        "coordinates": [
          127.1124893,
          37.526741
        ]
      },
      "properties": {
        "osm_type": "node",
        "osm_id": 10083524157,
        "sido": "서울특별시",
        "name": "풍납변전소",
        "name_en": "Pungnap Substation",
        "substation_type": "distribution",
        "voltage": "154000",
        "frequency": "",
        "operator": "한국전력공사",
        "location": "underground"
      }
    },
    {
      "type": "Feature",
      "geometry": {
        "type": "Point",
        "coordinates": [
          126.8979988,
          37.4725687
        ]
      },
      "properties": {
        "osm_type": "node",
        "osm_id": 10083603126,
        "sido": "서울특별시",
        "name": "독산변전소",
        "name_en": "Doksan Substation",
        "substation_type": "distribution",
        "voltage": "154000",
        "frequency": "",
        "operator": "한국전력공사",
        "location": "indoor"
      }
    },
    {
      "type": "Feature",
      "geometry": {
        "type": "Point",
        "coordinates": [
          126.9515358,
          37.4819792
        ]
      },
      "properties": {
        "osm_type": "node",
        "osm_id": 10083603139,
        "sido": "서울특별시",
        "name": "봉천변전소",
        "name_en": "Bongcheon Substation",
        "substation_type": "distribution",
        "voltage": "154000",
        "frequency": "",
        "operator": "한국전력공사",
        "location": "indoor"
      }
    },
    {
      "type": "Feature",
      "geometry": {
        "type": "Point",
        "coordinates": [
          126.9090554,
          37.5006803
        ]
      },
      "properties": {
        "osm_type": "node",
        "osm_id": 10084423765,
        "sido": "서울특별시",
        "name": "대림변전소",
        "name_en": "Daelim Substation",
        "substation_type": "distribution",
        "voltage": "154000",
        "frequency": "",
        "operator": "한국전력공사",
        "location": "underground"
      }
    },
    {
      "type": "Feature",
      "geometry": {
        "type": "Point",
        "coordinates": [
          126.821286,
          37.5563331
        ]
      },
      "properties": {
        "osm_type": "node",
        "osm_id": 10084431449,
        "sido": "서울특별시",
        "name": "마곡변전소",
        "name_en": "Magok Substation",
        "substation_type": "distribution",
        "voltage": "154000",
        "frequency": "",
        "operator": "한국전력공사",
        "location": "underground"
      }
    },
    {
      "type": "Feature",
      "geometry": {
        "type": "Point",
        "coordinates": [
          126.8650558,
          37.551426
        ]
      },
      "properties": {
        "osm_type": "node",
        "osm_id": 10086055893,
        "sido": "서울특별시",
        "name": "등촌변전소",
        "name_en": "Deungchon Substation",
        "substation_type": "distribution",
        "voltage": "154000",
        "frequency": "",
        "operator": "한국전력공사",
        "location": "indoor"
      }
    },
    {
      "type": "Feature",
      "geometry": {
        "type": "Point",
        "coordinates": [
          126.9713022,
          37.5608054
        ]
      },
      "properties": {
        "osm_type": "node",
        "osm_id": 10086100440,
        "sido": "서울특별시",
        "name": "순화변전소",
        "name_en": "Sunhwa Substation",
        "substation_type": "distribution",
        "voltage": "154000",
        "frequency": "",
        "operator": "한국전력공사",
        "location": "indoor"
      }
    },
    {
      "type": "Feature",
      "geometry": {
        "type": "Point",
        "coordinates": [
          126.9230994,
          37.6038632
        ]
      },
      "properties": {
        "osm_type": "node",
        "osm_id": 10086100515,
        "sido": "서울특별시",
        "name": "녹번변전소",
        "name_en": "Nokbeon Substation",
        "substation_type": "distribution",
        "voltage": "154000",
        "frequency": "",
        "operator": "한국전력공사",
        "location": "indoor"
      }
    },
    {
      "type": "Feature",
      "geometry": {
        "type": "Point",
        "coordinates": [
          127.0275647,
          37.4852226
        ]
      },
      "properties": {
        "osm_type": "node",
        "osm_id": 10086523340,
        "sido": "서울특별시",
        "name": "신양재변전소",
        "name_en": "Shin-Yangjae Substation",
        "substation_type": "transmission",
        "voltage": "345000",
        "frequency": "",
        "operator": "한국전력공사",
        "location": "indoor"
      }
    },
    {
      "type": "Feature",
      "geometry": {
        "type": "Point",
        "coordinates": [
          126.9214323,
          37.5156285
        ]
      },
      "properties": {
        "osm_type": "node",
        "osm_id": 10086523403,
        "sido": "서울특별시",
        "name": "노들변전소",
        "name_en": "Nodeul Substation",
        "substation_type": "distribution",
        "voltage": "154000",
        "frequency": "",
        "operator": "한국전력공사",
        "location": "indoor"
      }
    },
    {
      "type": "Feature",
      "geometry": {
        "type": "Point",
        "coordinates": [
          126.9060309,
          37.5219607
        ]
      },
      "properties": {
        "osm_type": "node",
        "osm_id": 10088342981,
        "sido": "서울특별시",
        "name": "영오변전소",
        "name_en": "Yeongoh Substation",
        "substation_type": "distribution",
        "voltage": "154000",
        "frequency": "",
        "operator": "한국전력공사",
        "location": "indoor"
      }
    },
    {
      "type": "Feature",
      "geometry": {
        "type": "Point",
        "coordinates": [
          126.9302604,
          37.5277577
        ]
      },
      "properties": {
        "osm_type": "node",
        "osm_id": 10088342991,
        "sido": "서울특별시",
        "name": "여의변전소",
        "name_en": "Yeoui Substation",
        "substation_type": "distribution",
        "voltage": "154000",
        "frequency": "",
        "operator": "한국전력공사",
        "location": "indoor"
      }
    },
    {
      "type": "Feature",
      "geometry": {
        "type": "Point",
        "coordinates": [
          126.9465674,
          37.5420315
        ]
      },
      "properties": {
        "osm_type": "node",
        "osm_id": 10088342992,
        "sido": "서울특별시",
        "name": "마포변전소",
        "name_en": "Mapo Substation",
        "substation_type": "distribution",
        "voltage": "154000",
        "frequency": "",
        "operator": "한국전력공사",
        "location": "indoor"
      }
    },
    {
      "type": "Feature",
      "geometry": {
        "type": "Point",
        "coordinates": [
          127.080461,
          37.5928015
        ]
      },
      "properties": {
        "osm_type": "node",
        "osm_id": 10088342993,
        "sido": "서울특별시",
        "name": "상봉변전소",
        "name_en": "Sangbong Substation",
        "substation_type": "distribution",
        "voltage": "154000",
        "frequency": "",
        "operator": "한국전력공사",
        "location": "indoor"
      }
    },
    {
      "type": "Feature",
      "geometry": {
        "type": "Point",
        "coordinates": [
          127.0823098,
          37.6467312
        ]
      },
      "properties": {
        "osm_type": "node",
        "osm_id": 10088375442,
        "sido": "서울특별시",
        "name": "중계변전소",
        "name_en": "Junggye Substation",
        "substation_type": "distribution",
        "voltage": "154000",
        "frequency": "",
        "operator": "한국전력공사",
        "location": "indoor"
      }
    },
    {
      "type": "Feature",
      "geometry": {
        "type": "Point",
        "coordinates": [
          127.1045611,
          37.5137514
        ]
      },
      "properties": {
        "osm_type": "node",
        "osm_id": 10088748781,
        "sido": "서울특별시",
        "name": "석촌변전소",
        "name_en": "Seokchon Substation",
        "substation_type": "distribution",
        "voltage": "154000",
        "frequency": "60",
        "operator": "한국전력공사",
        "location": ""
      }
    },
    {
      "type": "Feature",
      "geometry": {
        "type": "Point",
        "coordinates": [
          127.0163451,
          37.5668305
        ]
      },
      "properties": {
        "osm_type": "node",
        "osm_id": 10088748806,
        "sido": "서울특별시",
        "name": "신당변전소",
        "name_en": "Sindang Substation",
        "substation_type": "distribution",
        "voltage": "154000",
        "frequency": "60",
        "operator": "한국전력공사",
        "location": "indoor"
      }
    },
    {
      "type": "Feature",
      "geometry": {
        "type": "Point",
        "coordinates": [
          126.9990474,
          37.5657436
        ]
      },
      "properties": {
        "osm_type": "node",
        "osm_id": 10088748807,
        "sido": "서울특별시",
        "name": "방산변전소",
        "name_en": "Bangsan Substation",
        "substation_type": "distribution",
        "voltage": "154000",
        "frequency": "60",
        "operator": "한국전력공사",
        "location": "indoor"
      }
    },
    {
      "type": "Feature",
      "geometry": {
        "type": "Point",
        "coordinates": [
          126.9682969,
          37.564261
        ]
      },
      "properties": {
        "osm_type": "node",
        "osm_id": 10088748808,
        "sido": "서울특별시",
        "name": "서대문변전소",
        "name_en": "Seodaemun Substation",
        "substation_type": "distribution",
        "voltage": "154000",
        "frequency": "60",
        "operator": "한국전력공사",
        "location": "indoor"
      }
    },
    {
      "type": "Feature",
      "geometry": {
        "type": "Point",
        "coordinates": [
          127.0391962,
          37.5756993
        ]
      },
      "properties": {
        "osm_type": "node",
        "osm_id": 10088748809,
        "sido": "서울특별시",
        "name": "용두변전소",
        "name_en": "Yongdu Substation",
        "substation_type": "distribution",
        "voltage": "154000",
        "frequency": "60",
        "operator": "한국전력공사",
        "location": "indoor"
      }
    },
    {
      "type": "Feature",
      "geometry": {
        "type": "Point",
        "coordinates": [
          127.0107834,
          37.590883
        ]
      },
      "properties": {
        "osm_type": "node",
        "osm_id": 10088748810,
        "sido": "서울특별시",
        "name": "돈암변전소",
        "name_en": "Donam Substation",
        "substation_type": "distribution",
        "voltage": "154000",
        "frequency": "60",
        "operator": "한국전력공사",
        "location": "indoor"
      }
    },
    {
      "type": "Feature",
      "geometry": {
        "type": "Point",
        "coordinates": [
          126.9910839,
          37.4990688
        ]
      },
      "properties": {
        "osm_type": "node",
        "osm_id": 10088748811,
        "sido": "서울특별시",
        "name": "이수변전소",
        "name_en": "Isu Substation",
        "substation_type": "distribution",
        "voltage": "154000",
        "frequency": "60",
        "operator": "한국전력공사",
        "location": "indoor"
      }
    },
    {
      "type": "Feature",
      "geometry": {
        "type": "Point",
        "coordinates": [
          126.9828267,
          37.5653562
        ]
      },
      "properties": {
        "osm_type": "node",
        "osm_id": 10089413562,
        "sido": "서울특별시",
        "name": "중앙변전소",
        "name_en": "Jungang Substation",
        "substation_type": "distribution",
        "voltage": "154000",
        "frequency": "",
        "operator": "한국전력공사",
        "location": "indoor"
      }
    },
    {
      "type": "Feature",
      "geometry": {
        "type": "Point",
        "coordinates": [
          126.9890131,
          37.5775814
        ]
      },
      "properties": {
        "osm_type": "node",
        "osm_id": 10089413567,
        "sido": "서울특별시",
        "name": "운니변전소",
        "name_en": "Unni Substation",
        "substation_type": "distribution",
        "voltage": "154000",
        "frequency": "",
        "operator": "한국전력공사",
        "location": "underground"
      }
    },
    {
      "type": "Feature",
      "geometry": {
        "type": "Point",
        "coordinates": [
          126.9974609,
          37.5800159
        ]
      },
      "properties": {
        "osm_type": "node",
        "osm_id": 10089413568,
        "sido": "서울특별시",
        "name": "원남변전소",
        "name_en": "Wonnam Substation",
        "substation_type": "distribution",
        "voltage": "154000",
        "frequency": "",
        "operator": "한국전력공사",
        "location": "indoor"
      }
    },
    {
      "type": "Feature",
      "geometry": {
        "type": "Point",
        "coordinates": [
          127.0464713,
          37.6827952
        ]
      },
      "properties": {
        "osm_type": "node",
        "osm_id": 10089413579,
        "sido": "서울특별시",
        "name": "방학변전소",
        "name_en": "Banghak Substation",
        "substation_type": "distribution",
        "voltage": "154000",
        "frequency": "",
        "operator": "한국전력공사",
        "location": "indoor"
      }
    },
    {
      "type": "Feature",
      "geometry": {
        "type": "Point",
        "coordinates": [
          126.9324572,
          37.5625142
        ]
      },
      "properties": {
        "osm_type": "node",
        "osm_id": 10089413580,
        "sido": "서울특별시",
        "name": "연대변전소",
        "name_en": "Yeondae Substation",
        "substation_type": "distribution",
        "voltage": "154000",
        "frequency": "",
        "operator": "한국전력공사",
        "location": "indoor"
      }
    },
    {
      "type": "Feature",
      "geometry": {
        "type": "Point",
        "coordinates": [
          127.0649991,
          37.5117201
        ]
      },
      "properties": {
        "osm_type": "node",
        "osm_id": 10094992357,
        "sido": "서울특별시",
        "name": "강남변전소",
        "name_en": "Gangnam Substation",
        "substation_type": "distribution",
        "voltage": "154000",
        "frequency": "",
        "operator": "한국전력공사",
        "location": "underground"
      }
    },
    {
      "type": "Feature",
      "geometry": {
        "type": "Point",
        "coordinates": [
          126.999832,
          37.5352296
        ]
      },
      "properties": {
        "osm_type": "way",
        "osm_id": 123719269,
        "sido": "서울특별시",
        "name": "한남변전소",
        "name_en": "Hannam Substation",
        "substation_type": "distribution",
        "voltage": "154000",
        "frequency": "",
        "operator": "한국전력공사",
        "location": "indoor"
      }
    },
    {
      "type": "Feature",
      "geometry": {
        "type": "Point",
        "coordinates": [
          126.9459959,
          37.5138738
        ]
      },
      "properties": {
        "osm_type": "way",
        "osm_id": 278752532,
        "sido": "서울특별시",
        "name": "노량진변전소",
        "name_en": "Noryangjin Substation",
        "substation_type": "distribution",
        "voltage": "154000",
        "frequency": "",
        "operator": "한국전력공사",
        "location": "indoor"
      }
    },
    {
      "type": "Feature",
      "geometry": {
        "type": "Point",
        "coordinates": [
          126.9956722,
          37.5240074
        ]
      },
      "properties": {
        "osm_type": "way",
        "osm_id": 301354080,
        "sido": "서울특별시",
        "name": "보광변전소",
        "name_en": "Bogwang Substation",
        "substation_type": "distribution",
        "voltage": "154000",
        "frequency": "60",
        "operator": "한국전력공사",
        "location": "outdoor"
      }
    },
    {
      "type": "Feature",
      "geometry": {
        "type": "Point",
        "coordinates": [
          127.1509341,
          37.5368648
        ]
      },
      "properties": {
        "osm_type": "way",
        "osm_id": 312151269,
        "sido": "서울특별시",
        "name": "강동변전소",
        "name_en": "Gangdong Substation",
        "substation_type": "distribution",
        "voltage": "154000",
        "frequency": "60",
        "operator": "",
        "location": "indoor"
      }
    },
    {
      "type": "Feature",
      "geometry": {
        "type": "Point",
        "coordinates": [
          126.955935,
          37.5545224
        ]
      },
      "properties": {
        "osm_type": "way",
        "osm_id": 328442770,
        "sido": "서울특별시",
        "name": "아현변전소",
        "name_en": "Ahyeon Substation",
        "substation_type": "distribution",
        "voltage": "154000",
        "frequency": "",
        "operator": "한국전력공사",
        "location": "indoor"
      }
    },
    {
      "type": "Feature",
      "geometry": {
        "type": "Point",
        "coordinates": [
          126.9415661,
          37.556185
        ]
      },
      "properties": {
        "osm_type": "way",
        "osm_id": 328442775,
        "sido": "서울특별시",
        "name": "신촌변전소",
        "name_en": "Sinchon Substation",
        "substation_type": "distribution",
        "voltage": "154000",
        "frequency": "",
        "operator": "한국전력공사",
        "location": "indoor"
      }
    },
    {
      "type": "Feature",
      "geometry": {
        "type": "Point",
        "coordinates": [
          126.8944473,
          37.5196943
        ]
      },
      "properties": {
        "osm_type": "way",
        "osm_id": 355405884,
        "sido": "서울특별시",
        "name": "영등포변전소",
        "name_en": "Yeongdeungpo Substation",
        "substation_type": "transmission",
        "voltage": "345000",
        "frequency": "60",
        "operator": "한국전력공사",
        "location": "indoor"
      }
    },
    {
      "type": "Feature",
      "geometry": {
        "type": "Point",
        "coordinates": [
          126.9876875,
          37.5509196
        ]
      },
      "properties": {
        "osm_type": "way",
        "osm_id": 379943262,
        "sido": "서울특별시",
        "name": "",
        "name_en": "",
        "substation_type": "minor_distribution",
        "voltage": "",
        "frequency": "",
        "operator": "",
        "location": "outdoor"
      }
    },
    {
      "type": "Feature",
      "geometry": {
        "type": "Point",
        "coordinates": [
          127.0114904,
          37.5691841
        ]
      },
      "properties": {
        "osm_type": "way",
        "osm_id": 400847807,
        "sido": "서울특별시",
        "name": "흥인변전소",
        "name_en": "Heungin Substation",
        "substation_type": "distribution",
        "voltage": "154000",
        "frequency": "",
        "operator": "한국전력공사",
        "location": "indoor"
      }
    },
    {
      "type": "Feature",
      "geometry": {
        "type": "Point",
        "coordinates": [
          126.9548192,
          37.4666261
        ]
      },
      "properties": {
        "osm_type": "way",
        "osm_id": 430291672,
        "sido": "서울특별시",
        "name": "신림변전소",
        "name_en": "Sillim Substation",
        "substation_type": "distribution",
        "voltage": "154000",
        "frequency": "",
        "operator": "",
        "location": "indoor"
      }
    },
    {
      "type": "Feature",
      "geometry": {
        "type": "Point",
        "coordinates": [
          127.0285928,
          37.58401
        ]
      },
      "properties": {
        "osm_type": "way",
        "osm_id": 448707897,
        "sido": "서울특별시",
        "name": "안암변전소",
        "name_en": "Anam Substation",
        "substation_type": "distribution",
        "voltage": "154000",
        "frequency": "",
        "operator": "한국전력공사",
        "location": "indoor"
      }
    },
    {
      "type": "Feature",
      "geometry": {
        "type": "Point",
        "coordinates": [
          126.9371132,
          37.6101503
        ]
      },
      "properties": {
        "osm_type": "way",
        "osm_id": 462647234,
        "sido": "서울특별시",
        "name": "은평변전소",
        "name_en": "Eunpyeong Substation",
        "substation_type": "distribution",
        "voltage": "154000",
        "frequency": "60",
        "operator": "한국전력공사",
        "location": "outdoor"
      }
    },
    {
      "type": "Feature",
      "geometry": {
        "type": "Point",
        "coordinates": [
          126.8251458,
          37.5485595
        ]
      },
      "properties": {
        "osm_type": "way",
        "osm_id": 469345027,
        "sido": "서울특별시",
        "name": "화곡변전소",
        "name_en": "Hwagok Substation",
        "substation_type": "distribution",
        "voltage": "154000",
        "frequency": "",
        "operator": "한국전력공사",
        "location": ""
      }
    },
    {
      "type": "Feature",
      "geometry": {
        "type": "Point",
        "coordinates": [
          126.8986702,
          37.5820687
        ]
      },
      "properties": {
        "osm_type": "way",
        "osm_id": 470876802,
        "sido": "서울특별시",
        "name": "수색변전소",
        "name_en": "Susaek Substation",
        "substation_type": "distribution",
        "voltage": "154000",
        "frequency": "60",
        "operator": "",
        "location": ""
      }
    },
    {
      "type": "Feature",
      "geometry": {
        "type": "Point",
        "coordinates": [
          127.0556656,
          37.6541721
        ]
      },
      "properties": {
        "osm_type": "way",
        "osm_id": 472066007,
        "sido": "서울특별시",
        "name": "상계변전소",
        "name_en": "Sanggye Substation",
        "substation_type": "distribution",
        "voltage": "154000",
        "frequency": "",
        "operator": "한국전력공사",
        "location": "indoor"
      }
    },
    {
      "type": "Feature",
      "geometry": {
        "type": "Point",
        "coordinates": [
          126.8834016,
          37.4979718
        ]
      },
      "properties": {
        "osm_type": "way",
        "osm_id": 475080862,
        "sido": "서울특별시",
        "name": "구로변전소",
        "name_en": "Guro Substation",
        "substation_type": "distribution",
        "voltage": "154000",
        "frequency": "",
        "operator": "한국전력공사",
        "location": "indoor"
      }
    },
    {
      "type": "Feature",
      "geometry": {
        "type": "Point",
        "coordinates": [
          126.8971752,
          37.4498969
        ]
      },
      "properties": {
        "osm_type": "way",
        "osm_id": 500683784,
        "sido": "서울특별시",
        "name": "시흥변전소",
        "name_en": "Siheung Substation",
        "substation_type": "distribution",
        "voltage": "154000",
        "frequency": "",
        "operator": "한국전력공사",
        "location": "indoor"
      }
    },
    {
      "type": "Feature",
      "geometry": {
        "type": "Point",
        "coordinates": [
          126.8237711,
          37.4910327
        ]
      },
      "properties": {
        "osm_type": "way",
        "osm_id": 520038085,
        "sido": "서울특별시",
        "name": "온수변전소",
        "name_en": "Onsu Substation",
        "substation_type": "distribution",
        "voltage": "154000",
        "frequency": "60",
        "operator": "",
        "location": "underground"
      }
    },
    {
      "type": "Feature",
      "geometry": {
        "type": "Point",
        "coordinates": [
          126.974058,
          37.5230993
        ]
      },
      "properties": {
        "osm_type": "way",
        "osm_id": 677655657,
        "sido": "서울특별시",
        "name": "동빙고변전소",
        "name_en": "Dongbinggo Substation",
        "substation_type": "distribution",
        "voltage": "154000",
        "frequency": "",
        "operator": "한국전력공사",
        "location": "indoor"
      }
    },
    {
      "type": "Feature",
      "geometry": {
        "type": "Point",
        "coordinates": [
          126.8778482,
          37.4984356
        ]
      },
      "properties": {
        "osm_type": "way",
        "osm_id": 685034837,
        "sido": "서울특별시",
        "name": "",
        "name_en": "",
        "substation_type": "traction",
        "voltage": "55000;27500",
        "frequency": "",
        "operator": "",
        "location": ""
      }
    },
    {
      "type": "Feature",
      "geometry": {
        "type": "Point",
        "coordinates": [
          126.8777609,
          37.5805456
        ]
      },
      "properties": {
        "osm_type": "way",
        "osm_id": 691122408,
        "sido": "서울특별시",
        "name": "상암변전소",
        "name_en": "Sangam Substation",
        "substation_type": "distribution",
        "voltage": "154000",
        "frequency": "60",
        "operator": "한국전력공사",
        "location": "indoor"
      }
    },
    {
      "type": "Feature",
      "geometry": {
        "type": "Point",
        "coordinates": [
          127.0285961,
          37.6137393
        ]
      },
      "properties": {
        "osm_type": "way",
        "osm_id": 780139421,
        "sido": "서울특별시",
        "name": "미아변전소",
        "name_en": "Mia Substation",
        "substation_type": "distribution",
        "voltage": "154000",
        "frequency": "",
        "operator": "한국전력공사",
        "location": "indoor"
      }
    },
    {
      "type": "Feature",
      "geometry": {
        "type": "Point",
        "coordinates": [
          127.081763,
          37.5036303
        ]
      },
      "properties": {
        "osm_type": "way",
        "osm_id": 793603155,
        "sido": "서울특별시",
        "name": "잠실변전소",
        "name_en": "Jamsil Substation",
        "substation_type": "distribution",
        "voltage": "154000",
        "frequency": "",
        "operator": "한국전력공사",
        "location": "indoor"
      }
    },
    {
      "type": "Feature",
      "geometry": {
        "type": "Point",
        "coordinates": [
          126.868787,
          37.5201129
        ]
      },
      "properties": {
        "osm_type": "way",
        "osm_id": 830729465,
        "sido": "서울특별시",
        "name": "목동변전소",
        "name_en": "Mokdong Substation",
        "substation_type": "transmission",
        "voltage": "154000",
        "frequency": "",
        "operator": "한국전력공사",
        "location": "indoor"
      }
    },
    {
      "type": "Feature",
      "geometry": {
        "type": "Point",
        "coordinates": [
          126.9159532,
          37.5436365
        ]
      },
      "properties": {
        "osm_type": "way",
        "osm_id": 879319756,
        "sido": "서울특별시",
        "name": "",
        "name_en": "",
        "substation_type": "",
        "voltage": "",
        "frequency": "",
        "operator": "",
        "location": ""
      }
    },
    {
      "type": "Feature",
      "geometry": {
        "type": "Point",
        "coordinates": [
          127.0396628,
          37.568087
        ]
      },
      "properties": {
        "osm_type": "way",
        "osm_id": 884033660,
        "sido": "서울특별시",
        "name": "성동변전소",
        "name_en": "Seongdong Substation",
        "substation_type": "transmission",
        "voltage": "345000",
        "frequency": "60",
        "operator": "한국전력공사",
        "location": "indoor"
      }
    },
    {
      "type": "Feature",
      "geometry": {
        "type": "Point",
        "coordinates": [
          127.1321935,
          37.4759938
        ]
      },
      "properties": {
        "osm_type": "way",
        "osm_id": 912799256,
        "sido": "서울특별시",
        "name": "동남변전소",
        "name_en": "Dongnam Substation",
        "substation_type": "distribution",
        "voltage": "154000",
        "frequency": "",
        "operator": "한국전력공사",
        "location": "indoor"
      }
    },
    {
      "type": "Feature",
      "geometry": {
        "type": "Point",
        "coordinates": [
          127.0087998,
          37.516135
        ]
      },
      "properties": {
        "osm_type": "way",
        "osm_id": 923070450,
        "sido": "서울특별시",
        "name": "반포변전소",
        "name_en": "Banpo Substation",
        "substation_type": "distribution",
        "voltage": "154000",
        "frequency": "60",
        "operator": "",
        "location": ""
      }
    },
    {
      "type": "Feature",
      "geometry": {
        "type": "Point",
        "coordinates": [
          127.1077126,
          37.4859096
        ]
      },
      "properties": {
        "osm_type": "way",
        "osm_id": 1025717075,
        "sido": "서울특별시",
        "name": "수서변전소",
        "name_en": "Suseo Substation",
        "substation_type": "distribution",
        "voltage": "154000",
        "frequency": "",
        "operator": "한국전력공사",
        "location": "indoor"
      }
    },
    {
      "type": "Feature",
      "geometry": {
        "type": "Point",
        "coordinates": [
          127.0684349,
          37.5923985
        ]
      },
      "properties": {
        "osm_type": "way",
        "osm_id": 1064546944,
        "sido": "서울특별시",
        "name": "휘경변전소",
        "name_en": "Hwigyeong Substation",
        "substation_type": "distribution",
        "voltage": "154000",
        "frequency": "60",
        "operator": "한국전력공사",
        "location": "indoor"
      }
    },
    {
      "type": "Feature",
      "geometry": {
        "type": "Point",
        "coordinates": [
          126.9840959,
          37.4757771
        ]
      },
      "properties": {
        "osm_type": "way",
        "osm_id": 1081669148,
        "sido": "서울특별시",
        "name": "사당변전소",
        "name_en": "Sadang Substation",
        "substation_type": "distribution",
        "voltage": "154000",
        "frequency": "60",
        "operator": "한국전력공사",
        "location": "indoor"
      }
    },
    {
      "type": "Feature",
      "geometry": {
        "type": "Point",
        "coordinates": [
          126.8451331,
          37.4797195
        ]
      },
      "properties": {
        "osm_type": "way",
        "osm_id": 1098581082,
        "sido": "서울특별시",
        "name": "천왕변전소",
        "name_en": "Cheonwang Substation",
        "substation_type": "distribution",
        "voltage": "154000",
        "frequency": "",
        "operator": "한국전력공사",
        "location": "indoor"
      }
    },
    {
      "type": "Feature",
      "geometry": {
        "type": "Point",
        "coordinates": [
          126.8362825,
          37.5706371
        ]
      },
      "properties": {
        "osm_type": "way",
        "osm_id": 1101857586,
        "sido": "서울특별시",
        "name": "가양변전소",
        "name_en": "Gayang Substation",
        "substation_type": "distribution",
        "voltage": "154000",
        "frequency": "",
        "operator": "한국전력공사",
        "location": "indoor"
      }
    },
    {
      "type": "Feature",
      "geometry": {
        "type": "Point",
        "coordinates": [
          127.0567167,
          37.5596711
        ]
      },
      "properties": {
        "osm_type": "way",
        "osm_id": 1101878213,
        "sido": "서울특별시",
        "name": "군자변전소",
        "name_en": "Gunja Substation",
        "substation_type": "distribution",
        "voltage": "154000",
        "frequency": "60",
        "operator": "",
        "location": ""
      }
    },
    {
      "type": "Feature",
      "geometry": {
        "type": "Point",
        "coordinates": [
          127.0334874,
          37.5679452
        ]
      },
      "properties": {
        "osm_type": "way",
        "osm_id": 1101878214,
        "sido": "서울특별시",
        "name": "마장변전소",
        "name_en": "Majang Substation",
        "substation_type": "distribution",
        "voltage": "154000",
        "frequency": "60",
        "operator": "한국전력공사",
        "location": ""
      }
    },
    {
      "type": "Feature",
      "geometry": {
        "type": "Point",
        "coordinates": [
          127.0390966,
          37.5682123
        ]
      },
      "properties": {
        "osm_type": "way",
        "osm_id": 1101878215,
        "sido": "서울특별시",
        "name": "왕십리변전소",
        "name_en": "Wangsimni Substation",
        "substation_type": "distribution",
        "voltage": "154000",
        "frequency": "60",
        "operator": "한국전력공사",
        "location": ""
      }
    },
    {
      "type": "Feature",
      "geometry": {
        "type": "Point",
        "coordinates": [
          127.0695573,
          37.5361654
        ]
      },
      "properties": {
        "osm_type": "way",
        "osm_id": 1101878219,
        "sido": "서울특별시",
        "name": "뚝도변전소",
        "name_en": "Ttukdo Substation",
        "substation_type": "distribution",
        "voltage": "154000",
        "frequency": "60",
        "operator": "한국전력공사",
        "location": ""
      }
    },
    {
      "type": "Feature",
      "geometry": {
        "type": "Point",
        "coordinates": [
          127.0991548,
          37.5458475
        ]
      },
      "properties": {
        "osm_type": "way",
        "osm_id": 1101878220,
        "sido": "서울특별시",
        "name": "광장변전소",
        "name_en": "Gwangjang Substation",
        "substation_type": "distribution",
        "voltage": "154000",
        "frequency": "60",
        "operator": "한국전력공사",
        "location": ""
      }
    },
    {
      "type": "Feature",
      "geometry": {
        "type": "Point",
        "coordinates": [
          127.0338065,
          37.5249134
        ]
      },
      "properties": {
        "osm_type": "way",
        "osm_id": 1101917694,
        "sido": "서울특별시",
        "name": "신사변전소",
        "name_en": "Sinsa Substation",
        "substation_type": "distribution",
        "voltage": "154000",
        "frequency": "60",
        "operator": "한국전력공사",
        "location": "underground"
      }
    },
    {
      "type": "Feature",
      "geometry": {
        "type": "Point",
        "coordinates": [
          127.0464348,
          37.4657651
        ]
      },
      "properties": {
        "osm_type": "way",
        "osm_id": 1101917697,
        "sido": "서울특별시",
        "name": "염곡변전소",
        "name_en": "Yeomgok Substation",
        "substation_type": "distribution",
        "voltage": "154000",
        "frequency": "",
        "operator": "한국전력공사",
        "location": "underground"
      }
    },
    {
      "type": "Feature",
      "geometry": {
        "type": "Point",
        "coordinates": [
          127.0739583,
          37.4838611
        ]
      },
      "properties": {
        "osm_type": "way",
        "osm_id": 1101917698,
        "sido": "서울특별시",
        "name": "개포변전소",
        "name_en": "Gaepo Substation",
        "substation_type": "distribution",
        "voltage": "154000",
        "frequency": "",
        "operator": "한국전력공사",
        "location": "indoor"
      }
    },
    {
      "type": "Feature",
      "geometry": {
        "type": "Point",
        "coordinates": [
          127.0816453,
          37.5036411
        ]
      },
      "properties": {
        "osm_type": "way",
        "osm_id": 1101917699,
        "sido": "서울특별시",
        "name": "",
        "name_en": "",
        "substation_type": "",
        "voltage": "",
        "frequency": "",
        "operator": "",
        "location": ""
      }
    },
    {
      "type": "Feature",
      "geometry": {
        "type": "Point",
        "coordinates": [
          127.1194498,
          37.5086666
        ]
      },
      "properties": {
        "osm_type": "way",
        "osm_id": 1101917700,
        "sido": "서울특별시",
        "name": "송파변전소",
        "name_en": "Songpa Substation",
        "substation_type": "distribution",
        "voltage": "154000",
        "frequency": "",
        "operator": "한국전력공사",
        "location": "indoor"
      }
    },
    {
      "type": "Feature",
      "geometry": {
        "type": "Point",
        "coordinates": [
          127.1772658,
          37.5477049
        ]
      },
      "properties": {
        "osm_type": "way",
        "osm_id": 1101917701,
        "sido": "서울특별시",
        "name": "상일변전소",
        "name_en": "Sangil Substation",
        "substation_type": "distribution",
        "voltage": "154000",
        "frequency": "",
        "operator": "한국전력공사",
        "location": "indoor"
      }
    },
    {
      "type": "Feature",
      "geometry": {
        "type": "Point",
        "coordinates": [
          126.8782581,
          37.4770598
        ]
      },
      "properties": {
        "osm_type": "way",
        "osm_id": 1101926172,
        "sido": "서울특별시",
        "name": "구공변전소",
        "name_en": "Gugong Substation",
        "substation_type": "distribution",
        "voltage": "154000",
        "frequency": "",
        "operator": "한국전력공사",
        "location": "outdoor"
      }
    },
    {
      "type": "Feature",
      "geometry": {
        "type": "Point",
        "coordinates": [
          126.9172887,
          37.472
        ]
      },
      "properties": {
        "osm_type": "way",
        "osm_id": 1101926174,
        "sido": "서울특별시",
        "name": "대방변전소",
        "name_en": "Daebang Substation",
        "substation_type": "distribution",
        "voltage": "154000",
        "frequency": "",
        "operator": "한국전력공사",
        "location": "indoor"
      }
    },
    {
      "type": "Feature",
      "geometry": {
        "type": "Point",
        "coordinates": [
          126.8761251,
          37.5321061
        ]
      },
      "properties": {
        "osm_type": "way",
        "osm_id": 1101926175,
        "sido": "서울특별시",
        "name": "양천변전소",
        "name_en": "Yangcheon Substation",
        "substation_type": "distribution",
        "voltage": "154000",
        "frequency": "",
        "operator": "한국전력공사",
        "location": "underground"
      }
    },
    {
      "type": "Feature",
      "geometry": {
        "type": "Point",
        "coordinates": [
          126.8466095,
          37.5100621
        ]
      },
      "properties": {
        "osm_type": "way",
        "osm_id": 1101926176,
        "sido": "서울특별시",
        "name": "신정변전소",
        "name_en": "Sinjeong Substation",
        "substation_type": "distribution",
        "voltage": "154000",
        "frequency": "",
        "operator": "한국전력공사",
        "location": "underground"
      }
    },
    {
      "type": "Feature",
      "geometry": {
        "type": "Point",
        "coordinates": [
          126.8625069,
          37.5020637
        ]
      },
      "properties": {
        "osm_type": "way",
        "osm_id": 1101926177,
        "sido": "서울특별시",
        "name": "오류변전소",
        "name_en": "Oryu Substation",
        "substation_type": "distribution",
        "voltage": "154000",
        "frequency": "",
        "operator": "한국전력공사",
        "location": "indoor"
      }
    },
    {
      "type": "Feature",
      "geometry": {
        "type": "Point",
        "coordinates": [
          126.9224196,
          37.4907776
        ]
      },
      "properties": {
        "osm_type": "way",
        "osm_id": 1102076031,
        "sido": "서울특별시",
        "name": "신길변전소",
        "name_en": "Singil Substation",
        "substation_type": "distribution",
        "voltage": "154000",
        "frequency": "",
        "operator": "한국전력공사",
        "location": "underground"
      }
    },
    {
      "type": "Feature",
      "geometry": {
        "type": "Point",
        "coordinates": [
          126.9688925,
          37.5822831
        ]
      },
      "properties": {
        "osm_type": "way",
        "osm_id": 1102076039,
        "sido": "서울특별시",
        "name": "옥인변전소",
        "name_en": "Ogin Substation",
        "substation_type": "distribution",
        "voltage": "154000",
        "frequency": "",
        "operator": "한국전력공사",
        "location": "indoor"
      }
    },
    {
      "type": "Feature",
      "geometry": {
        "type": "Point",
        "coordinates": [
          126.9548901,
          37.5766033
        ]
      },
      "properties": {
        "osm_type": "way",
        "osm_id": 1102259030,
        "sido": "서울특별시",
        "name": "현저변전소",
        "name_en": "Hyeonjeo Substation",
        "substation_type": "distribution",
        "voltage": "154000",
        "frequency": "",
        "operator": "한국전력공사",
        "location": "indoor"
      }
    },
    {
      "type": "Feature",
      "geometry": {
        "type": "Point",
        "coordinates": [
          127.0956185,
          37.6106721
        ]
      },
      "properties": {
        "osm_type": "way",
        "osm_id": 1102259035,
        "sido": "서울특별시",
        "name": "신내변전소",
        "name_en": "Sinnae Substation",
        "substation_type": "distribution",
        "voltage": "154000",
        "frequency": "",
        "operator": "한국전력공사",
        "location": "indoor"
      }
    },
    {
      "type": "Feature",
      "geometry": {
        "type": "Point",
        "coordinates": [
          127.0589287,
          37.628048
        ]
      },
      "properties": {
        "osm_type": "way",
        "osm_id": 1102290943,
        "sido": "서울특별시",
        "name": "노원변전소",
        "name_en": "Nowon Substation",
        "substation_type": "distribution",
        "voltage": "154000",
        "frequency": "",
        "operator": "한국전력공사",
        "location": "indoor"
      }
    },
    {
      "type": "Feature",
      "geometry": {
        "type": "Point",
        "coordinates": [
          127.0271385,
          37.6473576
        ]
      },
      "properties": {
        "osm_type": "way",
        "osm_id": 1102290950,
        "sido": "서울특별시",
        "name": "쌍문변전소",
        "name_en": "Ssangmun Substation",
        "substation_type": "distribution",
        "voltage": "154000",
        "frequency": "",
        "operator": "한국전력공사",
        "location": ""
      }
    },
    {
      "type": "Feature",
      "geometry": {
        "type": "Point",
        "coordinates": [
          127.0245224,
          37.4777029
        ]
      },
      "properties": {
        "osm_type": "way",
        "osm_id": 1102290959,
        "sido": "서울특별시",
        "name": "",
        "name_en": "",
        "substation_type": "transition",
        "voltage": "154000",
        "frequency": "",
        "operator": "",
        "location": ""
      }
    },
    {
      "type": "Feature",
      "geometry": {
        "type": "Point",
        "coordinates": [
          126.9572094,
          37.5314126
        ]
      },
      "properties": {
        "osm_type": "way",
        "osm_id": 1102290961,
        "sido": "서울특별시",
        "name": "용산변전소",
        "name_en": "Yongsan Substation",
        "substation_type": "distribution",
        "voltage": "154000",
        "frequency": "",
        "operator": "한국전력공사",
        "location": ""
      }
    },
    {
      "type": "Feature",
      "geometry": {
        "type": "Point",
        "coordinates": [
          126.8939936,
          37.5197763
        ]
      },
      "properties": {
        "osm_type": "way",
        "osm_id": 1102490847,
        "sido": "서울특별시",
        "name": "문래변전소",
        "name_en": "Mullae Substation",
        "substation_type": "distribution",
        "voltage": "154000",
        "frequency": "",
        "operator": "한국전력공사",
        "location": "indoor"
      }
    },
    {
      "type": "Feature",
      "geometry": {
        "type": "Point",
        "coordinates": [
          126.8930079,
          37.5303425
        ]
      },
      "properties": {
        "osm_type": "way",
        "osm_id": 1102490850,
        "sido": "서울특별시",
        "name": "양평변전소",
        "name_en": "Yangpyeong Substation",
        "substation_type": "distribution",
        "voltage": "154000",
        "frequency": "",
        "operator": "한국전력공사",
        "location": "indoor"
      }
    },
    {
      "type": "Feature",
      "geometry": {
        "type": "Point",
        "coordinates": [
          126.9920394,
          37.5687329
        ]
      },
      "properties": {
        "osm_type": "way",
        "osm_id": 1102519404,
        "sido": "서울특별시",
        "name": "종로변전소",
        "name_en": "Jongno Substation",
        "substation_type": "distribution",
        "voltage": "154000",
        "frequency": "",
        "operator": "한국전력공사",
        "location": "indoor"
      }
    },
    {
      "type": "Feature",
      "geometry": {
        "type": "Point",
        "coordinates": [
          126.9751576,
          37.5731162
        ]
      },
      "properties": {
        "osm_type": "way",
        "osm_id": 1102577473,
        "sido": "서울특별시",
        "name": "세종로변전소",
        "name_en": "Sejongro Substation",
        "substation_type": "distribution",
        "voltage": "154000",
        "frequency": "",
        "operator": "한국전력공사",
        "location": "underground"
      }
    },
    {
      "type": "Feature",
      "geometry": {
        "type": "Point",
        "coordinates": [
          127.0507509,
          37.5465156
        ]
      },
      "properties": {
        "osm_type": "way",
        "osm_id": 1102577474,
        "sido": "서울특별시",
        "name": "성수변전소",
        "name_en": "Seongsu Substation",
        "substation_type": "distribution",
        "voltage": "154000",
        "frequency": "",
        "operator": "한국전력공사",
        "location": "indoor"
      }
    },
    {
      "type": "Feature",
      "geometry": {
        "type": "Point",
        "coordinates": [
          127.0410205,
          37.5940005
        ]
      },
      "properties": {
        "osm_type": "way",
        "osm_id": 1102577475,
        "sido": "서울특별시",
        "name": "종암변전소",
        "name_en": "Jongam Substation",
        "substation_type": "distribution",
        "voltage": "154000",
        "frequency": "",
        "operator": "한국전력공사",
        "location": "outdoor"
      }
    },
    {
      "type": "Feature",
      "geometry": {
        "type": "Point",
        "coordinates": [
          127.1100562,
          37.4775977
        ]
      },
      "properties": {
        "osm_type": "way",
        "osm_id": 1194000571,
        "sido": "서울특별시",
        "name": "자곡 병렬급전소",
        "name_en": "Jagok Parallel Post",
        "substation_type": "traction",
        "voltage": "55000;27500",
        "frequency": "",
        "operator": "",
        "location": ""
      }
    }
  ]
}