{
  "type": "FeatureCollection",
  "features": [
    {
      "type": "Feature",
      "geometry": {
        "type": "Point",
        "coordinates": [
          128.7782807,
          36.0949411
        ]
      },
      "properties": {
        "osm_type": "node",
        "osm_id": 11875873361,
        "sido": "대구광역시",
        "power_type": "generator",
        "name": "",
        "name_en": "",
        "plant_source": "wind",
        "plant_output": "1.65 MW",
        "plant_method": "wind_turbine",
        "operator": "한국남동발전"
      }
    },
    {
      "type": "Feature",
      "geometry": {
        "type": "Point",
        "coordinates": [
          128.7806181,
          36.0933455
        ]
      },
      "properties": {
        "osm_type": "node",
        "osm_id": 11875873364,
        "sido": "대구광역시",
        "power_type": "generator",
        "name": "",
        "name_en": "",
        "plant_source": "wind",
        "plant_output": "1.65 MW",
        "plant_method": "wind_turbine",
        "operator": "한국남동발전"
      }
    },
    {
      "type": "Feature",
      "geometry": {
        "type": "Point",
        "coordinates": [
          128.6398413,
          35.8443889
        ]
      },
      "properties": {
        "osm_type": "way",
        "osm_id": 405955561,
        "sido": "대구광역시",
        "power_type": "generator",
        "name": "",
        "name_en": "",
        "plant_source": "solar",
        "plant_output": "yes",
        "plant_method": "photovoltaic",
        "operator": ""
      }
    },
    {
      "type": "Feature",
      "geometry": {
        "type": "Point",
        "coordinates": [
          128.4167933,
          35.7340712
        ]
      },
      "properties": {
        "osm_type": "way",
        "osm_id": 625599010,
        "sido": "대구광역시",
        "power_type": "plant",
        "name": "달성보",
        "name_en": "",
        "plant_source": "hydro",
        "plant_output": "",
        "plant_method": "",
        "operator": ""
      }
    },
    {
      "type": "Feature",
      "geometry": {
        "type": "Point",
        "coordinates": [
          128.7050678,
          35.8826464
        ]
      },
      "properties": {
        "osm_type": "way",
        "osm_id": 926790502,
        "sido": "대구광역시",
        "power_type": "plant",
        "name": "Daegu Innovation City CHPP",
        "name_en": "",
        "plant_source": "gas",
        "plant_output": "yes",
        "plant_method": "combustion",
        "operator": "Daegu Green Power"
      }
    },
    {
      "type": "Feature",
      "geometry": {
        "type": "Point",
        "coordinates": [
          128.4504198,
          35.8735866
        ]
      },
      "properties": {
        "osm_type": "way",
        "osm_id": 1257719968,
        "sido": "대구광역시",
        "power_type": "generator",
        "name": "",
        "name_en": "",
        "plant_source": "solar",
        "plant_output": "yes",
        "plant_method": "photovoltaic",
        "operator": ""
      }
    },
    {
      "type": "Feature",
      "geometry": {
        "type": "Point",
        "coordinates": [
          128.4903485,
          35.831425
        ]
      },
      "properties": {
        "osm_type": "way",
        "osm_id": 1278459095,
        "sido": "대구광역시",
        "power_type": "plant",
        "name": "대구 열병합",
        "name_en": "",
        "plant_source": "oil",
        "plant_output": "46.5 MW",
        "plant_method": "combustion",
        "operator": "한국지역난방공사"
      }
    },
    {
      "type": "Feature",
      "geometry": {
        "type": "Point",
        "coordinates": [
          128.5471986,
          35.8820218
        ]
      },
      "properties": {
        "osm_type": "way",
        "osm_id": 1278459099,
        "sido": "대구광역시",
        "power_type": "plant",
        "name": "대구염색 열병합",
        "name_en": "",
        "plant_source": "coal",
        "plant_output": "72.9 MW",
        "plant_method": "combustion",
        "operator": "대구염색산업단지관리공단"
      }
    },
    {
      "type": "Feature",
      "geometry": {
        "type": "Point",
        "coordinates": [
          128.5360384,
          35.8640751
        ]
      },
      "properties": {
        "osm_type": "way",
        "osm_id": 1278659388,
        "sido": "대구광역시",
        "power_type": "plant",
        "name": "서대구 열병합",
        "name_en": "",
        "plant_source": "biomass",
        "plant_output": "1.5 MW",
        "plant_method": "combustion",
        "operator": "서대구에너지"
      }
    },
    {
      "type": "Feature",
      "geometry": {
        "type": "Point",
        "coordinates": [
          128.4927073,
          35.8598504
        ]
      },
      "properties": {
        "osm_type": "way",
        "osm_id": 1278705356,
        "sido": "대구광역시",
        "power_type": "plant",
        "name": "KT대구물류센터 연료전지",
        "name_en": "",
        "plant_source": "gas",
        "plant_output": "0.9 MW",
        "plant_method": "fuel_cell",
        "operator": "KT"
      }
    },
    {
      "type": "Feature",
      "geometry": {
        "type": "Point",
        "coordinates": [
          128.5051231,
          35.8176019
        ]
      },
      "properties": {
        "osm_type": "way",
        "osm_id": 1278705357,
        "sido": "대구광역시",
        "power_type": "plant",
        "name": "TCS1 연료전지",
        "name_en": "",
        "plant_source": "gas",
        "plant_output": "11.2 MW",
        "plant_method": "fuel_cell",
        "operator": "TCS1"
      }
    },
    {
      "type": "Feature",
      "geometry": {
        "type": "Point",
        "coordinates": [
          128.5633193,
          35.8467683
        ]
      },
      "properties": {
        "osm_type": "way",
        "osm_id": 1278705358,
        "sido": "대구광역시",
        "power_type": "plant",
        "name": "S-Fuelcell(대구) 연료전지",
        "name_en": "",
        "plant_source": "gas",
        "plant_output": "0.21 MW",
        "plant_method": "fuel_cell",
        "operator": "S-Fuelcell"
      }
    },
    {
      "type": "Feature",
      "geometry": {
        "type": "Point",
        "coordinates": [
          128.7125619,
          35.8702795
        ]
      },
      "properties": {
        "osm_type": "way",
        "osm_id": 1278705360,
        "sido": "대구광역시",
        "power_type": "plant",
        "name": "동호 연료전지",
        "name_en": "",
        "plant_source": "gas",
        "plant_output": "0.297 MW",
        "plant_method": "fuel_cell",
        "operator": "동호연료전지발전소"
      }
    },
    {
      "type": "Feature",
      "geometry": {
        "type": "Point",
        "coordinates": [
          128.4614563,
          35.7025807
        ]
      },
      "properties": {
        "osm_type": "way",
        "osm_id": 1301230238,
        "sido": "대구광역시",
        "power_type": "generator",
        "name": "",
        "name_en": "",
        "plant_source": "solar",
        "plant_output": "yes",
        "plant_method": "photovoltaic",
        "operator": ""
      }
    },
    {
      "type": "Feature",
      "geometry": {
        "type": "Point",
        "coordinates": [
          128.461249,
          35.7020401
        ]
      },
      "properties": {
        "osm_type": "way",
        "osm_id": 1301230239,
        "sido": "대구광역시",
        "power_type": "generator",
        "name": "",
        "name_en": "",
        "plant_source": "solar",
        "plant_output": "yes",
        "plant_method": "photovoltaic",
        "operator": ""
      }
    },
    {
      "type": "Feature",
      "geometry": {
        "type": "Point",
        "coordinates": [
          128.4620005,
          35.7021997
        ]
      },
      "properties": {
        "osm_type": "way",
        "osm_id": 1301230240,
        "sido": "대구광역시",
        "power_type": "generator",
        "name": "",
        "name_en": "",
        "plant_source": "solar",
        "plant_output": "yes",
        "plant_method": "photovoltaic",
        "operator": ""
      }
    },
    {
      "type": "Feature",
      "geometry": {
        "type": "Point",
        "coordinates": [
          128.4624998,
          35.7026064
        ]
      },
      "properties": {
        "osm_type": "way",
        "osm_id": 1301230241,
        "sido": "대구광역시",
        "power_type": "generator",
        "name": "",
        "name_en": "",
        "plant_source": "solar",
        "plant_output": "yes",
        "plant_method": "photovoltaic",
        "operator": ""
      }
    },
    {
      "type": "Feature",
      "geometry": {
        "type": "Point",
        "coordinates": [
          128.4627633,
          35.7032247
        ]
      },
      "properties": {
        "osm_type": "way",
        "osm_id": 1301230242,
        "sido": "대구광역시",
        "power_type": "generator",
        "name": "",
        "name_en": "",
        "plant_source": "solar",
        "plant_output": "yes",
        "plant_method": "photovoltaic",
        "operator": ""
      }
    },
    {
      "type": "Feature",
      "geometry": {
        "type": "Point",
        "coordinates": [
          128.4632059,
          35.7036582
        ]
      },
      "properties": {
        "osm_type": "way",
        "osm_id": 1301230243,
        "sido": "대구광역시",
        "power_type": "generator",
        "name": "",
        "name_en": "",
        "plant_source": "solar",
        "plant_output": "yes",
        "plant_method": "photovoltaic",
        "operator": ""
      }
    },
    {
      "type": "Feature",
      "geometry": {
        "type": "Point",
        "coordinates": [
          128.4627063,
          35.7036473
        ]
      },
      "properties": {
        "osm_type": "way",
        "osm_id": 1301230244,
        "sido": "대구광역시",
        "power_type": "generator",
        "name": "",
        "name_en": "",
        "plant_source": "solar",
        "plant_output": "yes",
        "plant_method": "photovoltaic",
        "operator": ""
      }
    },
    {
      "type": "Feature",
      "geometry": {
        "type": "Point",
        "coordinates": [
          128.6356373,
          35.8789424
        ]
      },
      "properties": {
        "osm_type": "way",
        "osm_id": 1304186027,
        "sido": "대구광역시",
        "power_type": "generator",
        "name": "",
        "name_en": "",
        "plant_source": "solar",
        "plant_output": "yes",
        "plant_method": "photovoltaic",
        "operator": ""
      }
    },
    {
      "type": "Feature",
      "geometry": {
        "type": "Point",
        "coordinates": [
          128.5455832,
          36.2797844
        ]
      },
      "properties": {
        "osm_type": "way",
        "osm_id": 1343656215,
        "sido": "대구광역시",
        "power_type": "plant",
        "name": "",
        "name_en": "",
        "plant_source": "solar",
        "plant_output": "",
        "plant_method": "",
        "operator": ""
      }
    },
    {
      "type": "Feature",
      "geometry": {
        "type": "Point",
        "coordinates": [
          128.7684265,
          36.0973247
        ]
      },
      "properties": {
        "osm_type": "way",
        "osm_id": 1366734131,
        "sido": "대구광역시",
        "power_type": "generator",
        "name": "",
        "name_en": "",
        "plant_source": "solar",
        "plant_output": "yes",
        "plant_method": "photovoltaic",
        "operator": ""
      }
    },
    {
      "type": "Feature",
      "geometry": {
        "type": "Point",
        "coordinates": [
          128.7768835,
          36.1050983
        ]
      },
      "properties": {
        "osm_type": "way",
        "osm_id": 1366734142,
        "sido": "대구광역시",
        "power_type": "generator",
        "name": "",
        "name_en": "",
        "plant_source": "solar",
        "plant_output": "yes",
        "plant_method": "photovoltaic",
        "operator": ""
      }
    },
    {
      "type": "Feature",
      "geometry": {
        "type": "Point",
        "coordinates": [
          128.6976429,
          36.0808723
        ]
      },
      "properties": {
        "osm_type": "way",
        "osm_id": 1367246672,
        "sido": "대구광역시",
        "power_type": "generator",
        "name": "",
        "name_en": "",
        "plant_source": "solar",
        "plant_output": "yes",
        "plant_method": "photovoltaic",
        "operator": ""
      }
    },
    {
      "type": "Feature",
      "geometry": {
        "type": "Point",
        "coordinates": [
          128.6928029,
          36.0844034
        ]
      },
      "properties": {
        "osm_type": "way",
        "osm_id": 1367246674,
        "sido": "대구광역시",
        "power_type": "generator",
        "name": "",
        "name_en": "",
        "plant_source": "solar",
        "plant_output": "yes",
        "plant_method": "photovoltaic",
        "operator": ""
      }
    },
    {
      "type": "Feature",
      "geometry": {
        "type": "Point",
        "coordinates": [
          128.5980015,
          36.2457442
        ]
      },
      "properties": {
        "osm_type": "way",
        "osm_id": 1367280371,
        "sido": "대구광역시",
        "power_type": "plant",
        "name": "",
        "name_en": "",
        "plant_source": "solar",
        "plant_output": "yes",
        "plant_method": "photovoltaic",
        "operator": ""
      }
    },
    {
      "type": "Feature",
      "geometry": {
        "type": "Point",
        "coordinates": [
          128.437145,
          35.7812052
        ]
      },
      "properties": {
        "osm_type": "way",
        "osm_id": 1388010034,
        "sido": "대구광역시",
        "power_type": "generator",
        "name": "",
        "name_en": "",
        "plant_source": "solar",
        "plant_output": "yes",
        "plant_method": "photovoltaic",
        "operator": ""
      }
    },
    {
      "type": "Feature",
      "geometry": {
        "type": "Point",
        "coordinates": [
          128.4369078,
          35.7814845
        ]
      },
      "properties": {
        "osm_type": "way",
        "osm_id": 1388010035,
        "sido": "대구광역시",
        "power_type": "generator",
        "name": "",
        "name_en": "",
        "plant_source": "solar",
        "plant_output": "yes",
        "plant_method": "photovoltaic",
        "operator": ""
      }
    },
    {
      "type": "Feature",
      "geometry": {
        "type": "Point",
        "coordinates": [
          128.4364459,
          35.7813141
        ]
      },
      "properties": {
        "osm_type": "way",
        "osm_id": 1388010036,
        "sido": "대구광역시",
        "power_type": "generator",
        "name": "",
        "name_en": "",
        "plant_source": "solar",
        "plant_output": "yes",
        "plant_method": "photovoltaic",
        "operator": ""
      }
    },
    {
      "type": "Feature",
      "geometry": {
        "type": "Point",
        "coordinates": [
          128.4713873,
          36.3168482
        ]
      },
      "properties": {
        "osm_type": "way",
        "osm_id": 1423526079,
        "sido": "대구광역시",
        "power_type": "generator",
        "name": "",
        "name_en": "",
        "plant_source": "solar",
        "plant_output": "yes",
        "plant_method": "photovoltaic",
        "operator": ""
      }
    },
    {
      "type": "Feature",
      "geometry": {
        "type": "Point",
        "coordinates": [
          128.4713235,
          36.3167167
        ]
      },
      "properties": {
        "osm_type": "way",
        "osm_id": 1423526080,
        "sido": "대구광역시",
        "power_type": "generator",
        "name": "",
        "name_en": "",
        "plant_source": "solar",
        "plant_output": "yes",
        "plant_method": "photovoltaic",
        "operator": ""
      }
    },
    {
      "type": "Feature",
      "geometry": {
        "type": "Point",
        "coordinates": [
          128.4712345,
          36.3165765
        ]
      },
      "properties": {
        "osm_type": "way",
        "osm_id": 1423526081,
        "sido": "대구광역시",
        "power_type": "generator",
        "name": "",
        "name_en": "",
        "plant_source": "solar",
        "plant_output": "yes",
        "plant_method": "photovoltaic",
        "operator": ""
      }
    },
    {
      "type": "Feature",
      "geometry": {
        "type": "Point",
        "coordinates": [
          128.4712068,
          36.3164295
        ]
      },
      "properties": {
        "osm_type": "way",
        "osm_id": 1423526082,
        "sido": "대구광역시",
        "power_type": "generator",
        "name": "",
        "name_en": "",
        "plant_source": "solar",
        "plant_output": "yes",
        "plant_method": "photovoltaic",
        "operator": ""
      }
    },
    {
      "type": "Feature",
      "geometry": {
        "type": "Point",
        "coordinates": [
          128.4710979,
          36.3162714
        ]
      },
      "properties": {
        "osm_type": "way",
        "osm_id": 1423526084,
        "sido": "대구광역시",
        "power_type": "generator",
        "name": "",
        "name_en": "",
        "plant_source": "solar",
        "plant_output": "yes",
        "plant_method": "photovoltaic",
        "operator": ""
      }
    },
    {
      "type": "Feature",
      "geometry": {
        "type": "Point",
        "coordinates": [
          128.4710313,
          36.3161475
        ]
      },
      "properties": {
        "osm_type": "way",
        "osm_id": 1423526085,
        "sido": "대구광역시",
        "power_type": "generator",
        "name": "",
        "name_en": "",
        "plant_source": "solar",
        "plant_output": "yes",
        "plant_method": "photovoltaic",
        "operator": ""
      }
    },
    {
      "type": "Feature",
      "geometry": {
        "type": "Point",
        "coordinates": [
          128.4709425,
          36.3160144
        ]
      },
      "properties": {
        "osm_type": "way",
        "osm_id": 1423526086,
        "sido": "대구광역시",
        "power_type": "generator",
        "name": "",
        "name_en": "",
        "plant_source": "solar",
        "plant_output": "yes",
        "plant_method": "photovoltaic",
        "operator": ""
      }
    },
    {
      "type": "Feature",
      "geometry": {
        "type": "Point",
        "coordinates": [
          128.4708464,
          36.3159352
        ]
      },
      "properties": {
        "osm_type": "way",
        "osm_id": 1423526087,
        "sido": "대구광역시",
        "power_type": "generator",
        "name": "",
        "name_en": "",
        "plant_source": "solar",
        "plant_output": "yes",
        "plant_method": "photovoltaic",
        "operator": ""
      }
    },
    {
      "type": "Feature",
      "geometry": {
        "type": "Point",
        "coordinates": [
          128.4708087,
          36.3158784
        ]
      },
      "properties": {
        "osm_type": "way",
        "osm_id": 1423526088,
        "sido": "대구광역시",
        "power_type": "generator",
        "name": "",
        "name_en": "",
        "plant_source": "solar",
        "plant_output": "yes",
        "plant_method": "photovoltaic",
        "operator": ""
      }
    },
    {
      "type": "Feature",
      "geometry": {
        "type": "Point",
        "coordinates": [
          128.4707847,
          36.3165118
        ]
      },
      "properties": {
        "osm_type": "way",
        "osm_id": 1423526089,
        "sido": "대구광역시",
        "power_type": "generator",
        "name": "",
        "name_en": "",
        "plant_source": "solar",
        "plant_output": "yes",
        "plant_method": "photovoltaic",
        "operator": ""
      }
    },
    {
      "type": "Feature",
      "geometry": {
        "type": "Point",
        "coordinates": [
          128.4707643,
          36.3163671
        ]
      },
      "properties": {
        "osm_type": "way",
        "osm_id": 1423526090,
        "sido": "대구광역시",
        "power_type": "generator",
        "name": "",
        "name_en": "",
        "plant_source": "solar",
        "plant_output": "yes",
        "plant_method": "photovoltaic",
        "operator": ""
      }
    },
    {
      "type": "Feature",
      "geometry": {
        "type": "Point",
        "coordinates": [
          128.4706932,
          36.3162258
        ]
      },
      "properties": {
        "osm_type": "way",
        "osm_id": 1423526093,
        "sido": "대구광역시",
        "power_type": "generator",
        "name": "",
        "name_en": "",
        "plant_source": "solar",
        "plant_output": "yes",
        "plant_method": "photovoltaic",
        "operator": ""
      }
    },
    {
      "type": "Feature",
      "geometry": {
        "type": "Point",
        "coordinates": [
          128.4706184,
          36.3160913
        ]
      },
      "properties": {
        "osm_type": "way",
        "osm_id": 1423526094,
        "sido": "대구광역시",
        "power_type": "generator",
        "name": "",
        "name_en": "",
        "plant_source": "solar",
        "plant_output": "yes",
        "plant_method": "photovoltaic",
        "operator": ""
      }
    },
    {
      "type": "Feature",
      "geometry": {
        "type": "Point",
        "coordinates": [
          128.4705655,
          36.3160023
        ]
      },
      "properties": {
        "osm_type": "way",
        "osm_id": 1423526109,
        "sido": "대구광역시",
        "power_type": "generator",
        "name": "",
        "name_en": "",
        "plant_source": "solar",
        "plant_output": "yes",
        "plant_method": "photovoltaic",
        "operator": ""
      }
    },
    {
      "type": "Feature",
      "geometry": {
        "type": "Point",
        "coordinates": [
          128.4709995,
          36.3163508
        ]
      },
      "properties": {
        "osm_type": "way",
        "osm_id": 1423526110,
        "sido": "대구광역시",
        "power_type": "plant",
        "name": "",
        "name_en": "",
        "plant_source": "solar",
        "plant_output": "",
        "plant_method": "",
        "operator": ""
      }
    },
    {
      "type": "Feature",
      "geometry": {
        "type": "Point",
        "coordinates": [
          128.4881193,
          35.8313992
        ]
      },
      "properties": {
        "osm_type": "way",
        "osm_id": 1432662085,
        "sido": "대구광역시",
        "power_type": "plant",
        "name": "",
        "name_en": "270MW Daegu Combined Heat and Power",
        "plant_source": "gas",
        "plant_output": "270 MW",
        "plant_method": "combustion",
        "operator": ""
      }
    },
    {
      "type": "Feature",
      "geometry": {
        "type": "Point",
        "coordinates": [
          128.6997364,
          36.0933477
        ]
      },
      "properties": {
        "osm_type": "way",
        "osm_id": 1441591384,
        "sido": "대구광역시",
        "power_type": "plant",
        "name": "",
        "name_en": "",
        "plant_source": "solar",
        "plant_output": "",
        "plant_method": "",
        "operator": ""
      }
    },
    {
      "type": "Feature",
      "geometry": {
        "type": "Point",
        "coordinates": [
          128.6721928,
          36.1097812
        ]
      },
      "properties": {
        "osm_type": "way",
        "osm_id": 1441591390,
        "sido": "대구광역시",
        "power_type": "plant",
        "name": "",
        "name_en": "",
        "plant_source": "solar",
        "plant_output": "",
        "plant_method": "",
        "operator": ""
      }
    },
    {
      "type": "Feature",
      "geometry": {
        "type": "Point",
        "coordinates": [
          128.6565026,
          35.9027147
        ]
      },
      "properties": {
        "osm_type": "way",
        "osm_id": 1461786409,
        "sido": "대구광역시",
        "power_type": "generator",
        "name": "",
        "name_en": "",
        "plant_source": "solar",
        "plant_output": "yes",
        "plant_method": "photovoltaic",
        "operator": ""
      }
    },
    {
      "type": "Feature",
      "geometry": {
        "type": "Point",
        "coordinates": [
          128.6564683,
          35.9025917
        ]
      },
      "properties": {
        "osm_type": "way",
        "osm_id": 1461786410,
        "sido": "대구광역시",
        "power_type": "generator",
        "name": "",
        "name_en": "",
        "plant_source": "solar",
        "plant_output": "yes",
        "plant_method": "photovoltaic",
        "operator": ""
      }
    }
  ]
}