{
  "type": "FeatureCollection",
  "features": [
    {
      "type": "Feature",
      "geometry": {
        "type": "Point",
        "coordinates": [
          127.2613751,
          36.4717807
        ]
      },
      "properties": {
        "osm_type": "way",
        "osm_id": 625604244,
        "sido": "세종특별자치시",
        "power_type": "plant",
        "name": "세종보",
        "name_en": "",
        "plant_source": "hydro",
        "plant_output": "",
        "plant_method": "",
        "operator": ""
      }
    },
    {
      "type": "Feature",
      "geometry": {
        "type": "Point",
        "coordinates": [
          127.2477266,
          36.4686879
        ]
      },
      "properties": {
        "osm_type": "way",
        "osm_id": 814635247,
        "sido": "세종특별자치시",
        "power_type": "plant",
        "name": "세종천연가스발전소",
        "name_en": "Sejong Power Plant",
        "plant_source": "gas",
        "plant_output": "530 MW",
        "plant_method": "combustion",
        "operator": "한국중부발전"
      }
    },
    {
      "type": "Feature",
      "geometry": {
        "type": "Point",
        "coordinates": [
          127.3002565,
          36.5886259
        ]
      },
      "properties": {
        "osm_type": "way",
        "osm_id": 844279747,
        "sido": "세종특별자치시",
        "power_type": "plant",
        "name": "한국가스공사 대전충청지역본부",
        "name_en": "Korea Gas Corporation Daejeon Chungcheong Regional Headquarters",
        "plant_source": "gas",
        "plant_output": "yes",
        "plant_method": "combustion",
        "operator": ""
      }
    },
    {
      "type": "Feature",
      "geometry": {
        "type": "Point",
        "coordinates": [
          127.2456908,
          36.4662511
        ]
      },
      "properties": {
        "osm_type": "way",
        "osm_id": 894856178,
        "sido": "세종특별자치시",
        "power_type": "plant",
        "name": "한국지역난방공사 세종지사",
        "name_en": "",
        "plant_source": "",
        "plant_output": "no",
        "plant_method": "combustion",
        "operator": ""
      }
    },
    {
      "type": "Feature",
      "geometry": {
        "type": "Point",
        "coordinates": [
          127.2425855,
          36.4662824
        ]
      },
      "properties": {
        "osm_type": "way",
        "osm_id": 1055496531,
        "sido": "세종특별자치시",
        "power_type": "plant",
        "name": "",
        "name_en": "",
        "plant_source": "solar",
        "plant_output": "yes",
        "plant_method": "photovoltaic",
        "operator": ""
      }
    },
    {
      "type": "Feature",
      "geometry": {
        "type": "Point",
        "coordinates": [
          127.3386823,
          36.5415102
        ]
      },
      "properties": {
        "osm_type": "way",
        "osm_id": 1146507686,
        "sido": "세종특별자치시",
        "power_type": "generator",
        "name": "",
        "name_en": "",
        "plant_source": "solar",
        "plant_output": "yes",
        "plant_method": "photovoltaic",
        "operator": ""
      }
    },
    {
      "type": "Feature",
      "geometry": {
        "type": "Point",
        "coordinates": [
          127.3384731,
          36.5412435
        ]
      },
      "properties": {
        "osm_type": "way",
        "osm_id": 1146507712,
        "sido": "세종특별자치시",
        "power_type": "generator",
        "name": "",
        "name_en": "",
        "plant_source": "solar",
        "plant_output": "yes",
        "plant_method": "photovoltaic",
        "operator": ""
      }
    },
    {
      "type": "Feature",
      "geometry": {
        "type": "Point",
        "coordinates": [
          127.3177391,
          36.5458165
        ]
      },
      "properties": {
        "osm_type": "way",
        "osm_id": 1153257871,
        "sido": "세종특별자치시",
        "power_type": "generator",
        "name": "",
        "name_en": "",
        "plant_source": "solar",
        "plant_output": "yes",
        "plant_method": "photovoltaic",
        "operator": ""
      }
    },
    {
      "type": "Feature",
      "geometry": {
        "type": "Point",
        "coordinates": [
          127.3174669,
          36.5457707
        ]
      },
      "properties": {
        "osm_type": "way",
        "osm_id": 1153257872,
        "sido": "세종특별자치시",
        "power_type": "generator",
        "name": "",
        "name_en": "",
        "plant_source": "solar",
        "plant_output": "yes",
        "plant_method": "photovoltaic",
        "operator": ""
      }
    },
    {
      "type": "Feature",
      "geometry": {
        "type": "Point",
        "coordinates": [
          127.3173593,
          36.5464099
        ]
      },
      "properties": {
        "osm_type": "way",
        "osm_id": 1153257873,
        "sido": "세종특별자치시",
        "power_type": "generator",
        "name": "",
        "name_en": "",
        "plant_source": "solar",
        "plant_output": "yes",
        "plant_method": "photovoltaic",
        "operator": ""
      }
    },
    {
      "type": "Feature",
      "geometry": {
        "type": "Point",
        "coordinates": [
          127.3176571,
          36.5463964
        ]
      },
      "properties": {
        "osm_type": "way",
        "osm_id": 1153257874,
        "sido": "세종특별자치시",
        "power_type": "generator",
        "name": "",
        "name_en": "",
        "plant_source": "solar",
        "plant_output": "yes",
        "plant_method": "photovoltaic",
        "operator": ""
      }
    },
    {
      "type": "Feature",
      "geometry": {
        "type": "Point",
        "coordinates": [
          127.3177959,
          36.5463884
        ]
      },
      "properties": {
        "osm_type": "way",
        "osm_id": 1153257875,
        "sido": "세종특별자치시",
        "power_type": "generator",
        "name": "",
        "name_en": "",
        "plant_source": "solar",
        "plant_output": "yes",
        "plant_method": "photovoltaic",
        "operator": ""
      }
    },
    {
      "type": "Feature",
      "geometry": {
        "type": "Point",
        "coordinates": [
          127.3417508,
          36.5428776
        ]
      },
      "properties": {
        "osm_type": "way",
        "osm_id": 1155180387,
        "sido": "세종특별자치시",
        "power_type": "generator",
        "name": "",
        "name_en": "",
        "plant_source": "solar",
        "plant_output": "yes",
        "plant_method": "photovoltaic",
        "operator": ""
      }
    },
    {
      "type": "Feature",
      "geometry": {
        "type": "Point",
        "coordinates": [
          127.3417844,
          36.5428318
        ]
      },
      "properties": {
        "osm_type": "way",
        "osm_id": 1155180394,
        "sido": "세종특별자치시",
        "power_type": "generator",
        "name": "",
        "name_en": "",
        "plant_source": "solar",
        "plant_output": "yes",
        "plant_method": "photovoltaic",
        "operator": ""
      }
    },
    {
      "type": "Feature",
      "geometry": {
        "type": "Point",
        "coordinates": [
          127.3418194,
          36.5427878
        ]
      },
      "properties": {
        "osm_type": "way",
        "osm_id": 1155180395,
        "sido": "세종특별자치시",
        "power_type": "generator",
        "name": "",
        "name_en": "",
        "plant_source": "solar",
        "plant_output": "yes",
        "plant_method": "photovoltaic",
        "operator": ""
      }
    },
    {
      "type": "Feature",
      "geometry": {
        "type": "Point",
        "coordinates": [
          127.2995569,
          36.4923164
        ]
      },
      "properties": {
        "osm_type": "way",
        "osm_id": 1241030744,
        "sido": "세종특별자치시",
        "power_type": "generator",
        "name": "",
        "name_en": "",
        "plant_source": "solar",
        "plant_output": "yes",
        "plant_method": "photovoltaic",
        "operator": ""
      }
    },
    {
      "type": "Feature",
      "geometry": {
        "type": "Point",
        "coordinates": [
          127.2996269,
          36.4922815
        ]
      },
      "properties": {
        "osm_type": "way",
        "osm_id": 1241030745,
        "sido": "세종특별자치시",
        "power_type": "generator",
        "name": "",
        "name_en": "",
        "plant_source": "solar",
        "plant_output": "yes",
        "plant_method": "photovoltaic",
        "operator": ""
      }
    },
    {
      "type": "Feature",
      "geometry": {
        "type": "Point",
        "coordinates": [
          127.2997229,
          36.4922246
        ]
      },
      "properties": {
        "osm_type": "way",
        "osm_id": 1241030746,
        "sido": "세종특별자치시",
        "power_type": "generator",
        "name": "",
        "name_en": "",
        "plant_source": "solar",
        "plant_output": "yes",
        "plant_method": "photovoltaic",
        "operator": ""
      }
    },
    {
      "type": "Feature",
      "geometry": {
        "type": "Point",
        "coordinates": [
          127.2999187,
          36.4927653
        ]
      },
      "properties": {
        "osm_type": "way",
        "osm_id": 1241030747,
        "sido": "세종특별자치시",
        "power_type": "generator",
        "name": "",
        "name_en": "",
        "plant_source": "solar",
        "plant_output": "yes",
        "plant_method": "photovoltaic",
        "operator": ""
      }
    },
    {
      "type": "Feature",
      "geometry": {
        "type": "Point",
        "coordinates": [
          127.2999976,
          36.4927244
        ]
      },
      "properties": {
        "osm_type": "way",
        "osm_id": 1241030748,
        "sido": "세종특별자치시",
        "power_type": "generator",
        "name": "",
        "name_en": "",
        "plant_source": "solar",
        "plant_output": "yes",
        "plant_method": "photovoltaic",
        "operator": ""
      }
    },
    {
      "type": "Feature",
      "geometry": {
        "type": "Point",
        "coordinates": [
          127.3001111,
          36.4926892
        ]
      },
      "properties": {
        "osm_type": "way",
        "osm_id": 1241030749,
        "sido": "세종특별자치시",
        "power_type": "generator",
        "name": "",
        "name_en": "",
        "plant_source": "solar",
        "plant_output": "yes",
        "plant_method": "photovoltaic",
        "operator": ""
      }
    },
    {
      "type": "Feature",
      "geometry": {
        "type": "Point",
        "coordinates": [
          127.2826246,
          36.5647177
        ]
      },
      "properties": {
        "osm_type": "way",
        "osm_id": 1256461615,
        "sido": "세종특별자치시",
        "power_type": "generator",
        "name": "",
        "name_en": "",
        "plant_source": "solar",
        "plant_output": "yes",
        "plant_method": "photovoltaic",
        "operator": ""
      }
    },
    {
      "type": "Feature",
      "geometry": {
        "type": "Point",
        "coordinates": [
          127.2283751,
          36.4857557
        ]
      },
      "properties": {
        "osm_type": "way",
        "osm_id": 1258662573,
        "sido": "세종특별자치시",
        "power_type": "plant",
        "name": "",
        "name_en": "",
        "plant_source": "solar",
        "plant_output": "yes",
        "plant_method": "photovoltaic",
        "operator": ""
      }
    },
    {
      "type": "Feature",
      "geometry": {
        "type": "Point",
        "coordinates": [
          127.2291563,
          36.4855468
        ]
      },
      "properties": {
        "osm_type": "way",
        "osm_id": 1258662574,
        "sido": "세종특별자치시",
        "power_type": "plant",
        "name": "",
        "name_en": "",
        "plant_source": "solar",
        "plant_output": "yes",
        "plant_method": "photovoltaic",
        "operator": ""
      }
    },
    {
      "type": "Feature",
      "geometry": {
        "type": "Point",
        "coordinates": [
          127.2311199,
          36.4849713
        ]
      },
      "properties": {
        "osm_type": "way",
        "osm_id": 1258662575,
        "sido": "세종특별자치시",
        "power_type": "plant",
        "name": "",
        "name_en": "",
        "plant_source": "solar",
        "plant_output": "yes",
        "plant_method": "photovoltaic",
        "operator": ""
      }
    },
    {
      "type": "Feature",
      "geometry": {
        "type": "Point",
        "coordinates": [
          127.2324263,
          36.4845079
        ]
      },
      "properties": {
        "osm_type": "way",
        "osm_id": 1258662576,
        "sido": "세종특별자치시",
        "power_type": "plant",
        "name": "",
        "name_en": "",
        "plant_source": "solar",
        "plant_output": "yes",
        "plant_method": "photovoltaic",
        "operator": ""
      }
    },
    {
      "type": "Feature",
      "geometry": {
        "type": "Point",
        "coordinates": [
          127.2344415,
          36.483664
        ]
      },
      "properties": {
        "osm_type": "way",
        "osm_id": 1258662577,
        "sido": "세종특별자치시",
        "power_type": "plant",
        "name": "",
        "name_en": "",
        "plant_source": "solar",
        "plant_output": "yes",
        "plant_method": "photovoltaic",
        "operator": ""
      }
    },
    {
      "type": "Feature",
      "geometry": {
        "type": "Point",
        "coordinates": [
          127.2271202,
          36.4956015
        ]
      },
      "properties": {
        "osm_type": "way",
        "osm_id": 1278647873,
        "sido": "세종특별자치시",
        "power_type": "plant",
        "name": "장군 열병합",
        "name_en": "",
        "plant_source": "biomass",
        "plant_output": "5 MW",
        "plant_method": "combustion",
        "operator": "세종그린파워"
      }
    },
    {
      "type": "Feature",
      "geometry": {
        "type": "Point",
        "coordinates": [
          127.2161872,
          36.6368807
        ]
      },
      "properties": {
        "osm_type": "way",
        "osm_id": 1281464949,
        "sido": "세종특별자치시",
        "power_type": "generator",
        "name": "",
        "name_en": "",
        "plant_source": "solar",
        "plant_output": "yes",
        "plant_method": "photovoltaic",
        "operator": ""
      }
    },
    {
      "type": "Feature",
      "geometry": {
        "type": "Point",
        "coordinates": [
          127.2990036,
          36.5273805
        ]
      },
      "properties": {
        "osm_type": "way",
        "osm_id": 1320227806,
        "sido": "세종특별자치시",
        "power_type": "plant",
        "name": "신세종 열병합",
        "name_en": "KOSPO Shinsejong Combined Cycle power station",
        "plant_source": "gas",
        "plant_output": "597.171 MW",
        "plant_method": "combustion",
        "operator": "한국남부발전"
      }
    },
    {
      "type": "Feature",
      "geometry": {
        "type": "Point",
        "coordinates": [
          127.233177,
          36.5311736
        ]
      },
      "properties": {
        "osm_type": "way",
        "osm_id": 1381063652,
        "sido": "세종특별자치시",
        "power_type": "plant",
        "name": "",
        "name_en": "",
        "plant_source": "solar",
        "plant_output": "yes",
        "plant_method": "photovoltaic",
        "operator": ""
      }
    },
    {
      "type": "Feature",
      "geometry": {
        "type": "Point",
        "coordinates": [
          127.3451658,
          36.5323899
        ]
      },
      "properties": {
        "osm_type": "way",
        "osm_id": 1458469307,
        "sido": "세종특별자치시",
        "power_type": "generator",
        "name": "",
        "name_en": "",
        "plant_source": "solar",
        "plant_output": "yes",
        "plant_method": "photovoltaic",
        "operator": ""
      }
    },
    {
      "type": "Feature",
      "geometry": {
        "type": "Point",
        "coordinates": [
          127.3452898,
          36.5325183
        ]
      },
      "properties": {
        "osm_type": "way",
        "osm_id": 1458469308,
        "sido": "세종특별자치시",
        "power_type": "generator",
        "name": "",
        "name_en": "",
        "plant_source": "solar",
        "plant_output": "yes",
        "plant_method": "photovoltaic",
        "operator": ""
      }
    },
    {
      "type": "Feature",
      "geometry": {
        "type": "Point",
        "coordinates": [
          127.3454208,
          36.5326289
        ]
      },
      "properties": {
        "osm_type": "way",
        "osm_id": 1458469309,
        "sido": "세종특별자치시",
        "power_type": "generator",
        "name": "",
        "name_en": "",
        "plant_source": "solar",
        "plant_output": "yes",
        "plant_method": "photovoltaic",
        "operator": ""
      }
    },
    {
      "type": "Feature",
      "geometry": {
        "type": "Point",
        "coordinates": [
          127.337587,
          36.5361931
        ]
      },
      "properties": {
        "osm_type": "way",
        "osm_id": 1459291182,
        "sido": "세종특별자치시",
        "power_type": "generator",
        "name": "",
        "name_en": "",
        "plant_source": "solar",
        "plant_output": "yes",
        "plant_method": "photovoltaic",
        "operator": ""
      }
    },
    {
      "type": "Feature",
      "geometry": {
        "type": "Point",
        "coordinates": [
          127.3210497,
          36.4737338
        ]
      },
      "properties": {
        "osm_type": "way",
        "osm_id": 1459562898,
        "sido": "세종특별자치시",
        "power_type": "generator",
        "name": "",
        "name_en": "",
        "plant_source": "solar",
        "plant_output": "yes",
        "plant_method": "photovoltaic",
        "operator": ""
      }
    },
    {
      "type": "Feature",
      "geometry": {
        "type": "Point",
        "coordinates": [
          127.3456049,
          36.479601
        ]
      },
      "properties": {
        "osm_type": "way",
        "osm_id": 1463905907,
        "sido": "세종특별자치시",
        "power_type": "plant",
        "name": "",
        "name_en": "",
        "plant_source": "solar",
        "plant_output": "yes",
        "plant_method": "photovoltaic",
        "operator": ""
      }
    },
    {
      "type": "Feature",
      "geometry": {
        "type": "Point",
        "coordinates": [
          127.3539066,
          36.4793575
        ]
      },
      "properties": {
        "osm_type": "way",
        "osm_id": 1464338522,
        "sido": "세종특별자치시",
        "power_type": "plant",
        "name": "",
        "name_en": "",
        "plant_source": "solar",
        "plant_output": "yes",
        "plant_method": "photovoltaic",
        "operator": ""
      }
    },
    {
      "type": "Feature",
      "geometry": {
        "type": "Point",
        "coordinates": [
          127.3164259,
          36.4423948
        ]
      },
      "properties": {
        "osm_type": "way",
        "osm_id": 1469460420,
        "sido": "세종특별자치시",
        "power_type": "plant",
        "name": "",
        "name_en": "",
        "plant_source": "solar",
        "plant_output": "yes",
        "plant_method": "photovoltaic",
        "operator": ""
      }
    },
    {
      "type": "Feature",
      "geometry": {
        "type": "Point",
        "coordinates": [
          127.3164515,
          36.4422481
        ]
      },
      "properties": {
        "osm_type": "way",
        "osm_id": 1469460421,
        "sido": "세종특별자치시",
        "power_type": "plant",
        "name": "",
        "name_en": "",
        "plant_source": "solar",
        "plant_output": "yes",
        "plant_method": "photovoltaic",
        "operator": ""
      }
    },
    {
      "type": "Feature",
      "geometry": {
        "type": "Point",
        "coordinates": [
          127.3054508,
          36.4395907
        ]
      },
      "properties": {
        "osm_type": "way",
        "osm_id": 1470010009,
        "sido": "세종특별자치시",
        "power_type": "plant",
        "name": "",
        "name_en": "",
        "plant_source": "solar",
        "plant_output": "yes",
        "plant_method": "photovoltaic",
        "operator": ""
      }
    },
    {
      "type": "Feature",
      "geometry": {
        "type": "Point",
        "coordinates": [
          127.2957885,
          36.4373767
        ]
      },
      "properties": {
        "osm_type": "way",
        "osm_id": 1470210341,
        "sido": "세종특별자치시",
        "power_type": "plant",
        "name": "",
        "name_en": "",
        "plant_source": "solar",
        "plant_output": "yes",
        "plant_method": "photovoltaic",
        "operator": ""
      }
    },
    {
      "type": "Feature",
      "geometry": {
        "type": "Point",
        "coordinates": [
          127.2784661,
          36.444851
        ]
      },
      "properties": {
        "osm_type": "way",
        "osm_id": 1474177748,
        "sido": "세종특별자치시",
        "power_type": "generator",
        "name": "",
        "name_en": "",
        "plant_source": "solar",
        "plant_output": "yes",
        "plant_method": "photovoltaic",
        "operator": ""
      }
    },
    {
      "type": "Feature",
      "geometry": {
        "type": "Point",
        "coordinates": [
          127.2775733,
          36.4448397
        ]
      },
      "properties": {
        "osm_type": "way",
        "osm_id": 1474409094,
        "sido": "세종특별자치시",
        "power_type": "generator",
        "name": "",
        "name_en": "",
        "plant_source": "solar",
        "plant_output": "yes",
        "plant_method": "photovoltaic",
        "operator": ""
      }
    },
    {
      "type": "Feature",
      "geometry": {
        "type": "Point",
        "coordinates": [
          127.2770864,
          36.4454185
        ]
      },
      "properties": {
        "osm_type": "way",
        "osm_id": 1474409112,
        "sido": "세종특별자치시",
        "power_type": "generator",
        "name": "",
        "name_en": "",
        "plant_source": "solar",
        "plant_output": "yes",
        "plant_method": "photovoltaic",
        "operator": ""
      }
    },
    {
      "type": "Feature",
      "geometry": {
        "type": "Point",
        "coordinates": [
          127.2772463,
          36.4454229
        ]
      },
      "properties": {
        "osm_type": "way",
        "osm_id": 1474409113,
        "sido": "세종특별자치시",
        "power_type": "generator",
        "name": "",
        "name_en": "",
        "plant_source": "solar",
        "plant_output": "yes",
        "plant_method": "photovoltaic",
        "operator": ""
      }
    },
    {
      "type": "Feature",
      "geometry": {
        "type": "Point",
        "coordinates": [
          127.2636045,
          36.4447391
        ]
      },
      "properties": {
        "osm_type": "way",
        "osm_id": 1476168726,
        "sido": "세종특별자치시",
        "power_type": "plant",
        "name": "",
        "name_en": "",
        "plant_source": "solar",
        "plant_output": "yes",
        "plant_method": "photovoltaic",
        "operator": ""
      }
    },
    {
      "type": "Feature",
      "geometry": {
        "type": "Point",
        "coordinates": [
          127.2637506,
          36.4445524
        ]
      },
      "properties": {
        "osm_type": "way",
        "osm_id": 1476168727,
        "sido": "세종특별자치시",
        "power_type": "plant",
        "name": "",
        "name_en": "",
        "plant_source": "solar",
        "plant_output": "yes",
        "plant_method": "photovoltaic",
        "operator": ""
      }
    },
    {
      "type": "Feature",
      "geometry": {
        "type": "Point",
        "coordinates": [
          127.2639011,
          36.4443826
        ]
      },
      "properties": {
        "osm_type": "way",
        "osm_id": 1476168728,
        "sido": "세종특별자치시",
        "power_type": "plant",
        "name": "",
        "name_en": "",
        "plant_source": "solar",
        "plant_output": "yes",
        "plant_method": "photovoltaic",
        "operator": ""
      }
    },
    {
      "type": "Feature",
      "geometry": {
        "type": "Point",
        "coordinates": [
          127.264325,
          36.4448727
        ]
      },
      "properties": {
        "osm_type": "way",
        "osm_id": 1476168743,
        "sido": "세종특별자치시",
        "power_type": "plant",
        "name": "",
        "name_en": "",
        "plant_source": "solar",
        "plant_output": "yes",
        "plant_method": "photovoltaic",
        "operator": ""
      }
    },
    {
      "type": "Feature",
      "geometry": {
        "type": "Point",
        "coordinates": [
          127.2644786,
          36.4449783
        ]
      },
      "properties": {
        "osm_type": "way",
        "osm_id": 1476168744,
        "sido": "세종특별자치시",
        "power_type": "plant",
        "name": "",
        "name_en": "",
        "plant_source": "solar",
        "plant_output": "yes",
        "plant_method": "photovoltaic",
        "operator": ""
      }
    },
    {
      "type": "Feature",
      "geometry": {
        "type": "Point",
        "coordinates": [
          127.2646329,
          36.4450802
        ]
      },
      "properties": {
        "osm_type": "way",
        "osm_id": 1476168745,
        "sido": "세종특별자치시",
        "power_type": "plant",
        "name": "",
        "name_en": "",
        "plant_source": "solar",
        "plant_output": "yes",
        "plant_method": "photovoltaic",
        "operator": ""
      }
    },
    {
      "type": "Feature",
      "geometry": {
        "type": "Point",
        "coordinates": [
          127.2641775,
          36.4447664
        ]
      },
      "properties": {
        "osm_type": "way",
        "osm_id": 1476168746,
        "sido": "세종특별자치시",
        "power_type": "plant",
        "name": "",
        "name_en": "",
        "plant_source": "solar",
        "plant_output": "yes",
        "plant_method": "photovoltaic",
        "operator": ""
      }
    },
    {
      "type": "Feature",
      "geometry": {
        "type": "Point",
        "coordinates": [
          127.264018,
          36.4446682
        ]
      },
      "properties": {
        "osm_type": "way",
        "osm_id": 1476168747,
        "sido": "세종특별자치시",
        "power_type": "plant",
        "name": "",
        "name_en": "",
        "plant_source": "solar",
        "plant_output": "yes",
        "plant_method": "photovoltaic",
        "operator": ""
      }
    },
    {
      "type": "Feature",
      "geometry": {
        "type": "Point",
        "coordinates": [
          127.2626489,
          36.4437138
        ]
      },
      "properties": {
        "osm_type": "way",
        "osm_id": 1476514608,
        "sido": "세종특별자치시",
        "power_type": "generator",
        "name": "",
        "name_en": "",
        "plant_source": "solar",
        "plant_output": "yes",
        "plant_method": "photovoltaic",
        "operator": ""
      }
    },
    {
      "type": "Feature",
      "geometry": {
        "type": "Point",
        "coordinates": [
          127.2628422,
          36.4435675
        ]
      },
      "properties": {
        "osm_type": "way",
        "osm_id": 1476514609,
        "sido": "세종특별자치시",
        "power_type": "generator",
        "name": "",
        "name_en": "",
        "plant_source": "solar",
        "plant_output": "yes",
        "plant_method": "photovoltaic",
        "operator": ""
      }
    },
    {
      "type": "Feature",
      "geometry": {
        "type": "Point",
        "coordinates": [
          127.2630002,
          36.4434744
        ]
      },
      "properties": {
        "osm_type": "way",
        "osm_id": 1476514610,
        "sido": "세종특별자치시",
        "power_type": "generator",
        "name": "",
        "name_en": "",
        "plant_source": "solar",
        "plant_output": "yes",
        "plant_method": "photovoltaic",
        "operator": ""
      }
    },
    {
      "type": "Feature",
      "geometry": {
        "type": "Point",
        "coordinates": [
          127.2630588,
          36.4433941
        ]
      },
      "properties": {
        "osm_type": "way",
        "osm_id": 1476514611,
        "sido": "세종특별자치시",
        "power_type": "generator",
        "name": "",
        "name_en": "",
        "plant_source": "solar",
        "plant_output": "yes",
        "plant_method": "photovoltaic",
        "operator": ""
      }
    },
    {
      "type": "Feature",
      "geometry": {
        "type": "Point",
        "coordinates": [
          127.263167,
          36.4432804
        ]
      },
      "properties": {
        "osm_type": "way",
        "osm_id": 1476514612,
        "sido": "세종특별자치시",
        "power_type": "generator",
        "name": "",
        "name_en": "",
        "plant_source": "solar",
        "plant_output": "yes",
        "plant_method": "photovoltaic",
        "operator": ""
      }
    },
    {
      "type": "Feature",
      "geometry": {
        "type": "Point",
        "coordinates": [
          127.2633395,
          36.443146
        ]
      },
      "properties": {
        "osm_type": "way",
        "osm_id": 1476514613,
        "sido": "세종특별자치시",
        "power_type": "generator",
        "name": "",
        "name_en": "",
        "plant_source": "solar",
        "plant_output": "yes",
        "plant_method": "photovoltaic",
        "operator": ""
      }
    },
    {
      "type": "Feature",
      "geometry": {
        "type": "Point",
        "coordinates": [
          127.2635147,
          36.4430103
        ]
      },
      "properties": {
        "osm_type": "way",
        "osm_id": 1476514614,
        "sido": "세종특별자치시",
        "power_type": "generator",
        "name": "",
        "name_en": "",
        "plant_source": "solar",
        "plant_output": "yes",
        "plant_method": "photovoltaic",
        "operator": ""
      }
    },
    {
      "type": "Feature",
      "geometry": {
        "type": "Point",
        "coordinates": [
          127.2636916,
          36.442876
        ]
      },
      "properties": {
        "osm_type": "way",
        "osm_id": 1476514615,
        "sido": "세종특별자치시",
        "power_type": "generator",
        "name": "",
        "name_en": "",
        "plant_source": "solar",
        "plant_output": "yes",
        "plant_method": "photovoltaic",
        "operator": ""
      }
    },
    {
      "type": "Feature",
      "geometry": {
        "type": "Point",
        "coordinates": [
          127.2638725,
          36.4427422
        ]
      },
      "properties": {
        "osm_type": "way",
        "osm_id": 1476514616,
        "sido": "세종특별자치시",
        "power_type": "generator",
        "name": "",
        "name_en": "",
        "plant_source": "solar",
        "plant_output": "yes",
        "plant_method": "photovoltaic",
        "operator": ""
      }
    },
    {
      "type": "Feature",
      "geometry": {
        "type": "Point",
        "coordinates": [
          127.263221,
          36.4428946
        ]
      },
      "properties": {
        "osm_type": "way",
        "osm_id": 1476514617,
        "sido": "세종특별자치시",
        "power_type": "generator",
        "name": "",
        "name_en": "",
        "plant_source": "solar",
        "plant_output": "yes",
        "plant_method": "photovoltaic",
        "operator": ""
      }
    },
    {
      "type": "Feature",
      "geometry": {
        "type": "Point",
        "coordinates": [
          127.2634057,
          36.4427592
        ]
      },
      "properties": {
        "osm_type": "way",
        "osm_id": 1476514618,
        "sido": "세종특별자치시",
        "power_type": "generator",
        "name": "",
        "name_en": "",
        "plant_source": "solar",
        "plant_output": "yes",
        "plant_method": "photovoltaic",
        "operator": ""
      }
    },
    {
      "type": "Feature",
      "geometry": {
        "type": "Point",
        "coordinates": [
          127.2635688,
          36.4426134
        ]
      },
      "properties": {
        "osm_type": "way",
        "osm_id": 1476514619,
        "sido": "세종특별자치시",
        "power_type": "generator",
        "name": "",
        "name_en": "",
        "plant_source": "solar",
        "plant_output": "yes",
        "plant_method": "photovoltaic",
        "operator": ""
      }
    },
    {
      "type": "Feature",
      "geometry": {
        "type": "Point",
        "coordinates": [
          127.2636633,
          36.442464
        ]
      },
      "properties": {
        "osm_type": "way",
        "osm_id": 1476514620,
        "sido": "세종특별자치시",
        "power_type": "generator",
        "name": "",
        "name_en": "",
        "plant_source": "solar",
        "plant_output": "yes",
        "plant_method": "photovoltaic",
        "operator": ""
      }
    },
    {
      "type": "Feature",
      "geometry": {
        "type": "Point",
        "coordinates": [
          127.2633155,
          36.4425618
        ]
      },
      "properties": {
        "osm_type": "way",
        "osm_id": 1476514621,
        "sido": "세종특별자치시",
        "power_type": "generator",
        "name": "",
        "name_en": "",
        "plant_source": "solar",
        "plant_output": "yes",
        "plant_method": "photovoltaic",
        "operator": ""
      }
    },
    {
      "type": "Feature",
      "geometry": {
        "type": "Point",
        "coordinates": [
          127.2631432,
          36.4427161
        ]
      },
      "properties": {
        "osm_type": "way",
        "osm_id": 1476514622,
        "sido": "세종특별자치시",
        "power_type": "generator",
        "name": "",
        "name_en": "",
        "plant_source": "solar",
        "plant_output": "yes",
        "plant_method": "photovoltaic",
        "operator": ""
      }
    }
  ]
}