{
  "type": "FeatureCollection",
  "features": [
    {
      "type": "Feature",
      "geometry": {
        "type": "Point",
        "coordinates": [
          129.3002283,
          35.3269145
        ]
      },
      "properties": {
        "osm_type": "node",
        "osm_id": 4057481685,
        "sido": "부산광역시",
        "power_type": "generator",
        "name": "신고리 1호기",
        "name_en": "SHIN-KORI-1",
        "plant_source": "nuclear",
        "plant_output": "996 MW",
        "plant_method": "fission",
        "operator": ""
      }
    },
    {
      "type": "Feature",
      "geometry": {
        "type": "Point",
        "coordinates": [
          129.3001705,
          35.3279601
        ]
      },
      "properties": {
        "osm_type": "node",
        "osm_id": 4057481686,
        "sido": "부산광역시",
        "power_type": "generator",
        "name": "신고리 2호기",
        "name_en": "SHIN-KORI-2",
        "plant_source": "nuclear",
        "plant_output": "996 MW",
        "plant_method": "fission",
        "operator": ""
      }
    },
    {
      "type": "Feature",
      "geometry": {
        "type": "Point",
        "coordinates": [
          129.2973769,
          35.3202289
        ]
      },
      "properties": {
        "osm_type": "node",
        "osm_id": 5747875464,
        "sido": "부산광역시",
        "power_type": "generator",
        "name": "고리 4호기",
        "name_en": "KORI-4",
        "plant_source": "nuclear",
        "plant_output": "1012 MW",
        "plant_method": "fission",
        "operator": ""
      }
    },
    {
      "type": "Feature",
      "geometry": {
        "type": "Point",
        "coordinates": [
          129.2946142,
          35.3202246
        ]
      },
      "properties": {
        "osm_type": "node",
        "osm_id": 5747875465,
        "sido": "부산광역시",
        "power_type": "generator",
        "name": "고리 3호기",
        "name_en": "KORI-3",
        "plant_source": "nuclear",
        "plant_output": "1011 MW",
        "plant_method": "fission",
        "operator": ""
      }
    },
    {
      "type": "Feature",
      "geometry": {
        "type": "Point",
        "coordinates": [
          129.2912507,
          35.3204959
        ]
      },
      "properties": {
        "osm_type": "node",
        "osm_id": 5747875466,
        "sido": "부산광역시",
        "power_type": "generator",
        "name": "고리 2호기",
        "name_en": "KORI-2",
        "plant_source": "nuclear",
        "plant_output": "640 MW",
        "plant_method": "fission",
        "operator": ""
      }
    },
    {
      "type": "Feature",
      "geometry": {
        "type": "Point",
        "coordinates": [
          129.2901778,
          35.3201808
        ]
      },
      "properties": {
        "osm_type": "node",
        "osm_id": 5747875467,
        "sido": "부산광역시",
        "power_type": "generator",
        "name": "고리 1호기",
        "name_en": "KORI-1",
        "plant_source": "nuclear",
        "plant_output": "576 MW",
        "plant_method": "fission",
        "operator": ""
      }
    },
    {
      "type": "Feature",
      "geometry": {
        "type": "Point",
        "coordinates": [
          129.2945532,
          35.3351116
        ]
      },
      "properties": {
        "osm_type": "node",
        "osm_id": 6501529107,
        "sido": "부산광역시",
        "power_type": "generator",
        "name": "",
        "name_en": "",
        "plant_source": "wind",
        "plant_output": "0.75 MW",
        "plant_method": "wind_turbine",
        "operator": "한국수력원자력"
      }
    },
    {
      "type": "Feature",
      "geometry": {
        "type": "Point",
        "coordinates": [
          129.2955077,
          35.3284614
        ]
      },
      "properties": {
        "osm_type": "way",
        "osm_id": 403402694,
        "sido": "부산광역시",
        "power_type": "plant",
        "name": "고리원자력발전소",
        "name_en": "Kori Nuclear Power Plant",
        "plant_source": "nuclear",
        "plant_output": "7489 MW",
        "plant_method": "fission",
        "operator": "한국수력원자력"
      }
    },
    {
      "type": "Feature",
      "geometry": {
        "type": "Point",
        "coordinates": [
          128.8788704,
          35.1332754
        ]
      },
      "properties": {
        "osm_type": "way",
        "osm_id": 415803270,
        "sido": "부산광역시",
        "power_type": "plant",
        "name": "부산생곡(서희) LFG",
        "name_en": "",
        "plant_source": "biogas",
        "plant_output": "3.174 MW",
        "plant_method": "anaerobic_digestion",
        "operator": "서희건설"
      }
    },
    {
      "type": "Feature",
      "geometry": {
        "type": "Point",
        "coordinates": [
          129.2997772,
          35.3355895
        ]
      },
      "properties": {
        "osm_type": "way",
        "osm_id": 692533547,
        "sido": "부산광역시",
        "power_type": "generator",
        "name": "",
        "name_en": "",
        "plant_source": "solar",
        "plant_output": "yes",
        "plant_method": "photovoltaic",
        "operator": ""
      }
    },
    {
      "type": "Feature",
      "geometry": {
        "type": "Point",
        "coordinates": [
          129.2992958,
          35.3360993
        ]
      },
      "properties": {
        "osm_type": "way",
        "osm_id": 692533548,
        "sido": "부산광역시",
        "power_type": "generator",
        "name": "",
        "name_en": "",
        "plant_source": "solar",
        "plant_output": "yes",
        "plant_method": "photovoltaic",
        "operator": ""
      }
    },
    {
      "type": "Feature",
      "geometry": {
        "type": "Point",
        "coordinates": [
          128.869464,
          35.0976746
        ]
      },
      "properties": {
        "osm_type": "way",
        "osm_id": 708567081,
        "sido": "부산광역시",
        "power_type": "generator",
        "name": "",
        "name_en": "",
        "plant_source": "solar",
        "plant_output": "yes",
        "plant_method": "photovoltaic",
        "operator": ""
      }
    },
    {
      "type": "Feature",
      "geometry": {
        "type": "Point",
        "coordinates": [
          128.8699321,
          35.0976711
        ]
      },
      "properties": {
        "osm_type": "way",
        "osm_id": 708567082,
        "sido": "부산광역시",
        "power_type": "generator",
        "name": "",
        "name_en": "",
        "plant_source": "solar",
        "plant_output": "yes",
        "plant_method": "photovoltaic",
        "operator": ""
      }
    },
    {
      "type": "Feature",
      "geometry": {
        "type": "Point",
        "coordinates": [
          128.8694557,
          35.0972522
        ]
      },
      "properties": {
        "osm_type": "way",
        "osm_id": 708567083,
        "sido": "부산광역시",
        "power_type": "generator",
        "name": "",
        "name_en": "",
        "plant_source": "solar",
        "plant_output": "yes",
        "plant_method": "photovoltaic",
        "operator": ""
      }
    },
    {
      "type": "Feature",
      "geometry": {
        "type": "Point",
        "coordinates": [
          128.8699238,
          35.0972488
        ]
      },
      "properties": {
        "osm_type": "way",
        "osm_id": 708567084,
        "sido": "부산광역시",
        "power_type": "generator",
        "name": "",
        "name_en": "",
        "plant_source": "solar",
        "plant_output": "yes",
        "plant_method": "photovoltaic",
        "operator": ""
      }
    },
    {
      "type": "Feature",
      "geometry": {
        "type": "Point",
        "coordinates": [
          128.8694552,
          35.0968237
        ]
      },
      "properties": {
        "osm_type": "way",
        "osm_id": 708567085,
        "sido": "부산광역시",
        "power_type": "generator",
        "name": "",
        "name_en": "",
        "plant_source": "solar",
        "plant_output": "yes",
        "plant_method": "photovoltaic",
        "operator": ""
      }
    },
    {
      "type": "Feature",
      "geometry": {
        "type": "Point",
        "coordinates": [
          128.8699233,
          35.0968203
        ]
      },
      "properties": {
        "osm_type": "way",
        "osm_id": 708567086,
        "sido": "부산광역시",
        "power_type": "generator",
        "name": "",
        "name_en": "",
        "plant_source": "solar",
        "plant_output": "yes",
        "plant_method": "photovoltaic",
        "operator": ""
      }
    },
    {
      "type": "Feature",
      "geometry": {
        "type": "Point",
        "coordinates": [
          128.8694535,
          35.0951254
        ]
      },
      "properties": {
        "osm_type": "way",
        "osm_id": 708567087,
        "sido": "부산광역시",
        "power_type": "generator",
        "name": "",
        "name_en": "",
        "plant_source": "solar",
        "plant_output": "yes",
        "plant_method": "photovoltaic",
        "operator": ""
      }
    },
    {
      "type": "Feature",
      "geometry": {
        "type": "Point",
        "coordinates": [
          128.8699216,
          35.095122
        ]
      },
      "properties": {
        "osm_type": "way",
        "osm_id": 708567088,
        "sido": "부산광역시",
        "power_type": "generator",
        "name": "",
        "name_en": "",
        "plant_source": "solar",
        "plant_output": "yes",
        "plant_method": "photovoltaic",
        "operator": ""
      }
    },
    {
      "type": "Feature",
      "geometry": {
        "type": "Point",
        "coordinates": [
          128.8704671,
          35.0951216
        ]
      },
      "properties": {
        "osm_type": "way",
        "osm_id": 708567089,
        "sido": "부산광역시",
        "power_type": "generator",
        "name": "",
        "name_en": "",
        "plant_source": "solar",
        "plant_output": "yes",
        "plant_method": "photovoltaic",
        "operator": ""
      }
    },
    {
      "type": "Feature",
      "geometry": {
        "type": "Point",
        "coordinates": [
          128.8710588,
          35.0951243
        ]
      },
      "properties": {
        "osm_type": "way",
        "osm_id": 708567090,
        "sido": "부산광역시",
        "power_type": "generator",
        "name": "",
        "name_en": "",
        "plant_source": "solar",
        "plant_output": "yes",
        "plant_method": "photovoltaic",
        "operator": ""
      }
    },
    {
      "type": "Feature",
      "geometry": {
        "type": "Point",
        "coordinates": [
          128.8704717,
          35.0955467
        ]
      },
      "properties": {
        "osm_type": "way",
        "osm_id": 708567091,
        "sido": "부산광역시",
        "power_type": "generator",
        "name": "",
        "name_en": "",
        "plant_source": "solar",
        "plant_output": "yes",
        "plant_method": "photovoltaic",
        "operator": ""
      }
    },
    {
      "type": "Feature",
      "geometry": {
        "type": "Point",
        "coordinates": [
          128.8710634,
          35.0955495
        ]
      },
      "properties": {
        "osm_type": "way",
        "osm_id": 708567092,
        "sido": "부산광역시",
        "power_type": "generator",
        "name": "",
        "name_en": "",
        "plant_source": "solar",
        "plant_output": "yes",
        "plant_method": "photovoltaic",
        "operator": ""
      }
    },
    {
      "type": "Feature",
      "geometry": {
        "type": "Point",
        "coordinates": [
          128.870466,
          35.0959765
        ]
      },
      "properties": {
        "osm_type": "way",
        "osm_id": 708567093,
        "sido": "부산광역시",
        "power_type": "generator",
        "name": "",
        "name_en": "",
        "plant_source": "solar",
        "plant_output": "yes",
        "plant_method": "photovoltaic",
        "operator": ""
      }
    },
    {
      "type": "Feature",
      "geometry": {
        "type": "Point",
        "coordinates": [
          128.8710577,
          35.0959792
        ]
      },
      "properties": {
        "osm_type": "way",
        "osm_id": 708567094,
        "sido": "부산광역시",
        "power_type": "generator",
        "name": "",
        "name_en": "",
        "plant_source": "solar",
        "plant_output": "yes",
        "plant_method": "photovoltaic",
        "operator": ""
      }
    },
    {
      "type": "Feature",
      "geometry": {
        "type": "Point",
        "coordinates": [
          128.870466,
          35.0968286
        ]
      },
      "properties": {
        "osm_type": "way",
        "osm_id": 708567095,
        "sido": "부산광역시",
        "power_type": "generator",
        "name": "",
        "name_en": "",
        "plant_source": "solar",
        "plant_output": "yes",
        "plant_method": "photovoltaic",
        "operator": ""
      }
    },
    {
      "type": "Feature",
      "geometry": {
        "type": "Point",
        "coordinates": [
          128.8710531,
          35.0968313
        ]
      },
      "properties": {
        "osm_type": "way",
        "osm_id": 708567096,
        "sido": "부산광역시",
        "power_type": "generator",
        "name": "",
        "name_en": "",
        "plant_source": "solar",
        "plant_output": "yes",
        "plant_method": "photovoltaic",
        "operator": ""
      }
    },
    {
      "type": "Feature",
      "geometry": {
        "type": "Point",
        "coordinates": [
          128.8704619,
          35.0963496
        ]
      },
      "properties": {
        "osm_type": "way",
        "osm_id": 708567097,
        "sido": "부산광역시",
        "power_type": "generator",
        "name": "",
        "name_en": "",
        "plant_source": "solar",
        "plant_output": "yes",
        "plant_method": "photovoltaic",
        "operator": ""
      }
    },
    {
      "type": "Feature",
      "geometry": {
        "type": "Point",
        "coordinates": [
          128.8710577,
          35.0964065
        ]
      },
      "properties": {
        "osm_type": "way",
        "osm_id": 708567098,
        "sido": "부산광역시",
        "power_type": "generator",
        "name": "",
        "name_en": "",
        "plant_source": "solar",
        "plant_output": "yes",
        "plant_method": "photovoltaic",
        "operator": ""
      }
    },
    {
      "type": "Feature",
      "geometry": {
        "type": "Point",
        "coordinates": [
          128.8704676,
          35.0972508
        ]
      },
      "properties": {
        "osm_type": "way",
        "osm_id": 708567099,
        "sido": "부산광역시",
        "power_type": "generator",
        "name": "",
        "name_en": "",
        "plant_source": "solar",
        "plant_output": "yes",
        "plant_method": "photovoltaic",
        "operator": ""
      }
    },
    {
      "type": "Feature",
      "geometry": {
        "type": "Point",
        "coordinates": [
          128.8710592,
          35.0972536
        ]
      },
      "properties": {
        "osm_type": "way",
        "osm_id": 708567100,
        "sido": "부산광역시",
        "power_type": "generator",
        "name": "",
        "name_en": "",
        "plant_source": "solar",
        "plant_output": "yes",
        "plant_method": "photovoltaic",
        "operator": ""
      }
    },
    {
      "type": "Feature",
      "geometry": {
        "type": "Point",
        "coordinates": [
          128.8704706,
          35.097673
        ]
      },
      "properties": {
        "osm_type": "way",
        "osm_id": 708567101,
        "sido": "부산광역시",
        "power_type": "generator",
        "name": "",
        "name_en": "",
        "plant_source": "solar",
        "plant_output": "yes",
        "plant_method": "photovoltaic",
        "operator": ""
      }
    },
    {
      "type": "Feature",
      "geometry": {
        "type": "Point",
        "coordinates": [
          128.8709009,
          35.0976735
        ]
      },
      "properties": {
        "osm_type": "way",
        "osm_id": 708567102,
        "sido": "부산광역시",
        "power_type": "generator",
        "name": "",
        "name_en": "",
        "plant_source": "solar",
        "plant_output": "yes",
        "plant_method": "photovoltaic",
        "operator": ""
      }
    },
    {
      "type": "Feature",
      "geometry": {
        "type": "Point",
        "coordinates": [
          128.8711766,
          35.089707
        ]
      },
      "properties": {
        "osm_type": "way",
        "osm_id": 709004159,
        "sido": "부산광역시",
        "power_type": "generator",
        "name": "",
        "name_en": "",
        "plant_source": "solar",
        "plant_output": "yes",
        "plant_method": "photovoltaic",
        "operator": ""
      }
    },
    {
      "type": "Feature",
      "geometry": {
        "type": "Point",
        "coordinates": [
          128.8711781,
          35.0895518
        ]
      },
      "properties": {
        "osm_type": "way",
        "osm_id": 709004160,
        "sido": "부산광역시",
        "power_type": "generator",
        "name": "",
        "name_en": "",
        "plant_source": "solar",
        "plant_output": "yes",
        "plant_method": "photovoltaic",
        "operator": ""
      }
    },
    {
      "type": "Feature",
      "geometry": {
        "type": "Point",
        "coordinates": [
          128.8711781,
          35.0893955
        ]
      },
      "properties": {
        "osm_type": "way",
        "osm_id": 709004161,
        "sido": "부산광역시",
        "power_type": "generator",
        "name": "",
        "name_en": "",
        "plant_source": "solar",
        "plant_output": "yes",
        "plant_method": "photovoltaic",
        "operator": ""
      }
    },
    {
      "type": "Feature",
      "geometry": {
        "type": "Point",
        "coordinates": [
          128.8718568,
          35.089705
        ]
      },
      "properties": {
        "osm_type": "way",
        "osm_id": 709004162,
        "sido": "부산광역시",
        "power_type": "generator",
        "name": "",
        "name_en": "",
        "plant_source": "solar",
        "plant_output": "yes",
        "plant_method": "photovoltaic",
        "operator": ""
      }
    },
    {
      "type": "Feature",
      "geometry": {
        "type": "Point",
        "coordinates": [
          128.8718583,
          35.0895499
        ]
      },
      "properties": {
        "osm_type": "way",
        "osm_id": 709004163,
        "sido": "부산광역시",
        "power_type": "generator",
        "name": "",
        "name_en": "",
        "plant_source": "solar",
        "plant_output": "yes",
        "plant_method": "photovoltaic",
        "operator": ""
      }
    },
    {
      "type": "Feature",
      "geometry": {
        "type": "Point",
        "coordinates": [
          128.8718583,
          35.0893936
        ]
      },
      "properties": {
        "osm_type": "way",
        "osm_id": 709004164,
        "sido": "부산광역시",
        "power_type": "generator",
        "name": "",
        "name_en": "",
        "plant_source": "solar",
        "plant_output": "yes",
        "plant_method": "photovoltaic",
        "operator": ""
      }
    },
    {
      "type": "Feature",
      "geometry": {
        "type": "Point",
        "coordinates": [
          128.8734373,
          35.0897103
        ]
      },
      "properties": {
        "osm_type": "way",
        "osm_id": 709004165,
        "sido": "부산광역시",
        "power_type": "generator",
        "name": "",
        "name_en": "",
        "plant_source": "solar",
        "plant_output": "yes",
        "plant_method": "photovoltaic",
        "operator": ""
      }
    },
    {
      "type": "Feature",
      "geometry": {
        "type": "Point",
        "coordinates": [
          128.8734389,
          35.0895552
        ]
      },
      "properties": {
        "osm_type": "way",
        "osm_id": 709004166,
        "sido": "부산광역시",
        "power_type": "generator",
        "name": "",
        "name_en": "",
        "plant_source": "solar",
        "plant_output": "yes",
        "plant_method": "photovoltaic",
        "operator": ""
      }
    },
    {
      "type": "Feature",
      "geometry": {
        "type": "Point",
        "coordinates": [
          128.8734389,
          35.0893989
        ]
      },
      "properties": {
        "osm_type": "way",
        "osm_id": 709004167,
        "sido": "부산광역시",
        "power_type": "generator",
        "name": "",
        "name_en": "",
        "plant_source": "solar",
        "plant_output": "yes",
        "plant_method": "photovoltaic",
        "operator": ""
      }
    },
    {
      "type": "Feature",
      "geometry": {
        "type": "Point",
        "coordinates": [
          128.8741175,
          35.0897084
        ]
      },
      "properties": {
        "osm_type": "way",
        "osm_id": 709004168,
        "sido": "부산광역시",
        "power_type": "generator",
        "name": "",
        "name_en": "",
        "plant_source": "solar",
        "plant_output": "yes",
        "plant_method": "photovoltaic",
        "operator": ""
      }
    },
    {
      "type": "Feature",
      "geometry": {
        "type": "Point",
        "coordinates": [
          128.874119,
          35.0895533
        ]
      },
      "properties": {
        "osm_type": "way",
        "osm_id": 709004169,
        "sido": "부산광역시",
        "power_type": "generator",
        "name": "",
        "name_en": "",
        "plant_source": "solar",
        "plant_output": "yes",
        "plant_method": "photovoltaic",
        "operator": ""
      }
    },
    {
      "type": "Feature",
      "geometry": {
        "type": "Point",
        "coordinates": [
          128.874119,
          35.089397
        ]
      },
      "properties": {
        "osm_type": "way",
        "osm_id": 709004170,
        "sido": "부산광역시",
        "power_type": "generator",
        "name": "",
        "name_en": "",
        "plant_source": "solar",
        "plant_output": "yes",
        "plant_method": "photovoltaic",
        "operator": ""
      }
    },
    {
      "type": "Feature",
      "geometry": {
        "type": "Point",
        "coordinates": [
          128.8755776,
          35.0897117
        ]
      },
      "properties": {
        "osm_type": "way",
        "osm_id": 709004171,
        "sido": "부산광역시",
        "power_type": "generator",
        "name": "",
        "name_en": "",
        "plant_source": "solar",
        "plant_output": "yes",
        "plant_method": "photovoltaic",
        "operator": ""
      }
    },
    {
      "type": "Feature",
      "geometry": {
        "type": "Point",
        "coordinates": [
          128.8755791,
          35.0895566
        ]
      },
      "properties": {
        "osm_type": "way",
        "osm_id": 709004172,
        "sido": "부산광역시",
        "power_type": "generator",
        "name": "",
        "name_en": "",
        "plant_source": "solar",
        "plant_output": "yes",
        "plant_method": "photovoltaic",
        "operator": ""
      }
    },
    {
      "type": "Feature",
      "geometry": {
        "type": "Point",
        "coordinates": [
          128.8755791,
          35.0894003
        ]
      },
      "properties": {
        "osm_type": "way",
        "osm_id": 709004173,
        "sido": "부산광역시",
        "power_type": "generator",
        "name": "",
        "name_en": "",
        "plant_source": "solar",
        "plant_output": "yes",
        "plant_method": "photovoltaic",
        "operator": ""
      }
    },
    {
      "type": "Feature",
      "geometry": {
        "type": "Point",
        "coordinates": [
          128.8762578,
          35.0897098
        ]
      },
      "properties": {
        "osm_type": "way",
        "osm_id": 709004174,
        "sido": "부산광역시",
        "power_type": "generator",
        "name": "",
        "name_en": "",
        "plant_source": "solar",
        "plant_output": "yes",
        "plant_method": "photovoltaic",
        "operator": ""
      }
    },
    {
      "type": "Feature",
      "geometry": {
        "type": "Point",
        "coordinates": [
          128.8762593,
          35.0895548
        ]
      },
      "properties": {
        "osm_type": "way",
        "osm_id": 709004175,
        "sido": "부산광역시",
        "power_type": "generator",
        "name": "",
        "name_en": "",
        "plant_source": "solar",
        "plant_output": "yes",
        "plant_method": "photovoltaic",
        "operator": ""
      }
    },
    {
      "type": "Feature",
      "geometry": {
        "type": "Point",
        "coordinates": [
          128.8762593,
          35.0893984
        ]
      },
      "properties": {
        "osm_type": "way",
        "osm_id": 709004176,
        "sido": "부산광역시",
        "power_type": "generator",
        "name": "",
        "name_en": "",
        "plant_source": "solar",
        "plant_output": "yes",
        "plant_method": "photovoltaic",
        "operator": ""
      }
    },
    {
      "type": "Feature",
      "geometry": {
        "type": "Point",
        "coordinates": [
          128.8725359,
          35.0897048
        ]
      },
      "properties": {
        "osm_type": "way",
        "osm_id": 709004177,
        "sido": "부산광역시",
        "power_type": "generator",
        "name": "",
        "name_en": "",
        "plant_source": "solar",
        "plant_output": "yes",
        "plant_method": "photovoltaic",
        "operator": ""
      }
    },
    {
      "type": "Feature",
      "geometry": {
        "type": "Point",
        "coordinates": [
          128.8725375,
          35.0895497
        ]
      },
      "properties": {
        "osm_type": "way",
        "osm_id": 709004178,
        "sido": "부산광역시",
        "power_type": "generator",
        "name": "",
        "name_en": "",
        "plant_source": "solar",
        "plant_output": "yes",
        "plant_method": "photovoltaic",
        "operator": ""
      }
    },
    {
      "type": "Feature",
      "geometry": {
        "type": "Point",
        "coordinates": [
          128.8725375,
          35.0893934
        ]
      },
      "properties": {
        "osm_type": "way",
        "osm_id": 709004179,
        "sido": "부산광역시",
        "power_type": "generator",
        "name": "",
        "name_en": "",
        "plant_source": "solar",
        "plant_output": "yes",
        "plant_method": "photovoltaic",
        "operator": ""
      }
    },
    {
      "type": "Feature",
      "geometry": {
        "type": "Point",
        "coordinates": [
          128.874815,
          35.0897105
        ]
      },
      "properties": {
        "osm_type": "way",
        "osm_id": 709004180,
        "sido": "부산광역시",
        "power_type": "generator",
        "name": "",
        "name_en": "",
        "plant_source": "solar",
        "plant_output": "yes",
        "plant_method": "photovoltaic",
        "operator": ""
      }
    },
    {
      "type": "Feature",
      "geometry": {
        "type": "Point",
        "coordinates": [
          128.8748165,
          35.0895556
        ]
      },
      "properties": {
        "osm_type": "way",
        "osm_id": 709004181,
        "sido": "부산광역시",
        "power_type": "generator",
        "name": "",
        "name_en": "",
        "plant_source": "solar",
        "plant_output": "yes",
        "plant_method": "photovoltaic",
        "operator": ""
      }
    },
    {
      "type": "Feature",
      "geometry": {
        "type": "Point",
        "coordinates": [
          128.8748165,
          35.0893992
        ]
      },
      "properties": {
        "osm_type": "way",
        "osm_id": 709004182,
        "sido": "부산광역시",
        "power_type": "generator",
        "name": "",
        "name_en": "",
        "plant_source": "solar",
        "plant_output": "yes",
        "plant_method": "photovoltaic",
        "operator": ""
      }
    },
    {
      "type": "Feature",
      "geometry": {
        "type": "Point",
        "coordinates": [
          128.871992,
          35.0976451
        ]
      },
      "properties": {
        "osm_type": "way",
        "osm_id": 709262313,
        "sido": "부산광역시",
        "power_type": "generator",
        "name": "",
        "name_en": "",
        "plant_source": "solar",
        "plant_output": "yes",
        "plant_method": "photovoltaic",
        "operator": ""
      }
    },
    {
      "type": "Feature",
      "geometry": {
        "type": "Point",
        "coordinates": [
          128.8725141,
          35.0976437
        ]
      },
      "properties": {
        "osm_type": "way",
        "osm_id": 709262314,
        "sido": "부산광역시",
        "power_type": "generator",
        "name": "",
        "name_en": "",
        "plant_source": "solar",
        "plant_output": "yes",
        "plant_method": "photovoltaic",
        "operator": ""
      }
    },
    {
      "type": "Feature",
      "geometry": {
        "type": "Point",
        "coordinates": [
          128.8730532,
          35.0976408
        ]
      },
      "properties": {
        "osm_type": "way",
        "osm_id": 709262315,
        "sido": "부산광역시",
        "power_type": "generator",
        "name": "",
        "name_en": "",
        "plant_source": "solar",
        "plant_output": "yes",
        "plant_method": "photovoltaic",
        "operator": ""
      }
    },
    {
      "type": "Feature",
      "geometry": {
        "type": "Point",
        "coordinates": [
          128.8735754,
          35.0976395
        ]
      },
      "properties": {
        "osm_type": "way",
        "osm_id": 709262316,
        "sido": "부산광역시",
        "power_type": "generator",
        "name": "",
        "name_en": "",
        "plant_source": "solar",
        "plant_output": "yes",
        "plant_method": "photovoltaic",
        "operator": ""
      }
    },
    {
      "type": "Feature",
      "geometry": {
        "type": "Point",
        "coordinates": [
          128.8719884,
          35.0969244
        ]
      },
      "properties": {
        "osm_type": "way",
        "osm_id": 709262317,
        "sido": "부산광역시",
        "power_type": "generator",
        "name": "",
        "name_en": "",
        "plant_source": "solar",
        "plant_output": "yes",
        "plant_method": "photovoltaic",
        "operator": ""
      }
    },
    {
      "type": "Feature",
      "geometry": {
        "type": "Point",
        "coordinates": [
          128.8725106,
          35.096923
        ]
      },
      "properties": {
        "osm_type": "way",
        "osm_id": 709262318,
        "sido": "부산광역시",
        "power_type": "generator",
        "name": "",
        "name_en": "",
        "plant_source": "solar",
        "plant_output": "yes",
        "plant_method": "photovoltaic",
        "operator": ""
      }
    },
    {
      "type": "Feature",
      "geometry": {
        "type": "Point",
        "coordinates": [
          128.8719848,
          35.0962132
        ]
      },
      "properties": {
        "osm_type": "way",
        "osm_id": 709262319,
        "sido": "부산광역시",
        "power_type": "generator",
        "name": "",
        "name_en": "",
        "plant_source": "solar",
        "plant_output": "yes",
        "plant_method": "photovoltaic",
        "operator": ""
      }
    },
    {
      "type": "Feature",
      "geometry": {
        "type": "Point",
        "coordinates": [
          128.872507,
          35.0962118
        ]
      },
      "properties": {
        "osm_type": "way",
        "osm_id": 709262320,
        "sido": "부산광역시",
        "power_type": "generator",
        "name": "",
        "name_en": "",
        "plant_source": "solar",
        "plant_output": "yes",
        "plant_method": "photovoltaic",
        "operator": ""
      }
    },
    {
      "type": "Feature",
      "geometry": {
        "type": "Point",
        "coordinates": [
          128.8719845,
          35.0954421
        ]
      },
      "properties": {
        "osm_type": "way",
        "osm_id": 709262321,
        "sido": "부산광역시",
        "power_type": "generator",
        "name": "",
        "name_en": "",
        "plant_source": "solar",
        "plant_output": "yes",
        "plant_method": "photovoltaic",
        "operator": ""
      }
    },
    {
      "type": "Feature",
      "geometry": {
        "type": "Point",
        "coordinates": [
          128.8725093,
          35.0954401
        ]
      },
      "properties": {
        "osm_type": "way",
        "osm_id": 709262322,
        "sido": "부산광역시",
        "power_type": "generator",
        "name": "",
        "name_en": "",
        "plant_source": "solar",
        "plant_output": "yes",
        "plant_method": "photovoltaic",
        "operator": ""
      }
    },
    {
      "type": "Feature",
      "geometry": {
        "type": "Point",
        "coordinates": [
          128.8730577,
          35.0969248
        ]
      },
      "properties": {
        "osm_type": "way",
        "osm_id": 709262323,
        "sido": "부산광역시",
        "power_type": "generator",
        "name": "",
        "name_en": "",
        "plant_source": "solar",
        "plant_output": "yes",
        "plant_method": "photovoltaic",
        "operator": ""
      }
    },
    {
      "type": "Feature",
      "geometry": {
        "type": "Point",
        "coordinates": [
          128.8735798,
          35.0969234
        ]
      },
      "properties": {
        "osm_type": "way",
        "osm_id": 709262324,
        "sido": "부산광역시",
        "power_type": "generator",
        "name": "",
        "name_en": "",
        "plant_source": "solar",
        "plant_output": "yes",
        "plant_method": "photovoltaic",
        "operator": ""
      }
    },
    {
      "type": "Feature",
      "geometry": {
        "type": "Point",
        "coordinates": [
          128.8730554,
          35.0962161
        ]
      },
      "properties": {
        "osm_type": "way",
        "osm_id": 709262325,
        "sido": "부산광역시",
        "power_type": "generator",
        "name": "",
        "name_en": "",
        "plant_source": "solar",
        "plant_output": "yes",
        "plant_method": "photovoltaic",
        "operator": ""
      }
    },
    {
      "type": "Feature",
      "geometry": {
        "type": "Point",
        "coordinates": [
          128.8735775,
          35.0962147
        ]
      },
      "properties": {
        "osm_type": "way",
        "osm_id": 709262326,
        "sido": "부산광역시",
        "power_type": "generator",
        "name": "",
        "name_en": "",
        "plant_source": "solar",
        "plant_output": "yes",
        "plant_method": "photovoltaic",
        "operator": ""
      }
    },
    {
      "type": "Feature",
      "geometry": {
        "type": "Point",
        "coordinates": [
          128.8741225,
          35.096921
        ]
      },
      "properties": {
        "osm_type": "way",
        "osm_id": 709262327,
        "sido": "부산광역시",
        "power_type": "generator",
        "name": "",
        "name_en": "",
        "plant_source": "solar",
        "plant_output": "yes",
        "plant_method": "photovoltaic",
        "operator": ""
      }
    },
    {
      "type": "Feature",
      "geometry": {
        "type": "Point",
        "coordinates": [
          128.8746446,
          35.0969196
        ]
      },
      "properties": {
        "osm_type": "way",
        "osm_id": 709262328,
        "sido": "부산광역시",
        "power_type": "generator",
        "name": "",
        "name_en": "",
        "plant_source": "solar",
        "plant_output": "yes",
        "plant_method": "photovoltaic",
        "operator": ""
      }
    },
    {
      "type": "Feature",
      "geometry": {
        "type": "Point",
        "coordinates": [
          128.8741179,
          35.0962121
        ]
      },
      "properties": {
        "osm_type": "way",
        "osm_id": 709262329,
        "sido": "부산광역시",
        "power_type": "generator",
        "name": "",
        "name_en": "",
        "plant_source": "solar",
        "plant_output": "yes",
        "plant_method": "photovoltaic",
        "operator": ""
      }
    },
    {
      "type": "Feature",
      "geometry": {
        "type": "Point",
        "coordinates": [
          128.87464,
          35.0962108
        ]
      },
      "properties": {
        "osm_type": "way",
        "osm_id": 709262330,
        "sido": "부산광역시",
        "power_type": "generator",
        "name": "",
        "name_en": "",
        "plant_source": "solar",
        "plant_output": "yes",
        "plant_method": "photovoltaic",
        "operator": ""
      }
    },
    {
      "type": "Feature",
      "geometry": {
        "type": "Point",
        "coordinates": [
          128.8752423,
          35.0969156
        ]
      },
      "properties": {
        "osm_type": "way",
        "osm_id": 709262331,
        "sido": "부산광역시",
        "power_type": "generator",
        "name": "",
        "name_en": "",
        "plant_source": "solar",
        "plant_output": "yes",
        "plant_method": "photovoltaic",
        "operator": ""
      }
    },
    {
      "type": "Feature",
      "geometry": {
        "type": "Point",
        "coordinates": [
          128.8758781,
          35.0969146
        ]
      },
      "properties": {
        "osm_type": "way",
        "osm_id": 709262332,
        "sido": "부산광역시",
        "power_type": "generator",
        "name": "",
        "name_en": "",
        "plant_source": "solar",
        "plant_output": "yes",
        "plant_method": "photovoltaic",
        "operator": ""
      }
    },
    {
      "type": "Feature",
      "geometry": {
        "type": "Point",
        "coordinates": [
          128.8730461,
          35.0954426
        ]
      },
      "properties": {
        "osm_type": "way",
        "osm_id": 709262333,
        "sido": "부산광역시",
        "power_type": "generator",
        "name": "",
        "name_en": "",
        "plant_source": "solar",
        "plant_output": "yes",
        "plant_method": "photovoltaic",
        "operator": ""
      }
    },
    {
      "type": "Feature",
      "geometry": {
        "type": "Point",
        "coordinates": [
          128.8735707,
          35.0954407
        ]
      },
      "properties": {
        "osm_type": "way",
        "osm_id": 709262334,
        "sido": "부산광역시",
        "power_type": "generator",
        "name": "",
        "name_en": "",
        "plant_source": "solar",
        "plant_output": "yes",
        "plant_method": "photovoltaic",
        "operator": ""
      }
    },
    {
      "type": "Feature",
      "geometry": {
        "type": "Point",
        "coordinates": [
          128.8741093,
          35.0954393
        ]
      },
      "properties": {
        "osm_type": "way",
        "osm_id": 709262335,
        "sido": "부산광역시",
        "power_type": "generator",
        "name": "",
        "name_en": "",
        "plant_source": "solar",
        "plant_output": "yes",
        "plant_method": "photovoltaic",
        "operator": ""
      }
    },
    {
      "type": "Feature",
      "geometry": {
        "type": "Point",
        "coordinates": [
          128.8746339,
          35.0954374
        ]
      },
      "properties": {
        "osm_type": "way",
        "osm_id": 709262336,
        "sido": "부산광역시",
        "power_type": "generator",
        "name": "",
        "name_en": "",
        "plant_source": "solar",
        "plant_output": "yes",
        "plant_method": "photovoltaic",
        "operator": ""
      }
    },
    {
      "type": "Feature",
      "geometry": {
        "type": "Point",
        "coordinates": [
          128.8752381,
          35.0962012
        ]
      },
      "properties": {
        "osm_type": "way",
        "osm_id": 709262337,
        "sido": "부산광역시",
        "power_type": "generator",
        "name": "",
        "name_en": "",
        "plant_source": "solar",
        "plant_output": "yes",
        "plant_method": "photovoltaic",
        "operator": ""
      }
    },
    {
      "type": "Feature",
      "geometry": {
        "type": "Point",
        "coordinates": [
          128.8758739,
          35.0962002
        ]
      },
      "properties": {
        "osm_type": "way",
        "osm_id": 709262338,
        "sido": "부산광역시",
        "power_type": "generator",
        "name": "",
        "name_en": "",
        "plant_source": "solar",
        "plant_output": "yes",
        "plant_method": "photovoltaic",
        "operator": ""
      }
    },
    {
      "type": "Feature",
      "geometry": {
        "type": "Point",
        "coordinates": [
          128.8752389,
          35.0954367
        ]
      },
      "properties": {
        "osm_type": "way",
        "osm_id": 709262339,
        "sido": "부산광역시",
        "power_type": "generator",
        "name": "",
        "name_en": "",
        "plant_source": "solar",
        "plant_output": "yes",
        "plant_method": "photovoltaic",
        "operator": ""
      }
    },
    {
      "type": "Feature",
      "geometry": {
        "type": "Point",
        "coordinates": [
          128.8758783,
          35.0954329
        ]
      },
      "properties": {
        "osm_type": "way",
        "osm_id": 709262340,
        "sido": "부산광역시",
        "power_type": "generator",
        "name": "",
        "name_en": "",
        "plant_source": "solar",
        "plant_output": "yes",
        "plant_method": "photovoltaic",
        "operator": ""
      }
    },
    {
      "type": "Feature",
      "geometry": {
        "type": "Point",
        "coordinates": [
          128.8752387,
          35.0976349
        ]
      },
      "properties": {
        "osm_type": "way",
        "osm_id": 709262341,
        "sido": "부산광역시",
        "power_type": "generator",
        "name": "",
        "name_en": "",
        "plant_source": "solar",
        "plant_output": "yes",
        "plant_method": "photovoltaic",
        "operator": ""
      }
    },
    {
      "type": "Feature",
      "geometry": {
        "type": "Point",
        "coordinates": [
          128.8756424,
          35.0976339
        ]
      },
      "properties": {
        "osm_type": "way",
        "osm_id": 709262342,
        "sido": "부산광역시",
        "power_type": "generator",
        "name": "",
        "name_en": "",
        "plant_source": "solar",
        "plant_output": "yes",
        "plant_method": "photovoltaic",
        "operator": ""
      }
    },
    {
      "type": "Feature",
      "geometry": {
        "type": "Point",
        "coordinates": [
          128.8742338,
          35.0983823
        ]
      },
      "properties": {
        "osm_type": "way",
        "osm_id": 709262343,
        "sido": "부산광역시",
        "power_type": "generator",
        "name": "",
        "name_en": "",
        "plant_source": "solar",
        "plant_output": "yes",
        "plant_method": "photovoltaic",
        "operator": ""
      }
    },
    {
      "type": "Feature",
      "geometry": {
        "type": "Point",
        "coordinates": [
          128.8770884,
          35.0973916
        ]
      },
      "properties": {
        "osm_type": "way",
        "osm_id": 710607470,
        "sido": "부산광역시",
        "power_type": "generator",
        "name": "",
        "name_en": "",
        "plant_source": "solar",
        "plant_output": "yes",
        "plant_method": "photovoltaic",
        "operator": ""
      }
    },
    {
      "type": "Feature",
      "geometry": {
        "type": "Point",
        "coordinates": [
          128.8770898,
          35.0970201
        ]
      },
      "properties": {
        "osm_type": "way",
        "osm_id": 710607471,
        "sido": "부산광역시",
        "power_type": "generator",
        "name": "",
        "name_en": "",
        "plant_source": "solar",
        "plant_output": "yes",
        "plant_method": "photovoltaic",
        "operator": ""
      }
    },
    {
      "type": "Feature",
      "geometry": {
        "type": "Point",
        "coordinates": [
          128.8770814,
          35.0966578
        ]
      },
      "properties": {
        "osm_type": "way",
        "osm_id": 710607472,
        "sido": "부산광역시",
        "power_type": "generator",
        "name": "",
        "name_en": "",
        "plant_source": "solar",
        "plant_output": "yes",
        "plant_method": "photovoltaic",
        "operator": ""
      }
    },
    {
      "type": "Feature",
      "geometry": {
        "type": "Point",
        "coordinates": [
          128.8776416,
          35.096977
        ]
      },
      "properties": {
        "osm_type": "way",
        "osm_id": 710607473,
        "sido": "부산광역시",
        "power_type": "generator",
        "name": "",
        "name_en": "",
        "plant_source": "solar",
        "plant_output": "yes",
        "plant_method": "photovoltaic",
        "operator": ""
      }
    },
    {
      "type": "Feature",
      "geometry": {
        "type": "Point",
        "coordinates": [
          128.8778731,
          35.0970163
        ]
      },
      "properties": {
        "osm_type": "way",
        "osm_id": 710607474,
        "sido": "부산광역시",
        "power_type": "generator",
        "name": "",
        "name_en": "",
        "plant_source": "solar",
        "plant_output": "yes",
        "plant_method": "photovoltaic",
        "operator": ""
      }
    },
    {
      "type": "Feature",
      "geometry": {
        "type": "Point",
        "coordinates": [
          128.877133,
          35.0960623
        ]
      },
      "properties": {
        "osm_type": "way",
        "osm_id": 710607476,
        "sido": "부산광역시",
        "power_type": "generator",
        "name": "",
        "name_en": "",
        "plant_source": "solar",
        "plant_output": "yes",
        "plant_method": "photovoltaic",
        "operator": ""
      }
    },
    {
      "type": "Feature",
      "geometry": {
        "type": "Point",
        "coordinates": [
          128.8840343,
          35.0952729
        ]
      },
      "properties": {
        "osm_type": "way",
        "osm_id": 710607478,
        "sido": "부산광역시",
        "power_type": "generator",
        "name": "",
        "name_en": "",
        "plant_source": "solar",
        "plant_output": "yes",
        "plant_method": "photovoltaic",
        "operator": ""
      }
    },
    {
      "type": "Feature",
      "geometry": {
        "type": "Point",
        "coordinates": [
          128.8812239,
          35.0952167
        ]
      },
      "properties": {
        "osm_type": "way",
        "osm_id": 710607482,
        "sido": "부산광역시",
        "power_type": "generator",
        "name": "",
        "name_en": "",
        "plant_source": "solar",
        "plant_output": "yes",
        "plant_method": "photovoltaic",
        "operator": ""
      }
    },
    {
      "type": "Feature",
      "geometry": {
        "type": "Point",
        "coordinates": [
          128.8816846,
          35.0952184
        ]
      },
      "properties": {
        "osm_type": "way",
        "osm_id": 710607483,
        "sido": "부산광역시",
        "power_type": "generator",
        "name": "",
        "name_en": "",
        "plant_source": "solar",
        "plant_output": "yes",
        "plant_method": "photovoltaic",
        "operator": ""
      }
    },
    {
      "type": "Feature",
      "geometry": {
        "type": "Point",
        "coordinates": [
          128.9010434,
          35.1200308
        ]
      },
      "properties": {
        "osm_type": "way",
        "osm_id": 718053045,
        "sido": "부산광역시",
        "power_type": "generator",
        "name": "",
        "name_en": "",
        "plant_source": "solar",
        "plant_output": "yes",
        "plant_method": "photovoltaic",
        "operator": ""
      }
    },
    {
      "type": "Feature",
      "geometry": {
        "type": "Point",
        "coordinates": [
          128.9004418,
          35.1202031
        ]
      },
      "properties": {
        "osm_type": "way",
        "osm_id": 718053046,
        "sido": "부산광역시",
        "power_type": "generator",
        "name": "",
        "name_en": "",
        "plant_source": "solar",
        "plant_output": "yes",
        "plant_method": "photovoltaic",
        "operator": ""
      }
    },
    {
      "type": "Feature",
      "geometry": {
        "type": "Point",
        "coordinates": [
          129.000384,
          35.0866591
        ]
      },
      "properties": {
        "osm_type": "way",
        "osm_id": 814562057,
        "sido": "부산광역시",
        "power_type": "plant",
        "name": "부산복합화력발전소",
        "name_en": "Busan Power Plant",
        "plant_source": "gas",
        "plant_output": "1800 MW",
        "plant_method": "combustion",
        "operator": "한국남부발전"
      }
    },
    {
      "type": "Feature",
      "geometry": {
        "type": "Point",
        "coordinates": [
          129.3008678,
          35.3274761
        ]
      },
      "properties": {
        "osm_type": "way",
        "osm_id": 1035905414,
        "sido": "부산광역시",
        "power_type": "plant",
        "name": "",
        "name_en": "",
        "plant_source": "nuclear",
        "plant_output": "yes",
        "plant_method": "fission",
        "operator": ""
      }
    },
    {
      "type": "Feature",
      "geometry": {
        "type": "Point",
        "coordinates": [
          129.1779294,
          35.3150106
        ]
      },
      "properties": {
        "osm_type": "way",
        "osm_id": 1093230879,
        "sido": "부산광역시",
        "power_type": "plant",
        "name": "",
        "name_en": "Busan Jeonggwan (JungKwan) Energy power station",
        "plant_source": "gas",
        "plant_output": "yes",
        "plant_method": "combustion",
        "operator": "부산정관에너지(주)"
      }
    },
    {
      "type": "Feature",
      "geometry": {
        "type": "Point",
        "coordinates": [
          129.0333745,
          35.1392986
        ]
      },
      "properties": {
        "osm_type": "way",
        "osm_id": 1117955575,
        "sido": "부산광역시",
        "power_type": "generator",
        "name": "",
        "name_en": "",
        "plant_source": "",
        "plant_output": "",
        "plant_method": "",
        "operator": ""
      }
    },
    {
      "type": "Feature",
      "geometry": {
        "type": "Point",
        "coordinates": [
          128.954429,
          35.0888741
        ]
      },
      "properties": {
        "osm_type": "way",
        "osm_id": 1150110416,
        "sido": "부산광역시",
        "power_type": "plant",
        "name": "",
        "name_en": "",
        "plant_source": "",
        "plant_output": "",
        "plant_method": "",
        "operator": ""
      }
    },
    {
      "type": "Feature",
      "geometry": {
        "type": "Point",
        "coordinates": [
          129.1202947,
          35.1891497
        ]
      },
      "properties": {
        "osm_type": "way",
        "osm_id": 1186121867,
        "sido": "부산광역시",
        "power_type": "plant",
        "name": "",
        "name_en": "",
        "plant_source": "solar",
        "plant_output": "yes",
        "plant_method": "photovoltaic",
        "operator": ""
      }
    },
    {
      "type": "Feature",
      "geometry": {
        "type": "Point",
        "coordinates": [
          129.3050819,
          35.3314331
        ]
      },
      "properties": {
        "osm_type": "way",
        "osm_id": 1270612915,
        "sido": "부산광역시",
        "power_type": "generator",
        "name": "",
        "name_en": "",
        "plant_source": "solar",
        "plant_output": "yes",
        "plant_method": "photovoltaic",
        "operator": ""
      }
    },
    {
      "type": "Feature",
      "geometry": {
        "type": "Point",
        "coordinates": [
          129.3021506,
          35.337054
        ]
      },
      "properties": {
        "osm_type": "way",
        "osm_id": 1270612987,
        "sido": "부산광역시",
        "power_type": "generator",
        "name": "",
        "name_en": "",
        "plant_source": "solar",
        "plant_output": "yes",
        "plant_method": "photovoltaic",
        "operator": ""
      }
    },
    {
      "type": "Feature",
      "geometry": {
        "type": "Point",
        "coordinates": [
          129.3007839,
          35.3373992
        ]
      },
      "properties": {
        "osm_type": "way",
        "osm_id": 1270612988,
        "sido": "부산광역시",
        "power_type": "generator",
        "name": "",
        "name_en": "",
        "plant_source": "solar",
        "plant_output": "yes",
        "plant_method": "photovoltaic",
        "operator": ""
      }
    },
    {
      "type": "Feature",
      "geometry": {
        "type": "Point",
        "coordinates": [
          129.3018656,
          35.3356182
        ]
      },
      "properties": {
        "osm_type": "way",
        "osm_id": 1270612989,
        "sido": "부산광역시",
        "power_type": "generator",
        "name": "",
        "name_en": "",
        "plant_source": "solar",
        "plant_output": "yes",
        "plant_method": "photovoltaic",
        "operator": ""
      }
    },
    {
      "type": "Feature",
      "geometry": {
        "type": "Point",
        "coordinates": [
          129.2995777,
          35.3372241
        ]
      },
      "properties": {
        "osm_type": "way",
        "osm_id": 1270612990,
        "sido": "부산광역시",
        "power_type": "generator",
        "name": "",
        "name_en": "",
        "plant_source": "solar",
        "plant_output": "yes",
        "plant_method": "photovoltaic",
        "operator": ""
      }
    },
    {
      "type": "Feature",
      "geometry": {
        "type": "Point",
        "coordinates": [
          129.3013341,
          35.3346243
        ]
      },
      "properties": {
        "osm_type": "way",
        "osm_id": 1270612991,
        "sido": "부산광역시",
        "power_type": "generator",
        "name": "",
        "name_en": "",
        "plant_source": "solar",
        "plant_output": "yes",
        "plant_method": "photovoltaic",
        "operator": ""
      }
    },
    {
      "type": "Feature",
      "geometry": {
        "type": "Point",
        "coordinates": [
          129.3002693,
          35.3347634
        ]
      },
      "properties": {
        "osm_type": "way",
        "osm_id": 1270612992,
        "sido": "부산광역시",
        "power_type": "generator",
        "name": "",
        "name_en": "",
        "plant_source": "solar",
        "plant_output": "yes",
        "plant_method": "photovoltaic",
        "operator": ""
      }
    },
    {
      "type": "Feature",
      "geometry": {
        "type": "Point",
        "coordinates": [
          129.2994229,
          35.3345821
        ]
      },
      "properties": {
        "osm_type": "way",
        "osm_id": 1270612993,
        "sido": "부산광역시",
        "power_type": "generator",
        "name": "",
        "name_en": "",
        "plant_source": "solar",
        "plant_output": "yes",
        "plant_method": "photovoltaic",
        "operator": ""
      }
    },
    {
      "type": "Feature",
      "geometry": {
        "type": "Point",
        "coordinates": [
          129.1148162,
          35.1857031
        ]
      },
      "properties": {
        "osm_type": "way",
        "osm_id": 1278444579,
        "sido": "부산광역시",
        "power_type": "plant",
        "name": "수영하수처리장 소수력",
        "name_en": "",
        "plant_source": "hydro",
        "plant_output": "0.02 MW",
        "plant_method": "run-of-the-river",
        "operator": "리오에너지"
      }
    },
    {
      "type": "Feature",
      "geometry": {
        "type": "Point",
        "coordinates": [
          128.9603659,
          35.0504478
        ]
      },
      "properties": {
        "osm_type": "way",
        "osm_id": 1278664367,
        "sido": "부산광역시",
        "power_type": "plant",
        "name": "부산다대 소각장 바이오",
        "name_en": "",
        "plant_source": "biomass",
        "plant_output": "0.768 MW",
        "plant_method": "combustion",
        "operator": "부산환경공단"
      }
    },
    {
      "type": "Feature",
      "geometry": {
        "type": "Point",
        "coordinates": [
          128.8757445,
          35.1284967
        ]
      },
      "properties": {
        "osm_type": "way",
        "osm_id": 1278664369,
        "sido": "부산광역시",
        "power_type": "plant",
        "name": "부산생곡(파낙스) LFG",
        "name_en": "",
        "plant_source": "biogas",
        "plant_output": "3.174 MW",
        "plant_method": "anaerobic_digestion",
        "operator": "파낙스에너지"
      }
    },
    {
      "type": "Feature",
      "geometry": {
        "type": "Point",
        "coordinates": [
          128.8872822,
          35.1043435
        ]
      },
      "properties": {
        "osm_type": "way",
        "osm_id": 1278712514,
        "sido": "부산광역시",
        "power_type": "plant",
        "name": "부산 연료전지",
        "name_en": "",
        "plant_source": "gas",
        "plant_output": "5.6 MW",
        "plant_method": "fuel_cell",
        "operator": "TPP"
      }
    },
    {
      "type": "Feature",
      "geometry": {
        "type": "Point",
        "coordinates": [
          128.9895418,
          35.1687266
        ]
      },
      "properties": {
        "osm_type": "way",
        "osm_id": 1292820116,
        "sido": "부산광역시",
        "power_type": "generator",
        "name": "",
        "name_en": "",
        "plant_source": "solar",
        "plant_output": "yes",
        "plant_method": "photovoltaic",
        "operator": ""
      }
    },
    {
      "type": "Feature",
      "geometry": {
        "type": "Point",
        "coordinates": [
          128.9602036,
          35.2174475
        ]
      },
      "properties": {
        "osm_type": "way",
        "osm_id": 1327434518,
        "sido": "부산광역시",
        "power_type": "generator",
        "name": "",
        "name_en": "",
        "plant_source": "solar",
        "plant_output": "yes",
        "plant_method": "photovoltaic",
        "operator": ""
      }
    },
    {
      "type": "Feature",
      "geometry": {
        "type": "Point",
        "coordinates": [
          128.9601313,
          35.2177574
        ]
      },
      "properties": {
        "osm_type": "way",
        "osm_id": 1327434519,
        "sido": "부산광역시",
        "power_type": "generator",
        "name": "",
        "name_en": "",
        "plant_source": "solar",
        "plant_output": "yes",
        "plant_method": "photovoltaic",
        "operator": ""
      }
    },
    {
      "type": "Feature",
      "geometry": {
        "type": "Point",
        "coordinates": [
          128.9599811,
          35.2177854
        ]
      },
      "properties": {
        "osm_type": "way",
        "osm_id": 1327434520,
        "sido": "부산광역시",
        "power_type": "generator",
        "name": "",
        "name_en": "",
        "plant_source": "solar",
        "plant_output": "yes",
        "plant_method": "photovoltaic",
        "operator": ""
      }
    },
    {
      "type": "Feature",
      "geometry": {
        "type": "Point",
        "coordinates": [
          128.9600907,
          35.2178287
        ]
      },
      "properties": {
        "osm_type": "way",
        "osm_id": 1327434521,
        "sido": "부산광역시",
        "power_type": "generator",
        "name": "",
        "name_en": "",
        "plant_source": "solar",
        "plant_output": "yes",
        "plant_method": "photovoltaic",
        "operator": ""
      }
    },
    {
      "type": "Feature",
      "geometry": {
        "type": "Point",
        "coordinates": [
          128.9604109,
          35.2178183
        ]
      },
      "properties": {
        "osm_type": "way",
        "osm_id": 1327434522,
        "sido": "부산광역시",
        "power_type": "generator",
        "name": "",
        "name_en": "",
        "plant_source": "solar",
        "plant_output": "yes",
        "plant_method": "photovoltaic",
        "operator": ""
      }
    }
  ]
}