{
  "type": "FeatureCollection",
  "features": [
    {
      "type": "Feature",
      "geometry": {
        "type": "LineString",
        "coordinates": [
          [
            127.3782757,
            36.3801593
          ],
          [
            127.3804316,
            36.3802922
          ],
          [
            127.3817263,
            36.3817031
          ],
          [
            127.3840171,
            36.3838682
          ],
          [
            127.3852679,
            36.3857807
          ],
          [
            127.3851751,
            36.3870533
          ],
          [
            127.3849039,
            36.3896092
          ],
          [
            127.3834594,
            36.3935947
          ],
          [
            127.3840922,
            36.3955705
          ],
          [
            127.3838682,
            36.3976814
          ],
          [
            127.3834879,
            36.4009381
          ],
          [
            127.383276,
            36.4026973
          ],
          [
            127.3831871,
            36.403435
          ],
          [
            127.3814386,
            36.4063858
          ],
          [
            127.3809203,
            36.4095528
          ],
          [
            127.3804609,
            36.4121167
          ],
          [
            127.3799061,
            36.4144981
          ]
        ]
      },
      "properties": {
        "osm_type": "way",
        "osm_id": 48738587,
        "sido": "대전광역시",
        "power_type": "line",
        "name": "",
        "description": "",
        "voltage": "154000",
        "cables": "6",
        "circuits": "2",
        "frequency": "",
        "operator": "KoreaNet",
        "wires": "quad"
      }
    },
    {
      "type": "Feature",
      "geometry": {
        "type": "LineString",
        "coordinates": [
          [
            126.7897816,
            36.4658833
          ],
          [
            126.7930874,
            36.4667154
          ],
          [
            126.7969224,
            36.4677224
          ],
          [
            126.8009499,
            36.4687235
          ],
          [
            126.8053647,
            36.4698382
          ],
          [
            126.8088705,
            36.4706943
          ],
          [
            126.8134229,
            36.4698815
          ],
          [
            126.816164,
            36.4693651
          ],
          [
            126.8231704,
            36.4680896
          ],
          [
            126.8269274,
            36.467374
          ],
          [
            126.8306332,
            36.4665061
          ],
          [
            126.8340847,
            36.4656638
          ],
          [
            126.8366703,
            36.4650138
          ],
          [
            126.8385029,
            36.4645906
          ],
          [
            126.8411256,
            36.463938
          ],
          [
            126.8435174,
            36.4633433
          ],
          [
            126.846755,
            36.4625393
          ],
          [
            126.8497936,
            36.4621248
          ],
          [
            126.854673,
            36.4613714
          ],
          [
            126.8590842,
            36.4615452
          ],
          [
            126.8645074,
            36.4617797
          ],
          [
            126.8677021,
            36.4619023
          ],
          [
            126.8727666,
            36.4621307
          ],
          [
            126.8799588,
            36.4623891
          ],
          [
            126.8841064,
            36.4625626
          ],
          [
            126.8880131,
            36.4621323
          ],
          [
            126.8920877,
            36.4616514
          ],
          [
            126.8967428,
            36.4611076
          ],
          [
            126.8996192,
            36.4601686
          ],
          [
            126.9037166,
            36.4588685
          ],
          [
            126.9067881,
            36.456284
          ],
          [
            126.9096163,
            36.4539163
          ],
          [
            126.9119627,
            36.4519612
          ],
          [
            126.9140974,
            36.4501595
          ],
          [
            126.9155652,
            36.4489206
          ],
          [
            126.9179159,
            36.446878
          ],
          [
            126.9203064,
            36.4435396
          ],
          [
            126.9224746,
            36.4403718
          ],
          [
            126.9244308,
            36.4376497
          ],
          [
            126.925074,
            36.4358554
          ],
          [
            126.9261582,
            36.4325279
          ],
          [
            126.9269086,
            36.430263
          ],
          [
            126.9280147,
            36.4270636
          ],
          [
            126.9293173,
            36.4229701
          ],
          [
            126.930825,
            36.4184134
          ],
          [
            126.9317677,
            36.4156503
          ],
          [
            126.9327272,
            36.4126994
          ],
          [
            126.9362065,
            36.4099063
          ],
          [
            126.9386528,
            36.4079802
          ],
          [
            126.9414471,
            36.4057234
          ],
          [
            126.9439962,
            36.4036777
          ],
          [
            126.9483089,
            36.4012638
          ],
          [
            126.9533622,
            36.3984356
          ],
          [
            126.9576216,
            36.3960608
          ],
          [
            126.9609153,
            36.3942299
          ],
          [
            126.9631952,
            36.3929604
          ],
          [
            126.9660866,
            36.391341
          ],
          [
            126.9692023,
            36.3897061
          ],
          [
            126.9730452,
            36.3873054
          ],
          [
            126.9749916,
            36.3858523
          ],
          [
            126.9793576,
            36.3831866
          ],
          [
            126.9836493,
            36.3803762
          ],
          [
            126.9852958,
            36.3792266
          ],
          [
            126.9874182,
            36.3778019
          ],
          [
            126.990248,
            36.3758412
          ],
          [
            126.9954354,
            36.3722606
          ],
          [
            126.997844,
            36.370576
          ],
          [
            127.0016956,
            36.3679023
          ],
          [
            127.004174,
            36.3661744
          ],
          [
            127.0069818,
            36.3643718
          ],
          [
            127.0103292,
            36.3632174
          ],
          [
            127.0120114,
            36.3625674
          ],
          [
            127.0180947,
            36.3606494
          ],
          [
            127.0227003,
            36.3592293
          ],
          [
            127.0271015,
            36.3577333
          ],
          [
            127.0315379,
            36.3562904
          ],
          [
            127.035324,
            36.3552086
          ],
          [
            127.0395094,
            36.3538977
          ],
          [
            127.0438453,
            36.352451
          ],
          [
            127.0468946,
            36.3515738
          ],
          [
            127.0512399,
            36.3505303
          ],
          [
            127.0574319,
            36.3491682
          ],
          [
            127.0600353,
            36.3485219
          ],
          [
            127.0631584,
            36.3478168
          ],
          [
            127.0665322,
            36.3469722
          ],
          [
            127.0714973,
            36.345764
          ],
          [
            127.0755824,
            36.3447321
          ],
          [
            127.0788286,
            36.3431787
          ],
          [
            127.0824851,
            36.3414526
          ],
          [
            127.0867298,
            36.3394254
          ],
          [
            127.0899942,
            36.3378645
          ],
          [
            127.0939516,
            36.3360062
          ],
          [
            127.0963225,
            36.3345591
          ],
          [
            127.1010914,
            36.3316244
          ],
          [
            127.1029425,
            36.3305005
          ],
          [
            127.1058103,
            36.328675
          ],
          [
            127.1078802,
            36.3263426
          ],
          [
            127.1094942,
            36.3245096
          ],
          [
            127.1112996,
            36.3224966
          ],
          [
            127.1144091,
            36.3189885
          ],
          [
            127.1167115,
            36.3164023
          ],
          [
            127.1185306,
            36.3143597
          ],
          [
            127.1216401,
            36.3108218
          ],
          [
            127.1243187,
            36.3089226
          ],
          [
            127.1272279,
            36.3068097
          ],
          [
            127.1313964,
            36.3039025
          ],
          [
            127.1347524,
            36.3014836
          ],
          [
            127.1385599,
            36.2994181
          ],
          [
            127.1418998,
            36.2975915
          ],
          [
            127.1451882,
            36.2957934
          ],
          [
            127.1483895,
            36.2940213
          ],
          [
            127.1514264,
            36.2924207
          ],
          [
            127.153825,
            36.2910903
          ],
          [
            127.1569521,
            36.2893986
          ],
          [
            127.160924,
            36.2872288
          ],
          [
            127.1638061,
            36.2856955
          ],
          [
            127.1663643,
            36.2842611
          ],
          [
            127.168519,
            36.2825724
          ],
          [
            127.1715281,
            36.2801872
          ],
          [
            127.1745691,
            36.2778073
          ],
          [
            127.1776991,
            36.2758611
          ],
          [
            127.1807789,
            36.2739939
          ],
          [
            127.1838267,
            36.2721266
          ],
          [
            127.1878252,
            36.2696179
          ],
          [
            127.1913062,
            36.2674767
          ],
          [
            127.1941398,
            36.2657342
          ],
          [
            127.1964285,
            36.2643134
          ],
          [
            127.1982773,
            36.2631941
          ],
          [
            127.2011291,
            36.261503
          ],
          [
            127.2034407,
            36.260049
          ],
          [
            127.207061,
            36.2585061
          ],
          [
            127.2099965,
            36.2573224
          ],
          [
            127.2124441,
            36.2563255
          ],
          [
            127.2154213,
            36.2551274
          ],
          [
            127.2197435,
            36.2546375
          ],
          [
            127.2224736,
            36.2543055
          ],
          [
            127.2251129,
            36.2539811
          ],
          [
            127.2300595,
            36.2534661
          ],
          [
            127.2344498,
            36.2529289
          ],
          [
            127.236974,
            36.2525389
          ],
          [
            127.2394907,
            36.252347
          ],
          [
            127.2415203,
            36.2521283
          ],
          [
            127.2447574,
            36.2516364
          ],
          [
            127.2478262,
            36.2512659
          ],
          [
            127.2517657,
            36.2508182
          ],
          [
            127.2547332,
            36.2495115
          ],
          [
            127.2564213,
            36.2487645
          ],
          [
            127.2609301,
            36.2467108
          ],
          [
            127.2646418,
            36.2451048
          ],
          [
            127.2688602,
            36.2432045
          ],
          [
            127.2726071,
            36.241505
          ],
          [
            127.2749504,
            36.2404422
          ],
          [
            127.2778275,
            36.2391371
          ],
          [
            127.2800145,
            36.238155
          ],
          [
            127.2830006,
            36.236814
          ],
          [
            127.28604,
            36.2363025
          ],
          [
            127.2897398,
            36.2356586
          ],
          [
            127.29357,
            36.2352001
          ],
          [
            127.2977169,
            36.2346797
          ],
          [
            127.3013461,
            36.2342175
          ],
          [
            127.3041645,
            36.2338717
          ],
          [
            127.3073904,
            36.2334642
          ],
          [
            127.3115713,
            36.2340189
          ],
          [
            127.3170469,
            36.2347344
          ],
          [
            127.3191692,
            36.2349912
          ],
          [
            127.3241948,
            36.2356075
          ],
          [
            127.3306848,
            36.236436
          ],
          [
            127.3352393,
            36.2370112
          ],
          [
            127.3419415,
            36.2378294
          ],
          [
            127.346815,
            36.2407721
          ],
          [
            127.349104,
            36.2421343
          ],
          [
            127.3531707,
            36.244533
          ],
          [
            127.3549652,
            36.2455915
          ],
          [
            127.3577639,
            36.2472952
          ],
          [
            127.3618095,
            36.2487258
          ],
          [
            127.3643386,
            36.2496661
          ],
          [
            127.3680279,
            36.2510466
          ],
          [
            127.3722359,
            36.2525542
          ],
          [
            127.375004,
            36.2535459
          ],
          [
            127.3789163,
            36.2543814
          ],
          [
            127.3862339,
            36.2558536
          ],
          [
            127.3888566,
            36.2560873
          ],
          [
            127.3911388,
            36.2562743
          ],
          [
            127.3961234,
            36.2566307
          ],
          [
            127.3996953,
            36.2569637
          ],
          [
            127.4047886,
            36.257396
          ],
          [
            127.4077083,
            36.2576706
          ],
          [
            127.412251,
            36.258027
          ],
          [
            127.4150404,
            36.2582606
          ],
          [
            127.4186919,
            36.2585703
          ],
          [
            127.4247633,
            36.259061
          ],
          [
            127.4300812,
            36.2584534
          ],
          [
            127.4329277,
            36.2581782
          ],
          [
            127.4404383,
            36.2573686
          ],
          [
            127.4458431,
            36.2567201
          ],
          [
            127.4516537,
            36.2561534
          ],
          [
            127.4555008,
            36.2565565
          ],
          [
            127.4588481,
            36.2568544
          ],
          [
            127.4622315,
            36.2577133
          ],
          [
            127.4639921,
            36.2581456
          ],
          [
            127.4671582,
            36.2589167
          ],
          [
            127.4696143,
            36.2590102
          ],
          [
            127.4765769,
            36.2593549
          ],
          [
            127.4833438,
            36.2596528
          ],
          [
            127.4879227,
            36.259904
          ],
          [
            127.4941462,
            36.2601377
          ],
          [
            127.497008,
            36.2617209
          ],
          [
            127.5020072,
            36.2643964
          ],
          [
            127.5055718,
            36.2664819
          ],
          [
            127.5075134,
            36.2675275
          ],
          [
            127.5099116,
            36.2687717
          ],
          [
            127.5135341,
            36.270787
          ],
          [
            127.5160772,
            36.2722414
          ],
          [
            127.5199315,
            36.2743209
          ],
          [
            127.5228875,
            36.2759037
          ],
          [
            127.5243583,
            36.2782576
          ],
          [
            127.5253291,
            36.2797995
          ],
          [
            127.52823,
            36.2846797
          ],
          [
            127.5303303,
            36.2882128
          ],
          [
            127.5318834,
            36.2907973
          ],
          [
            127.532685,
            36.2920945
          ]
        ]
      },
      "properties": {
        "osm_type": "way",
        "osm_id": 119001904,
        "sido": "대전광역시",
        "power_type": "line",
        "name": "",
        "description": "",
        "voltage": "345000",
        "cables": "6",
        "circuits": "2",
        "frequency": "60",
        "operator": "",
        "wires": ""
      }
    },
    {
      "type": "Feature",
      "geometry": {
        "type": "LineString",
        "coordinates": [
          [
            127.2958573,
            36.3445626
          ],
          [
            127.2948994,
            36.3416077
          ],
          [
            127.2939515,
            36.3388364
          ],
          [
            127.2946872,
            36.3360065
          ],
          [
            127.2954229,
            36.333163
          ],
          [
            127.2960503,
            36.330798
          ],
          [
            127.296962,
            36.327616
          ],
          [
            127.2979053,
            36.3245469
          ],
          [
            127.2988847,
            36.321234
          ],
          [
            127.2999093,
            36.3185711
          ],
          [
            127.3007307,
            36.3164182
          ],
          [
            127.3017462,
            36.3137824
          ],
          [
            127.3027437,
            36.3115527
          ],
          [
            127.303863,
            36.3089214
          ],
          [
            127.3049959,
            36.3062765
          ],
          [
            127.3062055,
            36.303424
          ],
          [
            127.3081869,
            36.3008785
          ],
          [
            127.309911,
            36.2986488
          ],
          [
            127.311572,
            36.2955842
          ],
          [
            127.3127184,
            36.2932237
          ],
          [
            127.3144153,
            36.2899594
          ],
          [
            127.3159274,
            36.2873562
          ],
          [
            127.3182157,
            36.2850228
          ],
          [
            127.3204672,
            36.2812132
          ],
          [
            127.3224448,
            36.2816557
          ],
          [
            127.3262226,
            36.2823192
          ],
          [
            127.327712,
            36.2831046
          ],
          [
            127.3312686,
            36.2848964
          ],
          [
            127.3342475,
            36.2863542
          ],
          [
            127.3364139,
            36.2875999
          ],
          [
            127.339632,
            36.2895723
          ],
          [
            127.3415998,
            36.2902899
          ],
          [
            127.3430126,
            36.2903955
          ],
          [
            127.3458876,
            36.2906104
          ],
          [
            127.3485415,
            36.2904569
          ],
          [
            127.3520033,
            36.2918877
          ],
          [
            127.354436,
            36.2928942
          ],
          [
            127.3564129,
            36.2941444
          ],
          [
            127.3595452,
            36.2965456
          ],
          [
            127.36029,
            36.2983735
          ],
          [
            127.3613235,
            36.3013208
          ],
          [
            127.3604479,
            36.3039837
          ],
          [
            127.3610251,
            36.3062012
          ],
          [
            127.3619148,
            36.3086235
          ],
          [
            127.3614314,
            36.3106323
          ],
          [
            127.361109,
            36.3127383
          ],
          [
            127.3604778,
            36.3166383
          ],
          [
            127.3600355,
            36.319224
          ],
          [
            127.3625892,
            36.3219349
          ]
        ]
      },
      "properties": {
        "osm_type": "way",
        "osm_id": 148847550,
        "sido": "대전광역시",
        "power_type": "line",
        "name": "",
        "description": "",
        "voltage": "154000",
        "cables": "6",
        "circuits": "2",
        "frequency": "60",
        "operator": "",
        "wires": ""
      }
    },
    {
      "type": "Feature",
      "geometry": {
        "type": "LineString",
        "coordinates": [
          [
            127.528337,
            36.2934444
          ],
          [
            127.5272011,
            36.2922343
          ],
          [
            127.5253215,
            36.290391
          ],
          [
            127.5209409,
            36.2886319
          ],
          [
            127.5161949,
            36.2859299
          ],
          [
            127.5144405,
            36.284882
          ],
          [
            127.5116263,
            36.2842717
          ],
          [
            127.5085562,
            36.2835773
          ],
          [
            127.5051886,
            36.2810225
          ],
          [
            127.5004634,
            36.2774911
          ],
          [
            127.4978162,
            36.2762873
          ],
          [
            127.4945321,
            36.2747888
          ],
          [
            127.4919789,
            36.2735639
          ],
          [
            127.488707,
            36.2721174
          ],
          [
            127.4879229,
            36.2717798
          ],
          [
            127.4840409,
            36.2700869
          ],
          [
            127.4827635,
            36.2695213
          ],
          [
            127.4769523,
            36.2663809
          ],
          [
            127.4724326,
            36.2639049
          ],
          [
            127.4709584,
            36.2630973
          ],
          [
            127.4664525,
            36.2606555
          ],
          [
            127.464223,
            36.2603524
          ],
          [
            127.4624322,
            36.2600787
          ],
          [
            127.4606674,
            36.2590472
          ],
          [
            127.45552,
            36.2561699
          ],
          [
            127.4537841,
            36.2551427
          ],
          [
            127.4504641,
            36.2532121
          ],
          [
            127.4484244,
            36.2527908
          ],
          [
            127.4430077,
            36.2515723
          ],
          [
            127.4401621,
            36.2508596
          ],
          [
            127.4357232,
            36.2497239
          ],
          [
            127.4342164,
            36.2493474
          ],
          [
            127.4300476,
            36.2482306
          ],
          [
            127.4276568,
            36.2476014
          ],
          [
            127.4222582,
            36.2463609
          ],
          [
            127.416365,
            36.2472854
          ],
          [
            127.4140969,
            36.2476399
          ],
          [
            127.4098903,
            36.2482902
          ],
          [
            127.4047592,
            36.2490523
          ],
          [
            127.4015403,
            36.2482587
          ],
          [
            127.3969174,
            36.2471386
          ],
          [
            127.3935312,
            36.2463332
          ],
          [
            127.3911999,
            36.2457358
          ],
          [
            127.3884519,
            36.2450931
          ],
          [
            127.3831643,
            36.243797
          ],
          [
            127.3805883,
            36.2431889
          ],
          [
            127.3744178,
            36.241426
          ],
          [
            127.3715276,
            36.2408846
          ],
          [
            127.3688115,
            36.2428438
          ],
          [
            127.3766684,
            36.246471
          ],
          [
            127.3820543,
            36.2501915
          ],
          [
            127.3866355,
            36.2533841
          ],
          [
            127.3891568,
            36.2552139
          ],
          [
            127.3923004,
            36.2574871
          ],
          [
            127.3950791,
            36.2593709
          ],
          [
            127.3983675,
            36.2617457
          ],
          [
            127.4009049,
            36.2633936
          ],
          [
            127.4051716,
            36.2660984
          ],
          [
            127.4088244,
            36.2686056
          ],
          [
            127.4112207,
            36.2704826
          ],
          [
            127.413235,
            36.2719877
          ],
          [
            127.4170947,
            36.274708
          ],
          [
            127.4195033,
            36.2763816
          ],
          [
            127.4229071,
            36.2788034
          ],
          [
            127.4256644,
            36.2807624
          ],
          [
            127.4310797,
            36.2845613
          ],
          [
            127.4349314,
            36.2874606
          ],
          [
            127.4365354,
            36.2883643
          ],
          [
            127.4398506,
            36.290643
          ],
          [
            127.4386918,
            36.2925066
          ],
          [
            127.4352962,
            36.2913867
          ],
          [
            127.4325335,
            36.2905003
          ],
          [
            127.4278906,
            36.2881178
          ],
          [
            127.4256536,
            36.2869439
          ],
          [
            127.4222231,
            36.2848618
          ],
          [
            127.4200451,
            36.2842651
          ],
          [
            127.4167514,
            36.2841829
          ],
          [
            127.4123552,
            36.2841072
          ],
          [
            127.4109524,
            36.2840834
          ],
          [
            127.406103,
            36.2854326
          ],
          [
            127.4029702,
            36.2860596
          ],
          [
            127.3998803,
            36.2854931
          ],
          [
            127.3981798,
            36.2841137
          ],
          [
            127.3968869,
            36.2859904
          ],
          [
            127.3948967,
            36.2873525
          ],
          [
            127.3879552,
            36.2872206
          ],
          [
            127.3851925,
            36.2870671
          ],
          [
            127.3826417,
            36.288868
          ],
          [
            127.3821536,
            36.2892334
          ],
          [
            127.3774624,
            36.2929865
          ],
          [
            127.3769742,
            36.2933972
          ],
          [
            127.3743564,
            36.2933886
          ],
          [
            127.372908,
            36.2947116
          ],
          [
            127.3708212,
            36.2971155
          ],
          [
            127.3709339,
            36.2995626
          ],
          [
            127.3706603,
            36.3014951
          ],
          [
            127.3700068,
            36.3041568
          ],
          [
            127.3695204,
            36.3065791
          ],
          [
            127.3664412,
            36.3107204
          ],
          [
            127.3648399,
            36.312121
          ],
          [
            127.3635524,
            36.3132708
          ],
          [
            127.3626351,
            36.3141439
          ],
          [
            127.3618895,
            36.31586
          ],
          [
            127.3606464,
            36.3191595
          ],
          [
            127.3625892,
            36.3219349
          ]
        ]
      },
      "properties": {
        "osm_type": "way",
        "osm_id": 156580306,
        "sido": "대전광역시",
        "power_type": "line",
        "name": "",
        "description": "",
        "voltage": "154000",
        "cables": "6",
        "circuits": "2",
        "frequency": "60",
        "operator": "",
        "wires": ""
      }
    },
    {
      "type": "Feature",
      "geometry": {
        "type": "LineString",
        "coordinates": [
          [
            127.3204672,
            36.2812132
          ],
          [
            127.3177816,
            36.2796059
          ],
          [
            127.3161394,
            36.2781916
          ],
          [
            127.3128762,
            36.2751337
          ],
          [
            127.310205,
            36.2721505
          ],
          [
            127.3069998,
            36.2711025
          ],
          [
            127.3044118,
            36.2685995
          ],
          [
            127.3013188,
            36.2665441
          ],
          [
            127.2981292,
            36.2632533
          ],
          [
            127.2962862,
            36.2601465
          ],
          [
            127.2947069,
            36.2574316
          ],
          [
            127.2934421,
            36.2557928
          ],
          [
            127.2915032,
            36.2546281
          ],
          [
            127.2880606,
            36.252553
          ],
          [
            127.2856895,
            36.2507163
          ],
          [
            127.2841513,
            36.2494979
          ],
          [
            127.2781308,
            36.2476941
          ],
          [
            127.2758942,
            36.2474254
          ]
        ]
      },
      "properties": {
        "osm_type": "way",
        "osm_id": 307934517,
        "sido": "대전광역시",
        "power_type": "line",
        "name": "",
        "description": "",
        "voltage": "154000",
        "cables": "12",
        "circuits": "4",
        "frequency": "60",
        "operator": "",
        "wires": ""
      }
    },
    {
      "type": "Feature",
      "geometry": {
        "type": "LineString",
        "coordinates": [
          [
            127.534102,
            36.2958558
          ],
          [
            127.531766,
            36.2962019
          ],
          [
            127.5295014,
            36.2967261
          ],
          [
            127.5271745,
            36.2987889
          ],
          [
            127.5244872,
            36.3019981
          ],
          [
            127.5202242,
            36.306873
          ],
          [
            127.5199331,
            36.3102972
          ],
          [
            127.5195146,
            36.3152441
          ],
          [
            127.5194089,
            36.3164242
          ],
          [
            127.5190969,
            36.3200286
          ],
          [
            127.5188984,
            36.3225049
          ],
          [
            127.516503,
            36.3253551
          ],
          [
            127.5146518,
            36.3273908
          ],
          [
            127.5121585,
            36.3304194
          ],
          [
            127.5099591,
            36.3329909
          ],
          [
            127.5077649,
            36.335554
          ],
          [
            127.5048018,
            36.3390537
          ],
          [
            127.5022042,
            36.3404107
          ],
          [
            127.5003746,
            36.3412886
          ],
          [
            127.4980142,
            36.3424728
          ],
          [
            127.4946535,
            36.3446465
          ],
          [
            127.4903373,
            36.3478707
          ],
          [
            127.4858129,
            36.349192
          ],
          [
            127.4823838,
            36.3503829
          ],
          [
            127.4786107,
            36.3514757
          ],
          [
            127.4726827,
            36.3549222
          ],
          [
            127.4695325,
            36.3582385
          ],
          [
            127.4689547,
            36.3601234
          ],
          [
            127.4671803,
            36.3655884
          ],
          [
            127.4662831,
            36.3685643
          ],
          [
            127.4653277,
            36.3715706
          ],
          [
            127.4644403,
            36.3744319
          ],
          [
            127.4638879,
            36.3789123
          ],
          [
            127.4634902,
            36.3823285
          ],
          [
            127.4631564,
            36.3845764
          ],
          [
            127.4626047,
            36.3892795
          ],
          [
            127.4621837,
            36.3921924
          ],
          [
            127.4616945,
            36.3958319
          ],
          [
            127.4635862,
            36.4001191
          ],
          [
            127.464907,
            36.4031866
          ],
          [
            127.4675205,
            36.4091098
          ],
          [
            127.4682299,
            36.410737
          ],
          [
            127.4689857,
            36.4124322
          ],
          [
            127.4682399,
            36.4188726
          ],
          [
            127.4680989,
            36.4202025
          ],
          [
            127.4677109,
            36.4231241
          ],
          [
            127.4668881,
            36.4304184
          ],
          [
            127.4656372,
            36.4342315
          ],
          [
            127.4637651,
            36.4396906
          ],
          [
            127.4624285,
            36.443804
          ],
          [
            127.4613783,
            36.4468479
          ],
          [
            127.4599875,
            36.4507772
          ],
          [
            127.458123,
            36.456172
          ],
          [
            127.4563895,
            36.4611125
          ],
          [
            127.4559763,
            36.4641481
          ],
          [
            127.4551096,
            36.4693839
          ],
          [
            127.4548122,
            36.4719936
          ],
          [
            127.4542428,
            36.4765766
          ],
          [
            127.4537943,
            36.4802355
          ],
          [
            127.4533962,
            36.4830636
          ],
          [
            127.4530284,
            36.4862522
          ],
          [
            127.453235,
            36.488205
          ],
          [
            127.4534466,
            36.4903036
          ],
          [
            127.4536885,
            36.4923495
          ],
          [
            127.4540564,
            36.4962588
          ],
          [
            127.4544192,
            36.499058
          ],
          [
            127.4545502,
            36.5006256
          ],
          [
            127.4550189,
            36.5056444
          ],
          [
            127.4555127,
            36.510444
          ],
          [
            127.4557294,
            36.5123395
          ],
          [
            127.4563744,
            36.5167379
          ],
          [
            127.4566516,
            36.5187588
          ],
          [
            127.4561779,
            36.520812
          ],
          [
            127.4557495,
            36.5244364
          ],
          [
            127.4552154,
            36.5279351
          ],
          [
            127.4548374,
            36.5306521
          ],
          [
            127.4544797,
            36.5332274
          ],
          [
            127.454011,
            36.5375638
          ],
          [
            127.4539295,
            36.5381568
          ],
          [
            127.4532995,
            36.5427374
          ],
          [
            127.4526511,
            36.5473577
          ],
          [
            127.4524152,
            36.5497808
          ],
          [
            127.4537498,
            36.5519713
          ],
          [
            127.4581748,
            36.5538856
          ]
        ]
      },
      "properties": {
        "osm_type": "way",
        "osm_id": 308953855,
        "sido": "대전광역시",
        "power_type": "line",
        "name": "",
        "description": "",
        "voltage": "345000",
        "cables": "6",
        "circuits": "2",
        "frequency": "60",
        "operator": "",
        "wires": ""
      }
    },
    {
      "type": "Feature",
      "geometry": {
        "type": "LineString",
        "coordinates": [
          [
            127.5290365,
            36.29666
          ],
          [
            127.5269004,
            36.2978656
          ],
          [
            127.5258529,
            36.2984661
          ],
          [
            127.5222976,
            36.3015865
          ],
          [
            127.5211442,
            36.3027832
          ],
          [
            127.5201767,
            36.303882
          ],
          [
            127.5181856,
            36.3077358
          ],
          [
            127.5173332,
            36.3099386
          ],
          [
            127.5167324,
            36.3141603
          ],
          [
            127.516272,
            36.3165302
          ],
          [
            127.5147902,
            36.3173928
          ],
          [
            127.511761,
            36.3189076
          ],
          [
            127.5102385,
            36.3196844
          ],
          [
            127.5072071,
            36.3193925
          ],
          [
            127.5025707,
            36.3165566
          ],
          [
            127.4984931,
            36.3158508
          ],
          [
            127.4882295,
            36.3140598
          ],
          [
            127.4854745,
            36.3135777
          ],
          [
            127.4790465,
            36.3125463
          ],
          [
            127.4765521,
            36.3121079
          ],
          [
            127.4734798,
            36.3116441
          ],
          [
            127.4708988,
            36.3105894
          ],
          [
            127.4691903,
            36.309514
          ],
          [
            127.4656661,
            36.3084674
          ],
          [
            127.4624277,
            36.3071652
          ],
          [
            127.4612331,
            36.3056194
          ],
          [
            127.4622674,
            36.3034378
          ],
          [
            127.4625258,
            36.3016163
          ],
          [
            127.4654054,
            36.2960749
          ],
          [
            127.4667575,
            36.29367
          ],
          [
            127.4697836,
            36.2914377
          ],
          [
            127.471717,
            36.2899894
          ],
          [
            127.473484,
            36.288741
          ],
          [
            127.474972,
            36.2876016
          ],
          [
            127.476413,
            36.2866579
          ],
          [
            127.4786717,
            36.2858107
          ],
          [
            127.4818541,
            36.2848202
          ],
          [
            127.4841405,
            36.2839752
          ],
          [
            127.4870735,
            36.2829345
          ],
          [
            127.4886872,
            36.2838911
          ],
          [
            127.4906301,
            36.2849742
          ],
          [
            127.4932881,
            36.2864604
          ],
          [
            127.4960041,
            36.2875414
          ],
          [
            127.498327,
            36.2885512
          ],
          [
            127.5004166,
            36.2893835
          ],
          [
            127.5021916,
            36.2901006
          ],
          [
            127.5054963,
            36.2915143
          ],
          [
            127.5082339,
            36.2926439
          ],
          [
            127.5114821,
            36.2939377
          ],
          [
            127.5124697,
            36.2943869
          ],
          [
            127.5147427,
            36.2962126
          ],
          [
            127.516387,
            36.2960661
          ],
          [
            127.5197357,
            36.2960293
          ],
          [
            127.5219714,
            36.2958972
          ],
          [
            127.5238357,
            36.2957834
          ],
          [
            127.5259013,
            36.2956178
          ],
          [
            127.528266,
            36.2954921
          ]
        ]
      },
      "properties": {
        "osm_type": "way",
        "osm_id": 310689401,
        "sido": "대전광역시",
        "power_type": "line",
        "name": "",
        "description": "",
        "voltage": "154000",
        "cables": "6",
        "circuits": "2",
        "frequency": "60",
        "operator": "",
        "wires": ""
      }
    },
    {
      "type": "Feature",
      "geometry": {
        "type": "LineString",
        "coordinates": [
          [
            127.4593144,
            36.3427288
          ],
          [
            127.4631939,
            36.3445465
          ],
          [
            127.4664823,
            36.3438944
          ],
          [
            127.4687852,
            36.3434276
          ],
          [
            127.4713311,
            36.3434247
          ],
          [
            127.4718639,
            36.3395088
          ],
          [
            127.4734327,
            36.33692
          ],
          [
            127.4778449,
            36.3351986
          ],
          [
            127.4818021,
            36.3335432
          ],
          [
            127.4827547,
            36.3331652
          ],
          [
            127.4858046,
            36.3326278
          ],
          [
            127.4897109,
            36.3319994
          ],
          [
            127.4969299,
            36.3314227
          ],
          [
            127.4995758,
            36.3315918
          ],
          [
            127.5019875,
            36.3313606
          ],
          [
            127.5059579,
            36.3309039
          ],
          [
            127.5081961,
            36.3305435
          ],
          [
            127.5118393,
            36.3300969
          ],
          [
            127.5161375,
            36.3295714
          ],
          [
            127.5193494,
            36.3292103
          ],
          [
            127.5210398,
            36.3290108
          ],
          [
            127.5261363,
            36.328356
          ],
          [
            127.5277288,
            36.3269729
          ],
          [
            127.5280174,
            36.323918
          ],
          [
            127.5277629,
            36.3211879
          ],
          [
            127.5274447,
            36.3177228
          ],
          [
            127.5269542,
            36.3122684
          ],
          [
            127.5264212,
            36.3064205
          ],
          [
            127.5268136,
            36.304756
          ],
          [
            127.5277523,
            36.3008158
          ],
          [
            127.5284844,
            36.2987529
          ],
          [
            127.5290365,
            36.29666
          ]
        ]
      },
      "properties": {
        "osm_type": "way",
        "osm_id": 310689426,
        "sido": "대전광역시",
        "power_type": "line",
        "name": "",
        "description": "",
        "voltage": "154000",
        "cables": "6",
        "circuits": "2",
        "frequency": "60",
        "operator": "",
        "wires": ""
      }
    },
    {
      "type": "Feature",
      "geometry": {
        "type": "LineString",
        "coordinates": [
          [
            127.3801257,
            36.4220479
          ],
          [
            127.3796208,
            36.4225327
          ],
          [
            127.3784508,
            36.4236563
          ],
          [
            127.377876,
            36.4264846
          ],
          [
            127.3781137,
            36.4284324
          ],
          [
            127.3755581,
            36.4318133
          ],
          [
            127.3737063,
            36.433462
          ],
          [
            127.3726709,
            36.4357251
          ],
          [
            127.3720925,
            36.4390269
          ],
          [
            127.3746445,
            36.4388146
          ],
          [
            127.3747626,
            36.4388614
          ],
          [
            127.3750319,
            36.4390663
          ],
          [
            127.376235,
            36.4402571
          ],
          [
            127.3769118,
            36.4409201
          ],
          [
            127.3773829,
            36.4432603
          ],
          [
            127.3760537,
            36.4464988
          ],
          [
            127.3746923,
            36.4498456
          ],
          [
            127.3739285,
            36.4526123
          ],
          [
            127.3736925,
            36.4532559
          ],
          [
            127.3725355,
            36.456419
          ],
          [
            127.3711828,
            36.4600725
          ],
          [
            127.3698379,
            36.4636809
          ],
          [
            127.3686084,
            36.4669149
          ],
          [
            127.3674078,
            36.4695216
          ],
          [
            127.3663743,
            36.4717826
          ],
          [
            127.3648611,
            36.4735581
          ],
          [
            127.3628299,
            36.4803603
          ],
          [
            127.3610818,
            36.4858093
          ],
          [
            127.3608307,
            36.4872645
          ],
          [
            127.3606024,
            36.4888561
          ],
          [
            127.3607524,
            36.493608
          ],
          [
            127.3604826,
            36.4939621
          ],
          [
            127.3607664,
            36.4966207
          ],
          [
            127.3658703,
            36.4963575
          ],
          [
            127.3681849,
            36.4956073
          ],
          [
            127.3694176,
            36.4974653
          ],
          [
            127.3707902,
            36.49943
          ],
          [
            127.3695853,
            36.4999934
          ]
        ]
      },
      "properties": {
        "osm_type": "way",
        "osm_id": 312319426,
        "sido": "대전광역시",
        "power_type": "line",
        "name": "",
        "description": "",
        "voltage": "154000",
        "cables": "3",
        "circuits": "",
        "frequency": "60",
        "operator": "",
        "wires": ""
      }
    },
    {
      "type": "Feature",
      "geometry": {
        "type": "LineString",
        "coordinates": [
          [
            127.3504168,
            36.4455001
          ],
          [
            127.3493662,
            36.4454107
          ],
          [
            127.3457721,
            36.4451618
          ],
          [
            127.3433881,
            36.4449836
          ],
          [
            127.3402329,
            36.4443254
          ],
          [
            127.3355066,
            36.443336
          ],
          [
            127.3320703,
            36.4425711
          ],
          [
            127.3292261,
            36.4419729
          ],
          [
            127.325434,
            36.4412
          ],
          [
            127.3234254,
            36.4407584
          ],
          [
            127.3209582,
            36.4402403
          ],
          [
            127.3180707,
            36.4395949
          ],
          [
            127.3157096,
            36.4384016
          ],
          [
            127.3128263,
            36.4369876
          ],
          [
            127.3088813,
            36.4349493
          ],
          [
            127.305654,
            36.4333144
          ],
          [
            127.3036115,
            36.4322528
          ],
          [
            127.3019129,
            36.4305754
          ],
          [
            127.3001633,
            36.4288386
          ],
          [
            127.2977641,
            36.4263799
          ],
          [
            127.2954922,
            36.4241845
          ]
        ]
      },
      "properties": {
        "osm_type": "way",
        "osm_id": 312319431,
        "sido": "대전광역시",
        "power_type": "line",
        "name": "",
        "description": "",
        "voltage": "154000",
        "cables": "12",
        "circuits": "4",
        "frequency": "",
        "operator": "KoreaNet",
        "wires": "quad"
      }
    },
    {
      "type": "Feature",
      "geometry": {
        "type": "LineString",
        "coordinates": [
          [
            127.3351291,
            36.4951217
          ],
          [
            127.336328,
            36.4945718
          ],
          [
            127.3373151,
            36.4908716
          ],
          [
            127.3410273,
            36.4898753
          ],
          [
            127.3462388,
            36.4902937
          ],
          [
            127.3525125,
            36.4884435
          ],
          [
            127.3553985,
            36.4867463
          ],
          [
            127.3598456,
            36.4840874
          ],
          [
            127.3632856,
            36.483008
          ],
          [
            127.3676026,
            36.4839784
          ],
          [
            127.3716232,
            36.4841693
          ],
          [
            127.3770399,
            36.4829508
          ],
          [
            127.3785782,
            36.4805408
          ],
          [
            127.3807695,
            36.4771192
          ],
          [
            127.3859288,
            36.4758521
          ],
          [
            127.3902391,
            36.4719342
          ],
          [
            127.3942503,
            36.4714856
          ],
          [
            127.396899,
            36.4703791
          ],
          [
            127.4033819,
            36.4675599
          ],
          [
            127.408222,
            36.466298
          ],
          [
            127.4147035,
            36.4661028
          ],
          [
            127.4203294,
            36.4659324
          ],
          [
            127.4246733,
            36.465803
          ],
          [
            127.4272375,
            36.4652271
          ],
          [
            127.4322344,
            36.4640719
          ],
          [
            127.4348107,
            36.4634949
          ],
          [
            127.4395461,
            36.4644074
          ],
          [
            127.4425194,
            36.4669516
          ],
          [
            127.4449065,
            36.4679697
          ],
          [
            127.4502495,
            36.4702971
          ],
          [
            127.4548122,
            36.4719936
          ]
        ]
      },
      "properties": {
        "osm_type": "way",
        "osm_id": 883142548,
        "sido": "대전광역시",
        "power_type": "line",
        "name": "",
        "description": "",
        "voltage": "345000",
        "cables": "",
        "circuits": "",
        "frequency": "60",
        "operator": "",
        "wires": ""
      }
    },
    {
      "type": "Feature",
      "geometry": {
        "type": "LineString",
        "coordinates": [
          [
            127.435374,
            36.4449274
          ],
          [
            127.4356663,
            36.4449986
          ],
          [
            127.4361839,
            36.4450374
          ],
          [
            127.438952,
            36.4438679
          ],
          [
            127.4399337,
            36.4428582
          ],
          [
            127.4417067,
            36.4421267
          ],
          [
            127.4419507,
            36.4454495
          ],
          [
            127.4435922,
            36.4465089
          ],
          [
            127.4448341,
            36.4482155
          ],
          [
            127.447511,
            36.4520796
          ],
          [
            127.4484926,
            36.4535122
          ],
          [
            127.4500135,
            36.4545844
          ],
          [
            127.4530953,
            36.4567827
          ],
          [
            127.4550641,
            36.4584093
          ],
          [
            127.457047,
            36.4605475
          ]
        ]
      },
      "properties": {
        "osm_type": "way",
        "osm_id": 894736438,
        "sido": "대전광역시",
        "power_type": "line",
        "name": "",
        "description": "",
        "voltage": "154000",
        "cables": "",
        "circuits": "",
        "frequency": "60",
        "operator": "",
        "wires": ""
      }
    },
    {
      "type": "Feature",
      "geometry": {
        "type": "LineString",
        "coordinates": [
          [
            127.4148899,
            36.3748219
          ],
          [
            127.4289232,
            36.3747096
          ]
        ]
      },
      "properties": {
        "osm_type": "way",
        "osm_id": 1093341760,
        "sido": "대전광역시",
        "power_type": "cable",
        "name": "",
        "description": "",
        "voltage": "154000",
        "cables": "",
        "circuits": "",
        "frequency": "60",
        "operator": "",
        "wires": ""
      }
    },
    {
      "type": "Feature",
      "geometry": {
        "type": "LineString",
        "coordinates": [
          [
            127.4304575,
            36.3812788
          ],
          [
            127.4302376,
            36.380265
          ],
          [
            127.4296313,
            36.3767094
          ],
          [
            127.4289232,
            36.3747096
          ]
        ]
      },
      "properties": {
        "osm_type": "way",
        "osm_id": 1093341761,
        "sido": "대전광역시",
        "power_type": "line",
        "name": "",
        "description": "",
        "voltage": "154000",
        "cables": "",
        "circuits": "",
        "frequency": "60",
        "operator": "",
        "wires": ""
      }
    },
    {
      "type": "Feature",
      "geometry": {
        "type": "LineString",
        "coordinates": [
          [
            127.4417067,
            36.4421267
          ],
          [
            127.4406981,
            36.4394662
          ],
          [
            127.4403816,
            36.4382837
          ],
          [
            127.439003,
            36.4345721
          ],
          [
            127.4382466,
            36.4323926
          ],
          [
            127.4370128,
            36.4288361
          ],
          [
            127.4361062,
            36.425832
          ],
          [
            127.4352479,
            36.4241702
          ],
          [
            127.43204,
            36.419491
          ],
          [
            127.4316376,
            36.4164132
          ],
          [
            127.4316323,
            36.4141209
          ],
          [
            127.4316055,
            36.4129898
          ],
          [
            127.4316269,
            36.410542
          ],
          [
            127.431466,
            36.4060606
          ],
          [
            127.4311602,
            36.4032499
          ],
          [
            127.4308249,
            36.4002319
          ],
          [
            127.430208,
            36.3954648
          ],
          [
            127.4296635,
            36.3914317
          ],
          [
            127.4296455,
            36.3895068
          ],
          [
            127.429685,
            36.3865174
          ],
          [
            127.4296797,
            36.3839218
          ],
          [
            127.4298513,
            36.3828163
          ],
          [
            127.4304575,
            36.3812788
          ],
          [
            127.4314472,
            36.3810899
          ],
          [
            127.4368948,
            36.377517
          ],
          [
            127.439872,
            36.3749601
          ],
          [
            127.4419588,
            36.3732151
          ],
          [
            127.4447697,
            36.3718416
          ],
          [
            127.4468458,
            36.3710728
          ],
          [
            127.4518293,
            36.3693666
          ],
          [
            127.4546027,
            36.3683645
          ],
          [
            127.4565017,
            36.3664854
          ],
          [
            127.4592537,
            36.3635566
          ],
          [
            127.4619828,
            36.3607617
          ],
          [
            127.4655609,
            36.3568575
          ],
          [
            127.4675256,
            36.3544629
          ],
          [
            127.4706423,
            36.3505616
          ],
          [
            127.4707282,
            36.3494598
          ],
          [
            127.4726647,
            36.3477229
          ],
          [
            127.4711868,
            36.3452169
          ],
          [
            127.4713311,
            36.3434247
          ]
        ]
      },
      "properties": {
        "osm_type": "way",
        "osm_id": 1093341762,
        "sido": "대전광역시",
        "power_type": "line",
        "name": "",
        "description": "",
        "voltage": "154000",
        "cables": "",
        "circuits": "",
        "frequency": "60",
        "operator": "",
        "wires": ""
      }
    },
    {
      "type": "Feature",
      "geometry": {
        "type": "LineString",
        "coordinates": [
          [
            127.4547958,
            36.3039248
          ],
          [
            127.4612331,
            36.3056194
          ]
        ]
      },
      "properties": {
        "osm_type": "way",
        "osm_id": 1093341763,
        "sido": "대전광역시",
        "power_type": "cable",
        "name": "",
        "description": "",
        "voltage": "154000",
        "cables": "",
        "circuits": "",
        "frequency": "60",
        "operator": "",
        "wires": ""
      }
    },
    {
      "type": "Feature",
      "geometry": {
        "type": "LineString",
        "coordinates": [
          [
            127.3724735,
            36.3277847
          ],
          [
            127.3699794,
            36.3268594
          ],
          [
            127.3653837,
            36.3251545
          ]
        ]
      },
      "properties": {
        "osm_type": "way",
        "osm_id": 1093341764,
        "sido": "대전광역시",
        "power_type": "cable",
        "name": "",
        "description": "",
        "voltage": "154000",
        "cables": "",
        "circuits": "",
        "frequency": "60",
        "operator": "",
        "wires": ""
      }
    },
    {
      "type": "Feature",
      "geometry": {
        "type": "LineString",
        "coordinates": [
          [
            127.457047,
            36.4605475
          ],
          [
            127.4557368,
            36.4593464
          ],
          [
            127.4549916,
            36.4587804
          ],
          [
            127.4529793,
            36.4593423
          ],
          [
            127.4498539,
            36.4606176
          ],
          [
            127.4457454,
            36.461724
          ],
          [
            127.4423696,
            36.4617081
          ],
          [
            127.4375743,
            36.4616862
          ],
          [
            127.4347221,
            36.4613295
          ],
          [
            127.4308556,
            36.4608001
          ],
          [
            127.429142,
            36.4605333
          ],
          [
            127.4264805,
            36.4605644
          ],
          [
            127.4224697,
            36.4606114
          ],
          [
            127.4212285,
            36.4602268
          ],
          [
            127.4186984,
            36.4585764
          ],
          [
            127.4171286,
            36.4578799
          ],
          [
            127.4133868,
            36.4560165
          ],
          [
            127.4088873,
            36.4509912
          ]
        ]
      },
      "properties": {
        "osm_type": "way",
        "osm_id": 1096947398,
        "sido": "대전광역시",
        "power_type": "line",
        "name": "",
        "description": "",
        "voltage": "154000",
        "cables": "3",
        "circuits": "",
        "frequency": "60",
        "operator": "",
        "wires": ""
      }
    },
    {
      "type": "Feature",
      "geometry": {
        "type": "LineString",
        "coordinates": [
          [
            127.3502782,
            36.4458616
          ],
          [
            127.3484737,
            36.4456644
          ],
          [
            127.3473688,
            36.4475825
          ],
          [
            127.3451035,
            36.4516114
          ],
          [
            127.3428077,
            36.4540127
          ],
          [
            127.3402553,
            36.4564752
          ],
          [
            127.3385495,
            36.4585075
          ],
          [
            127.3367642,
            36.4603402
          ],
          [
            127.333744,
            36.4635395
          ],
          [
            127.331214,
            36.4662346
          ],
          [
            127.3292568,
            36.4682616
          ],
          [
            127.3274078,
            36.4699532
          ],
          [
            127.3253328,
            36.4718291
          ],
          [
            127.3235092,
            36.4735028
          ],
          [
            127.322178,
            36.4746996
          ],
          [
            127.3203977,
            36.4763257
          ],
          [
            127.3185818,
            36.4779509
          ]
        ]
      },
      "properties": {
        "osm_type": "way",
        "osm_id": 1113483245,
        "sido": "대전광역시",
        "power_type": "line",
        "name": "",
        "description": "",
        "voltage": "154000",
        "cables": "6",
        "circuits": "2",
        "frequency": "60",
        "operator": "",
        "wires": ""
      }
    },
    {
      "type": "Feature",
      "geometry": {
        "type": "LineString",
        "coordinates": [
          [
            127.3968262,
            36.412754
          ],
          [
            127.3975804,
            36.4129099
          ],
          [
            127.3999411,
            36.4127904
          ],
          [
            127.4023645,
            36.4109586
          ],
          [
            127.4023664,
            36.4109571
          ],
          [
            127.405045,
            36.4089197
          ],
          [
            127.4066857,
            36.4066935
          ],
          [
            127.4077997,
            36.4052542
          ],
          [
            127.4087428,
            36.4036361
          ]
        ]
      },
      "properties": {
        "osm_type": "way",
        "osm_id": 1224662100,
        "sido": "대전광역시",
        "power_type": "line",
        "name": "",
        "description": "",
        "voltage": "",
        "cables": "",
        "circuits": "",
        "frequency": "",
        "operator": "",
        "wires": ""
      }
    },
    {
      "type": "Feature",
      "geometry": {
        "type": "LineString",
        "coordinates": [
          [
            127.3152175,
            36.3796518
          ],
          [
            127.3129247,
            36.3795547
          ],
          [
            127.3124431,
            36.3765398
          ],
          [
            127.3120549,
            36.3741341
          ],
          [
            127.3116871,
            36.3716517
          ],
          [
            127.3112944,
            36.3691174
          ],
          [
            127.3116306,
            36.3674181
          ],
          [
            127.3122197,
            36.3642113
          ],
          [
            127.3118134,
            36.3622164
          ],
          [
            127.3112809,
            36.3595286
          ],
          [
            127.310755,
            36.3568856
          ],
          [
            127.3097937,
            36.3537804
          ],
          [
            127.3091753,
            36.3517223
          ],
          [
            127.3062866,
            36.3504183
          ],
          [
            127.3035473,
            36.3491424
          ],
          [
            127.303593,
            36.3473586
          ]
        ]
      },
      "properties": {
        "osm_type": "way",
        "osm_id": 1285091392,
        "sido": "대전광역시",
        "power_type": "line",
        "name": "",
        "description": "",
        "voltage": "154000",
        "cables": "6",
        "circuits": "2",
        "frequency": "60",
        "operator": "",
        "wires": ""
      }
    },
    {
      "type": "Feature",
      "geometry": {
        "type": "LineString",
        "coordinates": [
          [
            127.3625892,
            36.3219349
          ],
          [
            127.363754,
            36.3234219
          ],
          [
            127.3653837,
            36.3251545
          ]
        ]
      },
      "properties": {
        "osm_type": "way",
        "osm_id": 1431347614,
        "sido": "대전광역시",
        "power_type": "line",
        "name": "",
        "description": "",
        "voltage": "154000",
        "cables": "12",
        "circuits": "4",
        "frequency": "60",
        "operator": "",
        "wires": ""
      }
    },
    {
      "type": "Feature",
      "geometry": {
        "type": "LineString",
        "coordinates": [
          [
            127.3799061,
            36.4144981
          ],
          [
            127.3773524,
            36.4156966
          ]
        ]
      },
      "properties": {
        "osm_type": "way",
        "osm_id": 1432641503,
        "sido": "대전광역시",
        "power_type": "cable",
        "name": "",
        "description": "",
        "voltage": "154000",
        "cables": "6",
        "circuits": "2",
        "frequency": "60",
        "operator": "",
        "wires": ""
      }
    },
    {
      "type": "Feature",
      "geometry": {
        "type": "LineString",
        "coordinates": [
          [
            127.3773524,
            36.4156966
          ],
          [
            127.374984,
            36.4166031
          ],
          [
            127.3732245,
            36.418019
          ],
          [
            127.3704457,
            36.4190032
          ],
          [
            127.368359,
            36.419668
          ],
          [
            127.3662266,
            36.420417
          ],
          [
            127.3658243,
            36.4217357
          ],
          [
            127.3651564,
            36.4244486
          ],
          [
            127.364679,
            36.4263327
          ],
          [
            127.3617956,
            36.4283462
          ],
          [
            127.358703,
            36.4305626
          ],
          [
            127.3559672,
            36.432466
          ],
          [
            127.3538965,
            36.4357072
          ],
          [
            127.3531347,
            36.4374551
          ],
          [
            127.350938,
            36.4413175
          ]
        ]
      },
      "properties": {
        "osm_type": "way",
        "osm_id": 1432641504,
        "sido": "대전광역시",
        "power_type": "line",
        "name": "",
        "description": "",
        "voltage": "154000",
        "cables": "6",
        "circuits": "2",
        "frequency": "60",
        "operator": "",
        "wires": ""
      }
    },
    {
      "type": "Feature",
      "geometry": {
        "type": "LineString",
        "coordinates": [
          [
            127.3805979,
            36.4217728
          ],
          [
            127.3808779,
            36.4246908
          ]
        ]
      },
      "properties": {
        "osm_type": "way",
        "osm_id": 1432641505,
        "sido": "대전광역시",
        "power_type": "line",
        "name": "",
        "description": "",
        "voltage": "154000",
        "cables": "6",
        "circuits": "2",
        "frequency": "",
        "operator": "",
        "wires": ""
      }
    },
    {
      "type": "Feature",
      "geometry": {
        "type": "LineString",
        "coordinates": [
          [
            127.3808779,
            36.4246908
          ],
          [
            127.3804209,
            36.4220357
          ]
        ]
      },
      "properties": {
        "osm_type": "way",
        "osm_id": 1432641506,
        "sido": "대전광역시",
        "power_type": "line",
        "name": "",
        "description": "",
        "voltage": "154000",
        "cables": "6",
        "circuits": "2",
        "frequency": "",
        "operator": "",
        "wires": ""
      }
    },
    {
      "type": "Feature",
      "geometry": {
        "type": "LineString",
        "coordinates": [
          [
            127.3072055,
            36.3963914
          ],
          [
            127.3111608,
            36.3865621
          ]
        ]
      },
      "properties": {
        "osm_type": "way",
        "osm_id": 1432641507,
        "sido": "대전광역시",
        "power_type": "cable",
        "name": "",
        "description": "",
        "voltage": "154000",
        "cables": "6",
        "circuits": "2",
        "frequency": "",
        "operator": "",
        "wires": ""
      }
    },
    {
      "type": "Feature",
      "geometry": {
        "type": "LineString",
        "coordinates": [
          [
            127.3562556,
            36.4455095
          ],
          [
            127.3504168,
            36.4455001
          ]
        ]
      },
      "properties": {
        "osm_type": "way",
        "osm_id": 1432641508,
        "sido": "대전광역시",
        "power_type": "cable",
        "name": "",
        "description": "",
        "voltage": "154000",
        "cables": "12",
        "circuits": "4",
        "frequency": "",
        "operator": "",
        "wires": ""
      }
    },
    {
      "type": "Feature",
      "geometry": {
        "type": "LineString",
        "coordinates": [
          [
            127.3808779,
            36.4246908
          ],
          [
            127.3807967,
            36.4278317
          ],
          [
            127.3806931,
            36.4307134
          ],
          [
            127.3801302,
            36.4323333
          ],
          [
            127.3792123,
            36.4351127
          ],
          [
            127.3769943,
            36.4370809
          ],
          [
            127.3747251,
            36.4391279
          ],
          [
            127.3714381,
            36.4410458
          ],
          [
            127.3681254,
            36.4430067
          ],
          [
            127.3662214,
            36.4447958
          ],
          [
            127.3631341,
            36.4450006
          ],
          [
            127.3575712,
            36.4454253
          ],
          [
            127.3562556,
            36.4455095
          ]
        ]
      },
      "properties": {
        "osm_type": "way",
        "osm_id": 1432641509,
        "sido": "대전광역시",
        "power_type": "line",
        "name": "",
        "description": "",
        "voltage": "154000",
        "cables": "12",
        "circuits": "4",
        "frequency": "",
        "operator": "KoreaNet",
        "wires": "quad"
      }
    },
    {
      "type": "Feature",
      "geometry": {
        "type": "LineString",
        "coordinates": [
          [
            127.3507328,
            36.4460116
          ],
          [
            127.3502782,
            36.4458616
          ]
        ]
      },
      "properties": {
        "osm_type": "way",
        "osm_id": 1432641510,
        "sido": "대전광역시",
        "power_type": "line",
        "name": "",
        "description": "",
        "voltage": "154000",
        "cables": "3",
        "circuits": "",
        "frequency": "60",
        "operator": "",
        "wires": ""
      }
    },
    {
      "type": "Feature",
      "geometry": {
        "type": "LineString",
        "coordinates": [
          [
            127.35071,
            36.4461097
          ],
          [
            127.3502782,
            36.4458616
          ]
        ]
      },
      "properties": {
        "osm_type": "way",
        "osm_id": 1432641511,
        "sido": "대전광역시",
        "power_type": "line",
        "name": "",
        "description": "",
        "voltage": "154000",
        "cables": "3",
        "circuits": "",
        "frequency": "60",
        "operator": "",
        "wires": ""
      }
    },
    {
      "type": "Feature",
      "geometry": {
        "type": "LineString",
        "coordinates": [
          [
            127.2954922,
            36.4241845
          ],
          [
            127.2946845,
            36.4210692
          ],
          [
            127.2935736,
            36.4162146
          ],
          [
            127.2931299,
            36.4137347
          ],
          [
            127.2946466,
            36.4115592
          ],
          [
            127.2962804,
            36.409193
          ],
          [
            127.2979185,
            36.4067358
          ],
          [
            127.2996867,
            36.4052061
          ],
          [
            127.3017668,
            36.4033903
          ],
          [
            127.3035826,
            36.4019082
          ],
          [
            127.3059098,
            36.399854
          ],
          [
            127.3066205,
            36.3979559
          ],
          [
            127.3072055,
            36.3963914
          ]
        ]
      },
      "properties": {
        "osm_type": "way",
        "osm_id": 1432641513,
        "sido": "대전광역시",
        "power_type": "line",
        "name": "",
        "description": "",
        "voltage": "154000",
        "cables": "6",
        "circuits": "2",
        "frequency": "",
        "operator": "KoreaNet",
        "wires": "quad"
      }
    },
    {
      "type": "Feature",
      "geometry": {
        "type": "LineString",
        "coordinates": [
          [
            127.3111608,
            36.3865621
          ],
          [
            127.3115765,
            36.3856643
          ],
          [
            127.3126556,
            36.3833999
          ],
          [
            127.3136153,
            36.3817016
          ],
          [
            127.315227,
            36.3798109
          ]
        ]
      },
      "properties": {
        "osm_type": "way",
        "osm_id": 1432641514,
        "sido": "대전광역시",
        "power_type": "line",
        "name": "",
        "description": "",
        "voltage": "154000",
        "cables": "6",
        "circuits": "2",
        "frequency": "",
        "operator": "KoreaNet",
        "wires": "quad"
      }
    }
  ]
}