{
  "type": "FeatureCollection",
  "features": [
    {
      "type": "Feature",
      "geometry": {
        "type": "Point",
        "coordinates": [
          128.6504696,
          38.0504113
        ]
      },
      "properties": {
        "osm_type": "way",
        "osm_id": 168904645,
        "sido": "강원특별자치도",
        "name": "양양변전소",
        "name_en": "Yangyang Substation",
        "substation_type": "distribution",
        "voltage": "154000",
        "frequency": "60",
        "operator": "",
        "location": "indoor"
      }
    },
    {
      "type": "Feature",
      "geometry": {
        "type": "Point",
        "coordinates": [
          128.5609076,
          38.1850998
        ]
      },
      "properties": {
        "osm_type": "way",
        "osm_id": 180075042,
        "sido": "강원특별자치도",
        "name": "속초변전소",
        "name_en": "Sokcho Substation",
        "substation_type": "distribution",
        "voltage": "154000",
        "frequency": "60",
        "operator": "",
        "location": "outdoor"
      }
    },
    {
      "type": "Feature",
      "geometry": {
        "type": "Point",
        "coordinates": [
          128.9615244,
          37.2561736
        ]
      },
      "properties": {
        "osm_type": "way",
        "osm_id": 310995918,
        "sido": "강원특별자치도",
        "name": "신태백변전소",
        "name_en": "New Taebaek Substation",
        "substation_type": "transmission",
        "voltage": "765000",
        "frequency": "60",
        "operator": "",
        "location": "outdoor"
      }
    },
    {
      "type": "Feature",
      "geometry": {
        "type": "Point",
        "coordinates": [
          127.3319006,
          38.1799725
        ]
      },
      "properties": {
        "osm_type": "way",
        "osm_id": 311144503,
        "sido": "강원특별자치도",
        "name": "철원변전소",
        "name_en": "Cheorwon Substation",
        "substation_type": "distribution",
        "voltage": "154000",
        "frequency": "60",
        "operator": "한국전력공사",
        "location": "outdoor"
      }
    },
    {
      "type": "Feature",
      "geometry": {
        "type": "Point",
        "coordinates": [
          128.5515289,
          38.0154919
        ]
      },
      "properties": {
        "osm_type": "way",
        "osm_id": 311223097,
        "sido": "강원특별자치도",
        "name": "신양양변전소",
        "name_en": "Shin-Yangyang Substation",
        "substation_type": "transmission",
        "voltage": "345000",
        "frequency": "60",
        "operator": "",
        "location": "outdoor"
      }
    },
    {
      "type": "Feature",
      "geometry": {
        "type": "Point",
        "coordinates": [
          129.0995712,
          37.5103383
        ]
      },
      "properties": {
        "osm_type": "way",
        "osm_id": 311223101,
        "sido": "강원특별자치도",
        "name": "동해변전소",
        "name_en": "Donghae Substation",
        "substation_type": "transmission",
        "voltage": "345000",
        "frequency": "60",
        "operator": "",
        "location": "outdoor"
      }
    },
    {
      "type": "Feature",
      "geometry": {
        "type": "Point",
        "coordinates": [
          128.8737691,
          37.7447691
        ]
      },
      "properties": {
        "osm_type": "way",
        "osm_id": 313244165,
        "sido": "강원특별자치도",
        "name": "강릉변전소",
        "name_en": "Gangneung Substation",
        "substation_type": "distribution",
        "voltage": "154000",
        "frequency": "60",
        "operator": "",
        "location": "outdoor"
      }
    },
    {
      "type": "Feature",
      "geometry": {
        "type": "Point",
        "coordinates": [
          128.4507936,
          38.3865092
        ]
      },
      "properties": {
        "osm_type": "way",
        "osm_id": 313283373,
        "sido": "강원특별자치도",
        "name": "간성변전소",
        "name_en": "",
        "substation_type": "distribution",
        "voltage": "154000",
        "frequency": "60",
        "operator": "",
        "location": "outdoor"
      }
    },
    {
      "type": "Feature",
      "geometry": {
        "type": "Point",
        "coordinates": [
          129.1131536,
          37.491885
        ]
      },
      "properties": {
        "osm_type": "way",
        "osm_id": 317076483,
        "sido": "강원특별자치도",
        "name": "북평변전소",
        "name_en": "",
        "substation_type": "distribution",
        "voltage": "154000",
        "frequency": "60",
        "operator": "",
        "location": "indoor"
      }
    },
    {
      "type": "Feature",
      "geometry": {
        "type": "Point",
        "coordinates": [
          128.9842318,
          37.15691
        ]
      },
      "properties": {
        "osm_type": "way",
        "osm_id": 676857659,
        "sido": "강원특별자치도",
        "name": "태백변전소",
        "name_en": "Taebaek Substation",
        "substation_type": "distribution",
        "voltage": "154000",
        "frequency": "60",
        "operator": "",
        "location": "outdoor"
      }
    },
    {
      "type": "Feature",
      "geometry": {
        "type": "Point",
        "coordinates": [
          129.0327685,
          37.1506147
        ]
      },
      "properties": {
        "osm_type": "way",
        "osm_id": 678104002,
        "sido": "강원특별자치도",
        "name": "",
        "name_en": "",
        "substation_type": "",
        "voltage": "",
        "frequency": "",
        "operator": "",
        "location": ""
      }
    },
    {
      "type": "Feature",
      "geometry": {
        "type": "Point",
        "coordinates": [
          129.0671094,
          37.1805747
        ]
      },
      "properties": {
        "osm_type": "way",
        "osm_id": 678104005,
        "sido": "강원특별자치도",
        "name": "",
        "name_en": "",
        "substation_type": "",
        "voltage": "",
        "frequency": "",
        "operator": "",
        "location": ""
      }
    },
    {
      "type": "Feature",
      "geometry": {
        "type": "Point",
        "coordinates": [
          128.0290792,
          37.4927136
        ]
      },
      "properties": {
        "osm_type": "way",
        "osm_id": 737021799,
        "sido": "강원특별자치도",
        "name": "횡성변전소",
        "name_en": "Hoengsong Substation",
        "substation_type": "distribution",
        "voltage": "154000",
        "frequency": "60",
        "operator": "",
        "location": "indoor"
      }
    },
    {
      "type": "Feature",
      "geometry": {
        "type": "Point",
        "coordinates": [
          127.7617069,
          38.0982473
        ]
      },
      "properties": {
        "osm_type": "way",
        "osm_id": 814019743,
        "sido": "강원특별자치도",
        "name": "",
        "name_en": "",
        "substation_type": "",
        "voltage": "",
        "frequency": "",
        "operator": "",
        "location": ""
      }
    },
    {
      "type": "Feature",
      "geometry": {
        "type": "Point",
        "coordinates": [
          129.3358453,
          37.1869233
        ]
      },
      "properties": {
        "osm_type": "way",
        "osm_id": 814635250,
        "sido": "강원특별자치도",
        "name": "삼척그린파워변전소",
        "name_en": "",
        "substation_type": "distribution",
        "voltage": "154000",
        "frequency": "60",
        "operator": "",
        "location": "outdoor"
      }
    },
    {
      "type": "Feature",
      "geometry": {
        "type": "Point",
        "coordinates": [
          128.4961867,
          37.1620832
        ]
      },
      "properties": {
        "osm_type": "way",
        "osm_id": 882187024,
        "sido": "강원특별자치도",
        "name": "영월변전소",
        "name_en": "Yeongwol Substation",
        "substation_type": "transmission",
        "voltage": "154000",
        "frequency": "",
        "operator": "",
        "location": "indoor"
      }
    },
    {
      "type": "Feature",
      "geometry": {
        "type": "Point",
        "coordinates": [
          128.6251563,
          37.1868741
        ]
      },
      "properties": {
        "osm_type": "way",
        "osm_id": 886407199,
        "sido": "강원특별자치도",
        "name": "동영월변전소",
        "name_en": "East-Yeongwol Substation",
        "substation_type": "distribution",
        "voltage": "154000",
        "frequency": "60",
        "operator": "",
        "location": "indoor"
      }
    },
    {
      "type": "Feature",
      "geometry": {
        "type": "Point",
        "coordinates": [
          128.8015099,
          37.8782214
        ]
      },
      "properties": {
        "osm_type": "way",
        "osm_id": 886623576,
        "sido": "강원특별자치도",
        "name": "주문진변전소",
        "name_en": "Jumunjin Substation",
        "substation_type": "distribution",
        "voltage": "154000",
        "frequency": "60",
        "operator": "",
        "location": "indoor"
      }
    },
    {
      "type": "Feature",
      "geometry": {
        "type": "Point",
        "coordinates": [
          128.1775491,
          38.1138918
        ]
      },
      "properties": {
        "osm_type": "way",
        "osm_id": 886623580,
        "sido": "강원특별자치도",
        "name": "인제변전소",
        "name_en": "Inje Substation",
        "substation_type": "distribution",
        "voltage": "154000",
        "frequency": "60",
        "operator": "",
        "location": "indoor"
      }
    },
    {
      "type": "Feature",
      "geometry": {
        "type": "Point",
        "coordinates": [
          127.8716352,
          37.6742474
        ]
      },
      "properties": {
        "osm_type": "way",
        "osm_id": 886623584,
        "sido": "강원특별자치도",
        "name": "홍천변전소",
        "name_en": "Heungcheon Substation",
        "substation_type": "distribution",
        "voltage": "154000",
        "frequency": "60",
        "operator": "",
        "location": "outdoor"
      }
    },
    {
      "type": "Feature",
      "geometry": {
        "type": "Point",
        "coordinates": [
          128.2365164,
          37.8416565
        ]
      },
      "properties": {
        "osm_type": "way",
        "osm_id": 886623586,
        "sido": "강원특별자치도",
        "name": "상남변전소",
        "name_en": "Seongnam Substation",
        "substation_type": "distribution",
        "voltage": "154000",
        "frequency": "60",
        "operator": "",
        "location": "outdoor"
      }
    },
    {
      "type": "Feature",
      "geometry": {
        "type": "Point",
        "coordinates": [
          128.0106305,
          38.0608425
        ]
      },
      "properties": {
        "osm_type": "way",
        "osm_id": 886623589,
        "sido": "강원특별자치도",
        "name": "양구변전소",
        "name_en": "Yanggu Substation",
        "substation_type": "distribution",
        "voltage": "154000",
        "frequency": "60",
        "operator": "",
        "location": "indoor"
      }
    },
    {
      "type": "Feature",
      "geometry": {
        "type": "Point",
        "coordinates": [
          127.7888529,
          37.2893013
        ]
      },
      "properties": {
        "osm_type": "way",
        "osm_id": 886623592,
        "sido": "강원특별자치도",
        "name": "문막변전소",
        "name_en": "Munak Substation",
        "substation_type": "distribution",
        "voltage": "154000",
        "frequency": "60",
        "operator": "",
        "location": "outdoor"
      }
    },
    {
      "type": "Feature",
      "geometry": {
        "type": "Point",
        "coordinates": [
          128.8490802,
          37.8012044
        ]
      },
      "properties": {
        "osm_type": "way",
        "osm_id": 886799862,
        "sido": "강원특별자치도",
        "name": "북강릉변전소",
        "name_en": "North-Gangneung Subtation",
        "substation_type": "distribution",
        "voltage": "154000",
        "frequency": "60",
        "operator": "",
        "location": "indoor"
      }
    },
    {
      "type": "Feature",
      "geometry": {
        "type": "Point",
        "coordinates": [
          127.6450537,
          38.1262818
        ]
      },
      "properties": {
        "osm_type": "way",
        "osm_id": 886799867,
        "sido": "강원특별자치도",
        "name": "화천변전소",
        "name_en": "Hwacheon Substation",
        "substation_type": "distribution",
        "voltage": "154000",
        "frequency": "60",
        "operator": "",
        "location": "indoor"
      }
    },
    {
      "type": "Feature",
      "geometry": {
        "type": "Point",
        "coordinates": [
          127.7521909,
          37.8845749
        ]
      },
      "properties": {
        "osm_type": "way",
        "osm_id": 886928063,
        "sido": "강원특별자치도",
        "name": "춘천변전소",
        "name_en": "Chuncheon Substation",
        "substation_type": "distribution",
        "voltage": "154000",
        "frequency": "60",
        "operator": "",
        "location": "indoor"
      }
    },
    {
      "type": "Feature",
      "geometry": {
        "type": "Point",
        "coordinates": [
          127.7317791,
          37.9367725
        ]
      },
      "properties": {
        "osm_type": "way",
        "osm_id": 886928065,
        "sido": "강원특별자치도",
        "name": "북춘천변전소",
        "name_en": "North-Chuncheon Substation",
        "substation_type": "distribution",
        "voltage": "154000",
        "frequency": "60",
        "operator": "",
        "location": "indoor"
      }
    },
    {
      "type": "Feature",
      "geometry": {
        "type": "Point",
        "coordinates": [
          127.5795387,
          37.680952
        ]
      },
      "properties": {
        "osm_type": "way",
        "osm_id": 886928073,
        "sido": "강원특별자치도",
        "name": "서홍천변전소",
        "name_en": "West-Hongcheon Substation",
        "substation_type": "distribution",
        "voltage": "154000",
        "frequency": "60",
        "operator": "",
        "location": "indoor"
      }
    },
    {
      "type": "Feature",
      "geometry": {
        "type": "Point",
        "coordinates": [
          127.7437561,
          37.8442708
        ]
      },
      "properties": {
        "osm_type": "way",
        "osm_id": 886928076,
        "sido": "강원특별자치도",
        "name": "남춘천변전소",
        "name_en": "South-Chuncheon Substation",
        "substation_type": "distribution",
        "voltage": "154000",
        "frequency": "60",
        "operator": "",
        "location": ""
      }
    },
    {
      "type": "Feature",
      "geometry": {
        "type": "Point",
        "coordinates": [
          128.7045162,
          37.6620393
        ]
      },
      "properties": {
        "osm_type": "way",
        "osm_id": 893205770,
        "sido": "강원특별자치도",
        "name": "횡계변전소",
        "name_en": "Hoenggye Substation",
        "substation_type": "distribution",
        "voltage": "154000",
        "frequency": "60",
        "operator": "",
        "location": "indoor"
      }
    },
    {
      "type": "Feature",
      "geometry": {
        "type": "Point",
        "coordinates": [
          128.671305,
          37.6761145
        ]
      },
      "properties": {
        "osm_type": "way",
        "osm_id": 893205773,
        "sido": "강원특별자치도",
        "name": "올림픽변전소",
        "name_en": "Olympic Substation",
        "substation_type": "distribution",
        "voltage": "154000",
        "frequency": "60",
        "operator": "",
        "location": "outdoor"
      }
    },
    {
      "type": "Feature",
      "geometry": {
        "type": "Point",
        "coordinates": [
          128.4186434,
          37.4166639
        ]
      },
      "properties": {
        "osm_type": "way",
        "osm_id": 893205778,
        "sido": "강원특별자치도",
        "name": "주진변전소",
        "name_en": "Jujin Substation",
        "substation_type": "distribution",
        "voltage": "154000",
        "frequency": "60",
        "operator": "",
        "location": "indoor"
      }
    },
    {
      "type": "Feature",
      "geometry": {
        "type": "Point",
        "coordinates": [
          128.4353996,
          37.5598655
        ]
      },
      "properties": {
        "osm_type": "way",
        "osm_id": 893205779,
        "sido": "강원특별자치도",
        "name": "평창변전소",
        "name_en": "Pyeongchang Substation",
        "substation_type": "distribution",
        "voltage": "154000",
        "frequency": "60",
        "operator": "",
        "location": "outdoor"
      }
    },
    {
      "type": "Feature",
      "geometry": {
        "type": "Point",
        "coordinates": [
          129.1831634,
          37.4269075
        ]
      },
      "properties": {
        "osm_type": "way",
        "osm_id": 893278763,
        "sido": "강원특별자치도",
        "name": "삼척변전소",
        "name_en": "Samcheok Substation",
        "substation_type": "distribution",
        "voltage": "154000",
        "frequency": "60",
        "operator": "",
        "location": "indoor"
      }
    },
    {
      "type": "Feature",
      "geometry": {
        "type": "Point",
        "coordinates": [
          127.8736363,
          37.3689302
        ]
      },
      "properties": {
        "osm_type": "way",
        "osm_id": 893278765,
        "sido": "강원특별자치도",
        "name": "서원주변전소",
        "name_en": "West-Wonju Substation",
        "substation_type": "distribution",
        "voltage": "154000",
        "frequency": "60",
        "operator": "",
        "location": "indoor"
      }
    },
    {
      "type": "Feature",
      "geometry": {
        "type": "Point",
        "coordinates": [
          127.9759892,
          37.3292541
        ]
      },
      "properties": {
        "osm_type": "way",
        "osm_id": 893278766,
        "sido": "강원특별자치도",
        "name": "동원주변전소",
        "name_en": "",
        "substation_type": "distribution",
        "voltage": "154000",
        "frequency": "60",
        "operator": "",
        "location": "indoor"
      }
    },
    {
      "type": "Feature",
      "geometry": {
        "type": "Point",
        "coordinates": [
          127.9395421,
          37.3856272
        ]
      },
      "properties": {
        "osm_type": "way",
        "osm_id": 893278770,
        "sido": "강원특별자치도",
        "name": "북원주변전소",
        "name_en": "North-Wonju Substation",
        "substation_type": "distribution",
        "voltage": "154000",
        "frequency": "60",
        "operator": "",
        "location": "indoor"
      }
    },
    {
      "type": "Feature",
      "geometry": {
        "type": "Point",
        "coordinates": [
          127.9515148,
          37.318585
        ]
      },
      "properties": {
        "osm_type": "way",
        "osm_id": 893278775,
        "sido": "강원특별자치도",
        "name": "남원주변전소",
        "name_en": "South-Wonju Substation",
        "substation_type": "distribution",
        "voltage": "154000",
        "frequency": "60",
        "operator": "",
        "location": "indoor"
      }
    },
    {
      "type": "Feature",
      "geometry": {
        "type": "Point",
        "coordinates": [
          128.1804003,
          37.490812
        ]
      },
      "properties": {
        "osm_type": "way",
        "osm_id": 893278776,
        "sido": "강원특별자치도",
        "name": "둔내변전소",
        "name_en": "Dunnae Substation",
        "substation_type": "distribution",
        "voltage": "154000",
        "frequency": "60",
        "operator": "",
        "location": "indoor"
      }
    },
    {
      "type": "Feature",
      "geometry": {
        "type": "Point",
        "coordinates": [
          127.9010879,
          37.3521161
        ]
      },
      "properties": {
        "osm_type": "way",
        "osm_id": 893614568,
        "sido": "강원특별자치도",
        "name": "원주변전소",
        "name_en": "Wonju Substation",
        "substation_type": "distribution",
        "voltage": "154000",
        "frequency": "60",
        "operator": "",
        "location": "outdoor"
      }
    },
    {
      "type": "Feature",
      "geometry": {
        "type": "Point",
        "coordinates": [
          129.091299,
          37.464421
        ]
      },
      "properties": {
        "osm_type": "way",
        "osm_id": 893614585,
        "sido": "강원특별자치도",
        "name": "이원변전소",
        "name_en": "Iwon Substation",
        "substation_type": "distribution",
        "voltage": "154000",
        "frequency": "60",
        "operator": "",
        "location": "indoor"
      }
    },
    {
      "type": "Feature",
      "geometry": {
        "type": "Point",
        "coordinates": [
          128.738461,
          37.3484259
        ]
      },
      "properties": {
        "osm_type": "way",
        "osm_id": 893614590,
        "sido": "강원특별자치도",
        "name": "정선변전소",
        "name_en": "Jeongseon Substation",
        "substation_type": "distribution",
        "voltage": "154000",
        "frequency": "60",
        "operator": "",
        "location": "indoor"
      }
    },
    {
      "type": "Feature",
      "geometry": {
        "type": "Point",
        "coordinates": [
          129.1153742,
          37.4809628
        ]
      },
      "properties": {
        "osm_type": "way",
        "osm_id": 893614591,
        "sido": "강원특별자치도",
        "name": "한국철도공사동해변전사업소",
        "name_en": "",
        "substation_type": "distribution",
        "voltage": "154000",
        "frequency": "60",
        "operator": "",
        "location": "indoor"
      }
    },
    {
      "type": "Feature",
      "geometry": {
        "type": "Point",
        "coordinates": [
          128.8399281,
          37.2191505
        ]
      },
      "properties": {
        "osm_type": "way",
        "osm_id": 893614595,
        "sido": "강원특별자치도",
        "name": "고한변전소",
        "name_en": "Gohan Substation",
        "substation_type": "distribution",
        "voltage": "154000",
        "frequency": "60",
        "operator": "",
        "location": "indoor"
      }
    },
    {
      "type": "Feature",
      "geometry": {
        "type": "Point",
        "coordinates": [
          129.0334059,
          37.2191712
        ]
      },
      "properties": {
        "osm_type": "way",
        "osm_id": 893614599,
        "sido": "강원특별자치도",
        "name": "도계변전소",
        "name_en": "Dogye Substation",
        "substation_type": "distribution",
        "voltage": "154000",
        "frequency": "60",
        "operator": "",
        "location": "indoor"
      }
    },
    {
      "type": "Feature",
      "geometry": {
        "type": "Point",
        "coordinates": [
          127.6780787,
          37.8360302
        ]
      },
      "properties": {
        "osm_type": "way",
        "osm_id": 1047299740,
        "sido": "강원특별자치도",
        "name": "",
        "name_en": "",
        "substation_type": "",
        "voltage": "",
        "frequency": "",
        "operator": "",
        "location": ""
      }
    },
    {
      "type": "Feature",
      "geometry": {
        "type": "Point",
        "coordinates": [
          127.6699713,
          37.967237
        ]
      },
      "properties": {
        "osm_type": "way",
        "osm_id": 1098222394,
        "sido": "강원특별자치도",
        "name": "",
        "name_en": "",
        "substation_type": "",
        "voltage": "154000",
        "frequency": "60",
        "operator": "",
        "location": ""
      }
    },
    {
      "type": "Feature",
      "geometry": {
        "type": "Point",
        "coordinates": [
          127.7733578,
          37.7645828
        ]
      },
      "properties": {
        "osm_type": "way",
        "osm_id": 1098222404,
        "sido": "강원특별자치도",
        "name": "",
        "name_en": "",
        "substation_type": "",
        "voltage": "154000",
        "frequency": "60",
        "operator": "",
        "location": ""
      }
    },
    {
      "type": "Feature",
      "geometry": {
        "type": "Point",
        "coordinates": [
          129.0129486,
          37.5928129
        ]
      },
      "properties": {
        "osm_type": "way",
        "osm_id": 1098558962,
        "sido": "강원특별자치도",
        "name": "한라시멘트 변전소",
        "name_en": "",
        "substation_type": "distribution",
        "voltage": "154000",
        "frequency": "",
        "operator": "",
        "location": ""
      }
    },
    {
      "type": "Feature",
      "geometry": {
        "type": "Point",
        "coordinates": [
          128.5365938,
          38.019823
        ]
      },
      "properties": {
        "osm_type": "way",
        "osm_id": 1098558972,
        "sido": "강원특별자치도",
        "name": "",
        "name_en": "",
        "substation_type": "",
        "voltage": "",
        "frequency": "",
        "operator": "",
        "location": ""
      }
    },
    {
      "type": "Feature",
      "geometry": {
        "type": "Point",
        "coordinates": [
          128.4016509,
          37.563565
        ]
      },
      "properties": {
        "osm_type": "way",
        "osm_id": 1193645804,
        "sido": "강원특별자치도",
        "name": "",
        "name_en": "",
        "substation_type": "traction",
        "voltage": "55000;27500",
        "frequency": "",
        "operator": "",
        "location": ""
      }
    },
    {
      "type": "Feature",
      "geometry": {
        "type": "Point",
        "coordinates": [
          128.5828324,
          37.6516896
        ]
      },
      "properties": {
        "osm_type": "way",
        "osm_id": 1193645805,
        "sido": "강원특별자치도",
        "name": "",
        "name_en": "",
        "substation_type": "traction",
        "voltage": "55000;27500",
        "frequency": "",
        "operator": "",
        "location": ""
      }
    },
    {
      "type": "Feature",
      "geometry": {
        "type": "Point",
        "coordinates": [
          128.8124147,
          37.7229768
        ]
      },
      "properties": {
        "osm_type": "way",
        "osm_id": 1193645806,
        "sido": "강원특별자치도",
        "name": "",
        "name_en": "",
        "substation_type": "traction",
        "voltage": "55000;27500",
        "frequency": "",
        "operator": "",
        "location": ""
      }
    },
    {
      "type": "Feature",
      "geometry": {
        "type": "Point",
        "coordinates": [
          128.9015167,
          37.7207506
        ]
      },
      "properties": {
        "osm_type": "way",
        "osm_id": 1193645807,
        "sido": "강원특별자치도",
        "name": "",
        "name_en": "",
        "substation_type": "traction",
        "voltage": "55000;27500",
        "frequency": "",
        "operator": "",
        "location": ""
      }
    },
    {
      "type": "Feature",
      "geometry": {
        "type": "Point",
        "coordinates": [
          128.9687366,
          37.7399193
        ]
      },
      "properties": {
        "osm_type": "way",
        "osm_id": 1193645808,
        "sido": "강원특별자치도",
        "name": "",
        "name_en": "",
        "substation_type": "traction",
        "voltage": "55000;27500",
        "frequency": "",
        "operator": "",
        "location": ""
      }
    },
    {
      "type": "Feature",
      "geometry": {
        "type": "Point",
        "coordinates": [
          127.7871617,
          37.3890022
        ]
      },
      "properties": {
        "osm_type": "way",
        "osm_id": 1193752840,
        "sido": "강원특별자치도",
        "name": "",
        "name_en": "",
        "substation_type": "traction",
        "voltage": "55000;27500",
        "frequency": "",
        "operator": "",
        "location": ""
      }
    },
    {
      "type": "Feature",
      "geometry": {
        "type": "Point",
        "coordinates": [
          127.8490705,
          37.3423038
        ]
      },
      "properties": {
        "osm_type": "way",
        "osm_id": 1193752841,
        "sido": "강원특별자치도",
        "name": "",
        "name_en": "",
        "substation_type": "traction",
        "voltage": "55000;27500",
        "frequency": "",
        "operator": "",
        "location": ""
      }
    },
    {
      "type": "Feature",
      "geometry": {
        "type": "Point",
        "coordinates": [
          127.8772401,
          37.3448659
        ]
      },
      "properties": {
        "osm_type": "way",
        "osm_id": 1193752842,
        "sido": "강원특별자치도",
        "name": "",
        "name_en": "",
        "substation_type": "traction",
        "voltage": "55000;27500",
        "frequency": "",
        "operator": "",
        "location": ""
      }
    },
    {
      "type": "Feature",
      "geometry": {
        "type": "Point",
        "coordinates": [
          127.9353853,
          37.3988328
        ]
      },
      "properties": {
        "osm_type": "way",
        "osm_id": 1193752843,
        "sido": "강원특별자치도",
        "name": "",
        "name_en": "",
        "substation_type": "traction",
        "voltage": "55000;27500",
        "frequency": "",
        "operator": "",
        "location": ""
      }
    },
    {
      "type": "Feature",
      "geometry": {
        "type": "Point",
        "coordinates": [
          127.9866947,
          37.4533378
        ]
      },
      "properties": {
        "osm_type": "way",
        "osm_id": 1193752844,
        "sido": "강원특별자치도",
        "name": "",
        "name_en": "",
        "substation_type": "traction",
        "voltage": "55000;27500",
        "frequency": "",
        "operator": "",
        "location": ""
      }
    },
    {
      "type": "Feature",
      "geometry": {
        "type": "Point",
        "coordinates": [
          128.0279979,
          37.495092
        ]
      },
      "properties": {
        "osm_type": "way",
        "osm_id": 1193752845,
        "sido": "강원특별자치도",
        "name": "",
        "name_en": "",
        "substation_type": "traction",
        "voltage": "154000;55000;27500",
        "frequency": "",
        "operator": "",
        "location": ""
      }
    },
    {
      "type": "Feature",
      "geometry": {
        "type": "Point",
        "coordinates": [
          128.1124762,
          37.5253349
        ]
      },
      "properties": {
        "osm_type": "way",
        "osm_id": 1193752846,
        "sido": "강원특별자치도",
        "name": "",
        "name_en": "",
        "substation_type": "traction",
        "voltage": "55000;27500",
        "frequency": "",
        "operator": "",
        "location": ""
      }
    },
    {
      "type": "Feature",
      "geometry": {
        "type": "Point",
        "coordinates": [
          128.3236713,
          37.2289798
        ]
      },
      "properties": {
        "osm_type": "way",
        "osm_id": 1195916328,
        "sido": "강원특별자치도",
        "name": "",
        "name_en": "",
        "substation_type": "industrial",
        "voltage": "154000",
        "frequency": "",
        "operator": "",
        "location": ""
      }
    },
    {
      "type": "Feature",
      "geometry": {
        "type": "Point",
        "coordinates": [
          128.9216416,
          37.6472534
        ]
      },
      "properties": {
        "osm_type": "way",
        "osm_id": 1243425785,
        "sido": "강원특별자치도",
        "name": "",
        "name_en": "",
        "substation_type": "",
        "voltage": "",
        "frequency": "",
        "operator": "",
        "location": ""
      }
    },
    {
      "type": "Feature",
      "geometry": {
        "type": "Point",
        "coordinates": [
          129.3056073,
          37.2759968
        ]
      },
      "properties": {
        "osm_type": "way",
        "osm_id": 1366550571,
        "sido": "강원특별자치도",
        "name": "",
        "name_en": "",
        "substation_type": "yes",
        "voltage": "25000",
        "frequency": "",
        "operator": "한국철도공사",
        "location": ""
      }
    },
    {
      "type": "Feature",
      "geometry": {
        "type": "Point",
        "coordinates": [
          129.2641977,
          37.323517
        ]
      },
      "properties": {
        "osm_type": "way",
        "osm_id": 1366550578,
        "sido": "강원특별자치도",
        "name": "",
        "name_en": "",
        "substation_type": "",
        "voltage": "25000",
        "frequency": "",
        "operator": "한국철도공사",
        "location": ""
      }
    },
    {
      "type": "Feature",
      "geometry": {
        "type": "Point",
        "coordinates": [
          127.7996897,
          37.2946908
        ]
      },
      "properties": {
        "osm_type": "way",
        "osm_id": 1431347643,
        "sido": "강원특별자치도",
        "name": "",
        "name_en": "",
        "substation_type": "industrial",
        "voltage": "154000",
        "frequency": "60",
        "operator": "",
        "location": "outdoor"
      }
    }
  ]
}