{
  "type": "FeatureCollection",
  "features": [
    {
      "type": "Feature",
      "geometry": {
        "type": "Point",
        "coordinates": [
          127.2970986,
          36.5188439
        ]
      },
      "properties": {
        "osm_type": "way",
        "osm_id": 313280968,
        "sido": "세종특별자치시",
        "name": "",
        "name_en": "",
        "substation_type": "distribution",
        "voltage": "154000",
        "frequency": "60",
        "operator": "",
        "location": "indoor"
      }
    },
    {
      "type": "Feature",
      "geometry": {
        "type": "Point",
        "coordinates": [
          127.3611497,
          36.4936053
        ]
      },
      "properties": {
        "osm_type": "way",
        "osm_id": 639947866,
        "sido": "세종특별자치시",
        "name": "월산변전소",
        "name_en": "Wolsan Substation",
        "substation_type": "distribution",
        "voltage": "154000",
        "frequency": "60",
        "operator": "",
        "location": "outdoor"
      }
    },
    {
      "type": "Feature",
      "geometry": {
        "type": "Point",
        "coordinates": [
          127.3349532,
          36.4954203
        ]
      },
      "properties": {
        "osm_type": "way",
        "osm_id": 883142549,
        "sido": "세종특별자치시",
        "name": "세종변전소",
        "name_en": "Sejong Substation",
        "substation_type": "transmission",
        "voltage": "345000",
        "frequency": "60",
        "operator": "",
        "location": "indoor"
      }
    },
    {
      "type": "Feature",
      "geometry": {
        "type": "Point",
        "coordinates": [
          127.2169207,
          36.701935
        ]
      },
      "properties": {
        "osm_type": "way",
        "osm_id": 886407198,
        "sido": "세종특별자치시",
        "name": "전의변전소",
        "name_en": "",
        "substation_type": "distribution",
        "voltage": "154000",
        "frequency": "60",
        "operator": "",
        "location": "indoor"
      }
    },
    {
      "type": "Feature",
      "geometry": {
        "type": "Point",
        "coordinates": [
          127.2429732,
          36.4665915
        ]
      },
      "properties": {
        "osm_type": "way",
        "osm_id": 894856177,
        "sido": "세종특별자치시",
        "name": "서세종변전소",
        "name_en": "",
        "substation_type": "distribution",
        "voltage": "154000",
        "frequency": "60",
        "operator": "",
        "location": "indoor"
      }
    },
    {
      "type": "Feature",
      "geometry": {
        "type": "Point",
        "coordinates": [
          127.2738754,
          36.5916807
        ]
      },
      "properties": {
        "osm_type": "way",
        "osm_id": 894856180,
        "sido": "세종특별자치시",
        "name": "조치원변전소",
        "name_en": "Jochiwon Substation",
        "substation_type": "distribution",
        "voltage": "154000",
        "frequency": "60",
        "operator": "",
        "location": "indoor"
      }
    },
    {
      "type": "Feature",
      "geometry": {
        "type": "Point",
        "coordinates": [
          127.1961223,
          36.7045606
        ]
      },
      "properties": {
        "osm_type": "way",
        "osm_id": 1193546758,
        "sido": "세종특별자치시",
        "name": "",
        "name_en": "",
        "substation_type": "traction",
        "voltage": "55000;27500",
        "frequency": "",
        "operator": "",
        "location": ""
      }
    },
    {
      "type": "Feature",
      "geometry": {
        "type": "Point",
        "coordinates": [
          127.2138436,
          36.672074
        ]
      },
      "properties": {
        "osm_type": "way",
        "osm_id": 1193850044,
        "sido": "세종특별자치시",
        "name": "",
        "name_en": "",
        "substation_type": "traction",
        "voltage": "55000;27500",
        "frequency": "",
        "operator": "",
        "location": ""
      }
    },
    {
      "type": "Feature",
      "geometry": {
        "type": "Point",
        "coordinates": [
          127.2956533,
          36.5993128
        ]
      },
      "properties": {
        "osm_type": "way",
        "osm_id": 1193850046,
        "sido": "세종특별자치시",
        "name": "",
        "name_en": "",
        "substation_type": "traction",
        "voltage": "154000;55000;27500",
        "frequency": "",
        "operator": "",
        "location": ""
      }
    },
    {
      "type": "Feature",
      "geometry": {
        "type": "Point",
        "coordinates": [
          127.3972577,
          36.4945635
        ]
      },
      "properties": {
        "osm_type": "way",
        "osm_id": 1193850047,
        "sido": "세종특별자치시",
        "name": "",
        "name_en": "",
        "substation_type": "traction",
        "voltage": "55000;27500",
        "frequency": "",
        "operator": "",
        "location": ""
      }
    },
    {
      "type": "Feature",
      "geometry": {
        "type": "Point",
        "coordinates": [
          127.276486,
          36.4543142
        ]
      },
      "properties": {
        "osm_type": "way",
        "osm_id": 1193995776,
        "sido": "세종특별자치시",
        "name": "금남병렬급전소",
        "name_en": "Geumnam Parallel Post",
        "substation_type": "traction",
        "voltage": "55000;27500",
        "frequency": "",
        "operator": "",
        "location": ""
      }
    },
    {
      "type": "Feature",
      "geometry": {
        "type": "Point",
        "coordinates": [
          127.3400261,
          36.4949352
        ]
      },
      "properties": {
        "osm_type": "way",
        "osm_id": 1193995777,
        "sido": "세종특별자치시",
        "name": "부용 변전소",
        "name_en": "Buyong Substation",
        "substation_type": "traction",
        "voltage": "154000;55000;27500",
        "frequency": "",
        "operator": "",
        "location": ""
      }
    },
    {
      "type": "Feature",
      "geometry": {
        "type": "Point",
        "coordinates": [
          127.272769,
          36.6626029
        ]
      },
      "properties": {
        "osm_type": "way",
        "osm_id": 1195895338,
        "sido": "세종특별자치시",
        "name": "",
        "name_en": "",
        "substation_type": "traction",
        "voltage": "55000;27500",
        "frequency": "",
        "operator": "",
        "location": ""
      }
    },
    {
      "type": "Feature",
      "geometry": {
        "type": "Point",
        "coordinates": [
          127.3487882,
          36.5133508
        ]
      },
      "properties": {
        "osm_type": "way",
        "osm_id": 1196122079,
        "sido": "세종특별자치시",
        "name": "",
        "name_en": "",
        "substation_type": "traction",
        "voltage": "55000;27500",
        "frequency": "",
        "operator": "",
        "location": ""
      }
    },
    {
      "type": "Feature",
      "geometry": {
        "type": "Point",
        "coordinates": [
          127.3713903,
          36.5197315
        ]
      },
      "properties": {
        "osm_type": "way",
        "osm_id": 1256461113,
        "sido": "세종특별자치시",
        "name": "부강변전소",
        "name_en": "",
        "substation_type": "",
        "voltage": "154000",
        "frequency": "60",
        "operator": "",
        "location": "indoor"
      }
    },
    {
      "type": "Feature",
      "geometry": {
        "type": "Point",
        "coordinates": [
          127.2955822,
          36.59946
        ]
      },
      "properties": {
        "osm_type": "way",
        "osm_id": 1414107920,
        "sido": "세종특별자치시",
        "name": "",
        "name_en": "",
        "substation_type": "",
        "voltage": "",
        "frequency": "",
        "operator": "",
        "location": ""
      }
    }
  ]
}